dataPointId,journeyId,capturedTimestamp,location,metrics,vehicle,latitude,longitude,geohash,postalCode,regionCode,countryCode,speed,heading,wejoVehicleTypeId,status
4b0341b2-f2e2-4b13-b097-a50e07a6e8c8,d8edc8e398583d54f1cfb0d9ed32db4a61053c3c,2021-11-03 13:45:26-06:00,"{'latitude': 31.783739, 'longitude': -106.507489, 'geohash': '9tskb6', 'postalCode': '79902', 'regionCode': 'TX', 'countryCode': 'US'}","{'speed': 55.29, 'heading': 169.0}","{'wejoVehicleTypeId': 3062202479980516108, 'status': {'ignitionStatus': 'MID_JOURNEY'}}",31.783739,-106.507489,9tskb6,79902,TX,US,55.29,169.0,3062202479980516108,{'ignitionStatus': 'MID_JOURNEY'}
939dbffa-a3d5-4e83-a6a7-c4cd564778e7,eb94423b591b77ac78585f2e4859800cf86910a6,2021-11-03 13:09:54-06:00,"{'latitude': 31.783522, 'longitude': -106.506365, 'geohash': '9tskb6', 'postalCode': '79902', 'regionCode': 'TX', 'countryCode': 'US'}","{'speed': 0.0, 'heading': 1.0}","{'wejoVehicleTypeId': -1263051166959585708, 'status': {'ignitionStatus': 'MID_JOURNEY'}}",31.783522,-106.506365,9tskb6,79902,TX,US,0.0,1.0,-1263051166959585708,{'ignitionStatus': 'MID_JOURNEY'}
d819050f-efab-4aec-b2fe-59ccdc470d4a,3de518a14cdac9c81f944bdb6c9654902d862a6b,2021-11-03 13:26:32-06:00,"{'latitude': 31.784436, 'longitude': -106.505912, 'geohash': '9tskb6', 'postalCode': '79902', 'regionCode': 'TX', 'countryCode': 'US'}","{'speed': 70.27, 'heading': 163.0}","{'wejoVehicleTypeId': -3227166585771760466, 'status': {'ignitionStatus': 'MID_JOURNEY'}}",31.784436,-106.505912,9tskb6,79902,TX,US,70.27,163.0,-3227166585771760466,{'ignitionStatus': 'MID_JOURNEY'}
eaab2551-b432-4785-ab98-80c2a30c7977,09cee76e0d79d9db4bf879a29d3cce61790e056d,2021-11-03 13:16:51-06:00,"{'latitude': 31.784674, 'longitude': -106.506944, 'geohash': '9tskb6', 'postalCode': '79902', 'regionCode': 'TX', 'countryCode': 'US'}","{'speed': 16.12, 'heading': 111.0}","{'wejoVehicleTypeId': -1062919810568841745, 'status': {'ignitionStatus': 'MID_JOURNEY'}}",31.784674,-106.506944,9tskb6,79902,TX,US,16.12,111.0,-1062919810568841745,{'ignitionStatus': 'MID_JOURNEY'}
ed1a27d9-2252-4420-9c7b-e60bc74f04e5,09cee76e0d79d9db4bf879a29d3cce61790e056d,2021-11-03 13:21:51-06:00,"{'latitude': 31.7854, 'longitude': -106.506728, 'geohash': '9tskb6', 'postalCode': '79902', 'regionCode': 'TX', 'countryCode': 'US'}","{'speed': 36.86, 'heading': 45.0}","{'wejoVehicleTypeId': -1062919810568841745, 'status': {'ignitionStatus': 'MID_JOURNEY'}}",31.7854,-106.506728,9tskb6,79902,TX,US,36.86,45.0,-1062919810568841745,{'ignitionStatus': 'MID_JOURNEY'}
05c81b53-e841-42e0-99e1-c826660977f8,eb94423b591b77ac78585f2e4859800cf86910a6,2021-11-03 13:14:00-06:00,"{'latitude': 31.785668, 'longitude': -106.506152, 'geohash': '9tskb6', 'postalCode': '79902', 'regionCode': 'TX', 'countryCode': 'US'}","{'speed': 19.58, 'heading': 47.0}","{'wejoVehicleTypeId': -1263051166959585708, 'status': {'ignitionStatus': 'MID_JOURNEY'}}",31.785668,-106.506152,9tskb6,79902,TX,US,19.58,47.0,-1263051166959585708,{'ignitionStatus': 'MID_JOURNEY'}
2a23a95c-67c4-4ec0-bcd9-d967d7b30ba6,d94a3cf6d8cafb5bccd2b3b1ec9c5b1f5b8d9ad2,2021-11-03 13:33:37-06:00,"{'latitude': 31.785129, 'longitude': -106.506648, 'geohash': '9tskb6', 'postalCode': '79902', 'regionCode': 'TX', 'countryCode': 'US'}","{'speed': 0.0, 'heading': 166.0}","{'wejoVehicleTypeId': 7682339952434875459, 'status': {'ignitionStatus': 'MID_JOURNEY'}}",31.785129,-106.506648,9tskb6,79902,TX,US,0.0,166.0,7682339952434875459,{'ignitionStatus': 'MID_JOURNEY'}
3e4a7eaf-39c3-482c-8697-f992b6acacef,8868f3725adbaaed4a46bb521b5335338a658615,2021-11-03 13:48:10-06:00,"{'latitude': 31.783695, 'longitude': -106.505536, 'geohash': '9tskb6', 'postalCode': '79902', 'regionCode': 'TX', 'countryCode': 'US'}","{'speed': 78.33, 'heading': 346.0}","{'wejoVehicleTypeId': -8419403582787174445, 'status': {'ignitionStatus': 'MID_JOURNEY'}}",31.783695,-106.505536,9tskb6,79902,TX,US,78.33,346.0,-8419403582787174445,{'ignitionStatus': 'MID_JOURNEY'}
88980569-cb07-4682-a8c7-33cefd71fdba,09cee76e0d79d9db4bf879a29d3cce61790e056d,2021-11-03 13:23:06-06:00,"{'latitude': 31.785505, 'longitude': -106.506554, 'geohash': '9tskb6', 'postalCode': '79902', 'regionCode': 'TX', 'countryCode': 'US'}","{'speed': 0.0, 'heading': 63.0}","{'wejoVehicleTypeId': -1062919810568841745, 'status': {'ignitionStatus': 'MID_JOURNEY'}}",31.785505,-106.506554,9tskb6,79902,TX,US,0.0,63.0,-1062919810568841745,{'ignitionStatus': 'MID_JOURNEY'}
eaec745d-04dd-458a-b716-d89f0991c3cb,dd0ce3eb4c0e296b45831bbc29bf298c21e1a616,2021-11-03 13:13:48-06:00,"{'latitude': 31.785165, 'longitude': -106.505983, 'geohash': '9tskb6', 'postalCode': '79902', 'regionCode': 'TX', 'countryCode': 'US'}","{'speed': 16.12, 'heading': 346.0}","{'wejoVehicleTypeId': -2008751621071766048, 'status': {'ignitionStatus': 'MID_JOURNEY'}}",31.785165,-106.505983,9tskb6,79902,TX,US,16.12,346.0,-2008751621071766048,{'ignitionStatus': 'MID_JOURNEY'}
304921c0-64c3-443c-989a-031b08a23c30,84c810a60e88d865db8e5082ec01efba51b14da6,2021-11-04 13:04:14-06:00,"{'latitude': 31.785247, 'longitude': -106.505987, 'geohash': '9tskb6', 'postalCode': '79902', 'regionCode': 'TX', 'countryCode': 'US'}","{'speed': 70.27, 'heading': 346.0}","{'wejoVehicleTypeId': 9046937963285288718, 'status': {'ignitionStatus': 'MID_JOURNEY'}}",31.785247,-106.505987,9tskb6,79902,TX,US,70.27,346.0,9046937963285288718,{'ignitionStatus': 'MID_JOURNEY'}
3670d7fd-f944-4a6e-b59c-dc803ff42156,782d5ae0789d8e88b8161acc6051cf3df388f344,2021-11-04 13:24:39-06:00,"{'latitude': 31.785191, 'longitude': -106.506641, 'geohash': '9tskb6', 'postalCode': '79902', 'regionCode': 'TX', 'countryCode': 'US'}","{'speed': 6.91, 'heading': 208.0}","{'wejoVehicleTypeId': -1815567737140119355, 'status': {'ignitionStatus': 'MID_JOURNEY'}}",31.785191,-106.506641,9tskb6,79902,TX,US,6.91,208.0,-1815567737140119355,{'ignitionStatus': 'MID_JOURNEY'}
5f011a02-4379-474c-8093-3815435d362b,d341c840898be7153c1242d9d9c510e04e967f17,2021-11-04 13:30:15-06:00,"{'latitude': 31.785034, 'longitude': -106.505929, 'geohash': '9tskb6', 'postalCode': '79902', 'regionCode': 'TX', 'countryCode': 'US'}","{'speed': 67.96, 'heading': 345.0}","{'wejoVehicleTypeId': -4709349928277099769, 'status': {'ignitionStatus': 'MID_JOURNEY'}}",31.785034,-106.505929,9tskb6,79902,TX,US,67.96,345.0,-4709349928277099769,{'ignitionStatus': 'MID_JOURNEY'}
7c1a0b03-c5a1-4463-b9eb-a0ce28cf23cb,852639ac8f55665b80c4749cce276f155132dd99,2021-11-04 13:37:19-06:00,"{'latitude': 31.783386, 'longitude': -106.50636, 'geohash': '9tskb3', 'postalCode': '79902', 'regionCode': 'TX', 'countryCode': 'US'}","{'speed': 0.0, 'heading': 355.0}","{'wejoVehicleTypeId': -3083659578146651040, 'status': {'ignitionStatus': 'MID_JOURNEY'}}",31.783386,-106.50636,9tskb3,79902,TX,US,0.0,355.0,-3083659578146651040,{'ignitionStatus': 'MID_JOURNEY'}
f27bcc16-65a0-4538-be63-c719f15d498d,852639ac8f55665b80c4749cce276f155132dd99,2021-11-04 13:35:37-06:00,"{'latitude': 31.783308, 'longitude': -106.506365, 'geohash': '9tskb3', 'postalCode': '79902', 'regionCode': 'TX', 'countryCode': 'US'}","{'speed': 0.0, 'heading': 0.0}","{'wejoVehicleTypeId': -3083659578146651040, 'status': {'ignitionStatus': 'MID_JOURNEY'}}",31.783308,-106.506365,9tskb3,79902,TX,US,0.0,0.0,-3083659578146651040,{'ignitionStatus': 'MID_JOURNEY'}
0669cbf2-3683-400f-96ac-beed602fd57a,4a8b92f47f30ab7445d0c761a69a9ded45f9c94a,2021-11-04 13:41:03-06:00,"{'latitude': 31.784298, 'longitude': -106.505951, 'geohash': '9tskb6', 'postalCode': '79902', 'regionCode': 'TX', 'countryCode': 'US'}","{'speed': 51.83, 'heading': 167.0}","{'wejoVehicleTypeId': -4377905402853013403, 'status': {'ignitionStatus': 'MID_JOURNEY'}}",31.784298,-106.505951,9tskb6,79902,TX,US,51.83,167.0,-4377905402853013403,{'ignitionStatus': 'MID_JOURNEY'}
34bfe6b3-22f3-43d4-8a11-7e72dff8d369,a3e11ee0141bd18d8db59cc103bea90bacb4e5ee,2021-11-04 13:01:39-06:00,"{'latitude': 31.78244, 'longitude': -106.50617, 'geohash': '9tskb3', 'postalCode': '79902', 'regionCode': 'TX', 'countryCode': 'US'}","{'speed': 0.0, 'heading': 354.0}","{'wejoVehicleTypeId': -345822443061872740, 'status': {'ignitionStatus': 'MID_JOURNEY'}}",31.78244,-106.50617,9tskb3,79902,TX,US,0.0,354.0,-345822443061872740,{'ignitionStatus': 'MID_JOURNEY'}
3a5f2cbc-0864-4b35-a290-c64b942b84f6,eb6deeda914401ca6b40806e050db8a866201aff,2021-11-04 13:38:42-06:00,"{'latitude': 31.785687, 'longitude': -106.506002, 'geohash': '9tskb6', 'postalCode': '79902', 'regionCode': 'TX', 'countryCode': 'US'}","{'speed': 0.0, 'heading': 259.0}","{'wejoVehicleTypeId': 2798370894463999822, 'status': {'ignitionStatus': 'MID_JOURNEY'}}",31.785687,-106.506002,9tskb6,79902,TX,US,0.0,259.0,2798370894463999822,{'ignitionStatus': 'MID_JOURNEY'}
5f5f6b84-960c-457d-affc-55a8dab21ff2,a9dc79ed9519f6fd6485b96d5b4848ea46f00604,2021-11-04 13:45:54-06:00,"{'latitude': 31.785286, 'longitude': -106.506008, 'geohash': '9tskb6', 'postalCode': '79902', 'regionCode': 'TX', 'countryCode': 'US'}","{'speed': 11.52, 'heading': 346.0}","{'wejoVehicleTypeId': 6298495200375031687, 'status': {'ignitionStatus': 'MID_JOURNEY'}}",31.785286,-106.506008,9tskb6,79902,TX,US,11.52,346.0,6298495200375031687,{'ignitionStatus': 'MID_JOURNEY'}
6dc1701e-3103-440d-8995-3794ed7701c7,ab5de819e72f42d8b73aa5c157a455e36db2a4b4,2021-11-04 13:23:07-06:00,"{'latitude': 31.785525, 'longitude': -106.506043, 'geohash': '9tskb6', 'postalCode': '79902', 'regionCode': 'TX', 'countryCode': 'US'}","{'speed': 0.0, 'heading': 346.0}","{'wejoVehicleTypeId': 4676220773989341713, 'status': {'ignitionStatus': 'MID_JOURNEY'}}",31.785525,-106.506043,9tskb6,79902,TX,US,0.0,346.0,4676220773989341713,{'ignitionStatus': 'MID_JOURNEY'}
b0058201-04cc-41c9-8bdc-2ab26c28facb,852639ac8f55665b80c4749cce276f155132dd99,2021-11-04 13:37:04-06:00,"{'latitude': 31.783386, 'longitude': -106.50636, 'geohash': '9tskb3', 'postalCode': '79902', 'regionCode': 'TX', 'countryCode': 'US'}","{'speed': 0.0, 'heading': 355.0}","{'wejoVehicleTypeId': -3083659578146651040, 'status': {'ignitionStatus': 'MID_JOURNEY'}}",31.783386,-106.50636,9tskb3,79902,TX,US,0.0,355.0,-3083659578146651040,{'ignitionStatus': 'MID_JOURNEY'}
b69f1cbe-a155-4d7e-82b3-8fedd10e089f,4d393524cf949cd22d0d155bc3fd0e02c945d54d,2021-11-04 13:38:25-06:00,"{'latitude': 31.785386, 'longitude': -106.506055, 'geohash': '9tskb6', 'postalCode': '79902', 'regionCode': 'TX', 'countryCode': 'US'}","{'speed': 31.1, 'heading': 347.0}","{'wejoVehicleTypeId': 717975678040767395, 'status': {'ignitionStatus': 'MID_JOURNEY'}}",31.785386,-106.506055,9tskb6,79902,TX,US,31.1,347.0,717975678040767395,{'ignitionStatus': 'MID_JOURNEY'}
1589539f-3e44-49f3-bdfd-b328b2a87d20,a2236a02a2156af6ddb8e2b5b617b19a78d851db,2021-11-10 12:39:44-07:00,"{'latitude': 31.785572, 'longitude': -106.506525, 'geohash': '9tskb6', 'postalCode': '79902', 'regionCode': 'TX', 'countryCode': 'US'}","{'speed': 21.88, 'heading': 234.0}","{'wejoVehicleTypeId': -72867296589782889, 'status': {'ignitionStatus': 'MID_JOURNEY'}}",31.785572,-106.506525,9tskb6,79902,TX,US,21.88,234.0,-72867296589782889,{'ignitionStatus': 'MID_JOURNEY'}
24db68a2-1531-45cb-8e5b-c8188141c948,2aeca7d631fc4925cad0c3745a02f0d01fbec1bb,2021-11-10 12:17:01-07:00,"{'latitude': 31.785286, 'longitude': -106.506008, 'geohash': '9tskb6', 'postalCode': '79902', 'regionCode': 'TX', 'countryCode': 'US'}","{'speed': 58.75, 'heading': 346.0}","{'wejoVehicleTypeId': 3557021257846762175, 'status': {'ignitionStatus': 'MID_JOURNEY'}}",31.785286,-106.506008,9tskb6,79902,TX,US,58.75,346.0,3557021257846762175,{'ignitionStatus': 'MID_JOURNEY'}
5eb5c1b5-3b62-47ae-8f2c-f3c22ad67cf3,be032586b40d6518d80c0809e2e27a7256c0cb89,2021-11-10 12:15:43-07:00,"{'latitude': 31.784191, 'longitude': -106.505851, 'geohash': '9tskb6', 'postalCode': '79902', 'regionCode': 'TX', 'countryCode': 'US'}","{'speed': 51.83, 'heading': 166.0}","{'wejoVehicleTypeId': -3424954907838324437, 'status': {'ignitionStatus': 'MID_JOURNEY'}}",31.784191,-106.505851,9tskb6,79902,TX,US,51.83,166.0,-3424954907838324437,{'ignitionStatus': 'MID_JOURNEY'}
661f1fc1-4164-44f4-b064-1e24172fde8d,6bf3d622e89f097d7c4cd491a999860ca1670c92,2021-11-10 12:26:49-07:00,"{'latitude': 31.784781, 'longitude': -106.50627, 'geohash': '9tskb6', 'postalCode': '79902', 'regionCode': 'TX', 'countryCode': 'US'}","{'speed': 8.06, 'heading': 76.0}","{'wejoVehicleTypeId': 4055656265344844203, 'status': {'ignitionStatus': 'MID_JOURNEY'}}",31.784781,-106.50627,9tskb6,79902,TX,US,8.06,76.0,4055656265344844203,{'ignitionStatus': 'MID_JOURNEY'}
74a9664c-5f50-43a9-82e6-f8c7710038fb,30a7177258cd5c76cf10e0d5d404fbfda123ba5e,2021-11-10 12:00:35-07:00,"{'latitude': 31.78266, 'longitude': -106.507213, 'geohash': '9tskb3', 'postalCode': '79902', 'regionCode': 'TX', 'countryCode': 'US'}","{'speed': 46.08, 'heading': 355.0}","{'wejoVehicleTypeId': -6280472312575676545, 'status': {'ignitionStatus': 'MID_JOURNEY'}}",31.78266,-106.507213,9tskb3,79902,TX,US,46.08,355.0,-6280472312575676545,{'ignitionStatus': 'MID_JOURNEY'}
8b2e0fb5-01e3-4a77-856e-39b2edfb32a8,0a4cb70d8a6e51bbc2dc704dd8a97f71774a67b9,2021-11-10 12:33:10-07:00,"{'latitude': 31.785158, 'longitude': -106.506648, 'geohash': '9tskb6', 'postalCode': '79902', 'regionCode': 'TX', 'countryCode': 'US'}","{'speed': 0.0, 'heading': 172.0}","{'wejoVehicleTypeId': 4022660182159126993, 'status': {'ignitionStatus': 'MID_JOURNEY'}}",31.785158,-106.506648,9tskb6,79902,TX,US,0.0,172.0,4022660182159126993,{'ignitionStatus': 'MID_JOURNEY'}
8e1507f0-758e-480f-9715-da0dc303d815,0a4cb70d8a6e51bbc2dc704dd8a97f71774a67b9,2021-11-10 12:35:28-07:00,"{'latitude': 31.785041, 'longitude': -106.506501, 'geohash': '9tskb6', 'postalCode': '79902', 'regionCode': 'TX', 'countryCode': 'US'}","{'speed': 0.0, 'heading': 74.0}","{'wejoVehicleTypeId': 4022660182159126993, 'status': {'ignitionStatus': 'MID_JOURNEY'}}",31.785041,-106.506501,9tskb6,79902,TX,US,0.0,74.0,4022660182159126993,{'ignitionStatus': 'MID_JOURNEY'}
b74b6246-1402-49f6-8cbd-861105c89336,e65d645038d29345b5918f57e01f83890e250e30,2021-11-10 12:27:49-07:00,"{'latitude': 31.785507, 'longitude': -106.506874, 'geohash': '9tskb6', 'postalCode': '79902', 'regionCode': 'TX', 'countryCode': 'US'}","{'speed': 9.21, 'heading': 172.0}","{'wejoVehicleTypeId': -2008751621071766048, 'status': {'ignitionStatus': 'MID_JOURNEY'}}",31.785507,-106.506874,9tskb6,79902,TX,US,9.21,172.0,-2008751621071766048,{'ignitionStatus': 'MID_JOURNEY'}
dd22deff-df40-437b-b071-aab4eb910545,0a4cb70d8a6e51bbc2dc704dd8a97f71774a67b9,2021-11-10 12:32:28-07:00,"{'latitude': 31.785158, 'longitude': -106.506648, 'geohash': '9tskb6', 'postalCode': '79902', 'regionCode': 'TX', 'countryCode': 'US'}","{'speed': 0.0, 'heading': 172.0}","{'wejoVehicleTypeId': 4022660182159126993, 'status': {'ignitionStatus': 'MID_JOURNEY'}}",31.785158,-106.506648,9tskb6,79902,TX,US,0.0,172.0,4022660182159126993,{'ignitionStatus': 'MID_JOURNEY'}
f1d8b342-3bae-478e-97fd-9c7d6768a4bd,9244b5eebb53247847f863e756b474f289d16914,2021-11-10 12:44:51-07:00,"{'latitude': 31.784926, 'longitude': -106.506575, 'geohash': '9tskb6', 'postalCode': '79902', 'regionCode': 'TX', 'countryCode': 'US'}","{'speed': 0.0, 'heading': 344.0}","{'wejoVehicleTypeId': 5632009796919325473, 'status': {'ignitionStatus': 'KEY_ON'}}",31.784926,-106.506575,9tskb6,79902,TX,US,0.0,344.0,5632009796919325473,{'ignitionStatus': 'KEY_ON'}
f38ca587-d074-4dfe-a60f-fc1d2925f05b,61a472521f03f77a889c915b94800912c2335594,2021-11-10 12:06:39-07:00,"{'latitude': 31.782493, 'longitude': -106.506973, 'geohash': '9tskb3', 'postalCode': '79902', 'regionCode': 'TX', 'countryCode': 'US'}","{'speed': 11.52, 'heading': 268.0}","{'wejoVehicleTypeId': -4102018487432414188, 'status': {'ignitionStatus': 'MID_JOURNEY'}}",31.782493,-106.506973,9tskb3,79902,TX,US,11.52,268.0,-4102018487432414188,{'ignitionStatus': 'MID_JOURNEY'}
1775d120-8827-42eb-9627-3795135006d8,ba22444e9b961d75076e36d5da4f7aa492b69bcc,2021-11-10 12:14:48-07:00,"{'latitude': 31.785708, 'longitude': -106.505947, 'geohash': '9tskb6', 'postalCode': '79902', 'regionCode': 'TX', 'countryCode': 'US'}","{'speed': 0.0, 'heading': 249.0}","{'wejoVehicleTypeId': -8735686858431946495, 'status': {'ignitionStatus': 'MID_JOURNEY'}}",31.785708,-106.505947,9tskb6,79902,TX,US,0.0,249.0,-8735686858431946495,{'ignitionStatus': 'MID_JOURNEY'}
1a048f59-e326-4ada-b4af-abdd76a4c8ae,3ce23886ea82d9470cd482a96193e89390f3f388,2021-11-10 12:13:35-07:00,"{'latitude': 31.785038, 'longitude': -106.506548, 'geohash': '9tskb6', 'postalCode': '79902', 'regionCode': 'TX', 'countryCode': 'US'}","{'speed': 0.0, 'heading': 81.0}","{'wejoVehicleTypeId': -6519314678940220591, 'status': {'ignitionStatus': 'MID_JOURNEY'}}",31.785038,-106.506548,9tskb6,79902,TX,US,0.0,81.0,-6519314678940220591,{'ignitionStatus': 'MID_JOURNEY'}
3a3058dd-1786-4979-b946-9251cf636982,c40c9141dc948d897e50a22416c8a960c1d4a0e4,2021-11-10 12:10:27-07:00,"{'latitude': 31.781843, 'longitude': -106.505151, 'geohash': '9tskb3', 'postalCode': '79902', 'regionCode': 'TX', 'countryCode': 'US'}","{'speed': 62.2, 'heading': 355.0}","{'wejoVehicleTypeId': -6042628273181326410, 'status': {'ignitionStatus': 'MID_JOURNEY'}}",31.781843,-106.505151,9tskb3,79902,TX,US,62.2,355.0,-6042628273181326410,{'ignitionStatus': 'MID_JOURNEY'}
8217e79e-810b-48b1-bd47-705256982a72,6ee1115cec3b44848f04c35c81a9056bbf248309,2021-11-10 12:56:52-07:00,"{'latitude': 31.785592, 'longitude': -106.506271, 'geohash': '9tskb6', 'postalCode': '79902', 'regionCode': 'TX', 'countryCode': 'US'}","{'speed': 59.9, 'heading': 165.0}","{'wejoVehicleTypeId': -7069113261532837517, 'status': {'ignitionStatus': 'MID_JOURNEY'}}",31.785592,-106.506271,9tskb6,79902,TX,US,59.9,165.0,-7069113261532837517,{'ignitionStatus': 'MID_JOURNEY'}
8de41c7e-623c-46be-ae15-fae849d8a627,7af9195bb8f1d9b8839e47859c9ce02ba0cdfa0f,2021-11-10 12:56:13-07:00,"{'latitude': 31.785493, 'longitude': -106.506264, 'geohash': '9tskb6', 'postalCode': '79902', 'regionCode': 'TX', 'countryCode': 'US'}","{'speed': 31.1, 'heading': 162.0}","{'wejoVehicleTypeId': 181539766513714915, 'status': {'ignitionStatus': 'MID_JOURNEY'}}",31.785493,-106.506264,9tskb6,79902,TX,US,31.1,162.0,181539766513714915,{'ignitionStatus': 'MID_JOURNEY'}
a657cf7f-d94a-4236-a777-24c1deeb9065,99801003d618697f36b473331f7476ad92bc6e38,2021-11-10 12:50:41-07:00,"{'latitude': 31.785307, 'longitude': -106.508005, 'geohash': '9tskb6', 'postalCode': '79902', 'regionCode': 'TX', 'countryCode': 'US'}","{'speed': 23.04, 'heading': 323.0}","{'wejoVehicleTypeId': 1988604616850513910, 'status': {'ignitionStatus': 'MID_JOURNEY'}}",31.785307,-106.508005,9tskb6,79902,TX,US,23.04,323.0,1988604616850513910,{'ignitionStatus': 'MID_JOURNEY'}
0054d8d3-4eb4-43d2-a8f1-5daa0056da96,ca74a2ca5a6c9f1b1c0ae577f5919715faf1270a,2021-11-18 12:04:23-07:00,"{'latitude': 31.784928, 'longitude': -106.50635, 'geohash': '9tskb6', 'postalCode': '79902', 'regionCode': 'TX', 'countryCode': 'US'}","{'speed': 13.82, 'heading': 256.0}","{'wejoVehicleTypeId': 3557021257846762175, 'status': {'ignitionStatus': 'MID_JOURNEY'}}",31.784928,-106.50635,9tskb6,79902,TX,US,13.82,256.0,3557021257846762175,{'ignitionStatus': 'MID_JOURNEY'}
1c7d411e-cddb-4992-afd6-f4a3a7130e8c,842159bb93532298b5531df62f67c5abd2288b44,2021-11-18 12:20:23-07:00,"{'latitude': 31.78546, 'longitude': -106.506268, 'geohash': '9tskb6', 'postalCode': '79902', 'regionCode': 'TX', 'countryCode': 'US'}","{'speed': 51.83, 'heading': 165.0}","{'wejoVehicleTypeId': 925464807073566472, 'status': {'ignitionStatus': 'MID_JOURNEY'}}",31.78546,-106.506268,9tskb6,79902,TX,US,51.83,165.0,925464807073566472,{'ignitionStatus': 'MID_JOURNEY'}
3aebe678-3b40-4795-8477-6ef575df7ebb,f46765ea018b567129d7117e46b99c36e85aa489,2021-11-18 12:29:25-07:00,"{'latitude': 31.783424, 'longitude': -106.505855, 'geohash': '9tskb3', 'postalCode': '79902', 'regionCode': 'TX', 'countryCode': 'US'}","{'speed': 0.0, 'heading': 234.0}","{'wejoVehicleTypeId': 5840964419435185967, 'status': {'ignitionStatus': 'MID_JOURNEY'}}",31.783424,-106.505855,9tskb3,79902,TX,US,0.0,234.0,5840964419435185967,{'ignitionStatus': 'MID_JOURNEY'}
44bc77dc-8a4f-4fda-9ff4-0e39ccef407f,ca74a2ca5a6c9f1b1c0ae577f5919715faf1270a,2021-11-18 12:08:08-07:00,"{'latitude': 31.784778, 'longitude': -106.506228, 'geohash': '9tskb6', 'postalCode': '79902', 'regionCode': 'TX', 'countryCode': 'US'}","{'speed': 1.15, 'heading': 79.0}","{'wejoVehicleTypeId': 3557021257846762175, 'status': {'ignitionStatus': 'MID_JOURNEY'}}",31.784778,-106.506228,9tskb6,79902,TX,US,1.15,79.0,3557021257846762175,{'ignitionStatus': 'MID_JOURNEY'}
58c462b1-9dd9-4df0-8bba-5e83d4742f91,f46765ea018b567129d7117e46b99c36e85aa489,2021-11-18 12:27:22-07:00,"{'latitude': 31.783424, 'longitude': -106.505855, 'geohash': '9tskb3', 'postalCode': '79902', 'regionCode': 'TX', 'countryCode': 'US'}","{'speed': 0.0, 'heading': 234.0}","{'wejoVehicleTypeId': 5840964419435185967, 'status': {'ignitionStatus': 'MID_JOURNEY'}}",31.783424,-106.505855,9tskb3,79902,TX,US,0.0,234.0,5840964419435185967,{'ignitionStatus': 'MID_JOURNEY'}
6a8a0fd2-8f84-4b3b-929b-81153045acbe,7f177ea0e722baff1c9ffce830f82b0edcd43a7d,2021-11-18 12:07:35-07:00,"{'latitude': 31.785496, 'longitude': -106.506108, 'geohash': '9tskb6', 'postalCode': '79902', 'regionCode': 'TX', 'countryCode': 'US'}","{'speed': 0.0, 'heading': 344.0}","{'wejoVehicleTypeId': 3519719782581272855, 'status': {'ignitionStatus': 'MID_JOURNEY'}}",31.785496,-106.506108,9tskb6,79902,TX,US,0.0,344.0,3519719782581272855,{'ignitionStatus': 'MID_JOURNEY'}
715049ee-7c19-44b7-a55e-555296370bf6,a3883965e4d80ab39c5be0470b31febc12e15f2f,2021-11-18 12:10:47-07:00,"{'latitude': 31.785312, 'longitude': -106.506856, 'geohash': '9tskb6', 'postalCode': '79902', 'regionCode': 'TX', 'countryCode': 'US'}","{'speed': 35.71, 'heading': 42.0}","{'wejoVehicleTypeId': 3817048721446255929, 'status': {'ignitionStatus': 'MID_JOURNEY'}}",31.785312,-106.506856,9tskb6,79902,TX,US,35.71,42.0,3817048721446255929,{'ignitionStatus': 'MID_JOURNEY'}
ad40a8ad-b6d6-42e6-a243-e8a1081cb548,ca74a2ca5a6c9f1b1c0ae577f5919715faf1270a,2021-11-18 12:05:35-07:00,"{'latitude': 31.784693, 'longitude': -106.5068, 'geohash': '9tskb6', 'postalCode': '79902', 'regionCode': 'TX', 'countryCode': 'US'}","{'speed': 0.0, 'heading': 75.0}","{'wejoVehicleTypeId': 3557021257846762175, 'status': {'ignitionStatus': 'MID_JOURNEY'}}",31.784693,-106.5068,9tskb6,79902,TX,US,0.0,75.0,3557021257846762175,{'ignitionStatus': 'MID_JOURNEY'}
bb961365-f9b4-445a-bf35-66b414c62bd0,03bff7403c4113b1bc92bd3580e0a06b23d88c81,2021-11-18 12:07:22-07:00,"{'latitude': 31.782516, 'longitude': -106.505291, 'geohash': '9tskb3', 'postalCode': '79902', 'regionCode': 'TX', 'countryCode': 'US'}","{'speed': 63.35, 'heading': 351.0}","{'wejoVehicleTypeId': -5569246021119668782, 'status': {'ignitionStatus': 'MID_JOURNEY'}}",31.782516,-106.505291,9tskb3,79902,TX,US,63.35,351.0,-5569246021119668782,{'ignitionStatus': 'MID_JOURNEY'}
fbcdc25f-e742-4798-896a-8c782a8db2bf,ee0e7c7f0a5251ba503326921244f0a886cc84af,2021-11-18 12:59:43-07:00,"{'latitude': 31.784163, 'longitude': -106.507053, 'geohash': '9tskb6', 'postalCode': '79902', 'regionCode': 'TX', 'countryCode': 'US'}","{'speed': 11.52, 'heading': 42.0}","{'wejoVehicleTypeId': 6740515775419613306, 'status': {'ignitionStatus': 'MID_JOURNEY'}}",31.784163,-106.507053,9tskb6,79902,TX,US,11.52,42.0,6740515775419613306,{'ignitionStatus': 'MID_JOURNEY'}
0424db1b-7ae8-4c15-9587-936ba42048ba,a6dda4758bdc2898e1a5a6866261eb27e4e0f80d,2021-11-11 12:16:58-07:00,"{'latitude': 31.785459, 'longitude': -106.506476, 'geohash': '9tskb6', 'postalCode': '79902', 'regionCode': 'TX', 'countryCode': 'US'}","{'speed': 0.0, 'heading': 66.0}","{'wejoVehicleTypeId': -5202287729521290197, 'status': {'ignitionStatus': 'MID_JOURNEY'}}",31.785459,-106.506476,9tskb6,79902,TX,US,0.0,66.0,-5202287729521290197,{'ignitionStatus': 'MID_JOURNEY'}
0448d6fa-c454-4d27-92e1-48881f77de0b,d3556dfd131c68446493e678c2f353c1dc78df3e,2021-11-11 12:13:32-07:00,"{'latitude': 31.783292, 'longitude': -106.506377, 'geohash': '9tskb3', 'postalCode': '79902', 'regionCode': 'TX', 'countryCode': 'US'}","{'speed': 0.0, 'heading': 0.0}","{'wejoVehicleTypeId': 7111871753776661095, 'status': {'ignitionStatus': 'MID_JOURNEY'}}",31.783292,-106.506377,9tskb3,79902,TX,US,0.0,0.0,7111871753776661095,{'ignitionStatus': 'MID_JOURNEY'}
241c27b8-04a2-46a9-834e-b3b32c856990,5d22b94280944b112510d1dc6e4a31e546d6c292,2021-11-11 12:31:59-07:00,"{'latitude': 31.783544, 'longitude': -106.50638, 'geohash': '9tskb6', 'postalCode': '79902', 'regionCode': 'TX', 'countryCode': 'US'}","{'speed': 0.0, 'heading': 0.0}","{'wejoVehicleTypeId': 7111871753776661095, 'status': {'ignitionStatus': 'MID_JOURNEY'}}",31.783544,-106.50638,9tskb6,79902,TX,US,0.0,0.0,7111871753776661095,{'ignitionStatus': 'MID_JOURNEY'}
2c11b48d-62bb-4a2d-97b7-add3b467ecea,04bb66d5c82a5174373f1e0824535afdebc76617,2021-11-11 12:21:52-07:00,"{'latitude': 31.784684, 'longitude': -106.506797, 'geohash': '9tskb6', 'postalCode': '79902', 'regionCode': 'TX', 'countryCode': 'US'}","{'speed': 0.0, 'heading': 79.0}","{'wejoVehicleTypeId': 2401757630609642758, 'status': {'ignitionStatus': 'MID_JOURNEY'}}",31.784684,-106.506797,9tskb6,79902,TX,US,0.0,79.0,2401757630609642758,{'ignitionStatus': 'MID_JOURNEY'}
2e15019b-caab-4b4b-839a-7358cb6ceae5,e054cd52d657c6f5d87f6efe6462b967b0182aa3,2021-11-11 12:34:04-07:00,"{'latitude': 31.783427, 'longitude': -106.50595, 'geohash': '9tskb3', 'postalCode': '79902', 'regionCode': 'TX', 'countryCode': 'US'}","{'speed': 0.0, 'heading': 263.0}","{'wejoVehicleTypeId': -6690099478050290831, 'status': {'ignitionStatus': 'MID_JOURNEY'}}",31.783427,-106.50595,9tskb3,79902,TX,US,0.0,263.0,-6690099478050290831,{'ignitionStatus': 'MID_JOURNEY'}
39834131-d696-48e0-8f90-3af5b300ca50,a46296a9cd5d30ad85426aa0d034ff29147e1886,2021-11-11 12:33:50-07:00,"{'latitude': 31.783287, 'longitude': -106.507747, 'geohash': '9tskb3', 'postalCode': '79902', 'regionCode': 'TX', 'countryCode': 'US'}","{'speed': 0.0, 'heading': 161.0}","{'wejoVehicleTypeId': 7026689138061308090, 'status': {'ignitionStatus': 'MID_JOURNEY'}}",31.783287,-106.507747,9tskb3,79902,TX,US,0.0,161.0,7026689138061308090,{'ignitionStatus': 'MID_JOURNEY'}
42592e46-84ca-4404-8a58-3b225bbfa556,04bb66d5c82a5174373f1e0824535afdebc76617,2021-11-11 12:18:37-07:00,"{'latitude': 31.784693, 'longitude': -106.506864, 'geohash': '9tskb6', 'postalCode': '79902', 'regionCode': 'TX', 'countryCode': 'US'}","{'speed': 0.0, 'heading': 134.0}","{'wejoVehicleTypeId': 2401757630609642758, 'status': {'ignitionStatus': 'MID_JOURNEY'}}",31.784693,-106.506864,9tskb6,79902,TX,US,0.0,134.0,2401757630609642758,{'ignitionStatus': 'MID_JOURNEY'}
68281fa9-3210-4989-9052-e01f8a019824,9271ff93071880945c33d1d7f037786f6212840c,2021-11-11 12:30:15-07:00,"{'latitude': 31.785653, 'longitude': -106.506251, 'geohash': '9tskb6', 'postalCode': '79902', 'regionCode': 'TX', 'countryCode': 'US'}","{'speed': 24.19, 'heading': 166.0}","{'wejoVehicleTypeId': -4282239834949019781, 'status': {'ignitionStatus': 'MID_JOURNEY'}}",31.785653,-106.506251,9tskb6,79902,TX,US,24.19,166.0,-4282239834949019781,{'ignitionStatus': 'MID_JOURNEY'}
6f971000-5b6c-4a13-9133-8b3280f53b2c,8dba3fe827b684de4c86b50e74388ddb70640bbf,2021-11-11 12:03:34-07:00,"{'latitude': 31.784268, 'longitude': -106.505724, 'geohash': '9tskb6', 'postalCode': '79902', 'regionCode': 'TX', 'countryCode': 'US'}","{'speed': 84.09, 'heading': 345.0}","{'wejoVehicleTypeId': 7975054977758254947, 'status': {'ignitionStatus': 'MID_JOURNEY'}}",31.784268,-106.505724,9tskb6,79902,TX,US,84.09,345.0,7975054977758254947,{'ignitionStatus': 'MID_JOURNEY'}
81c7c583-039d-4674-b86e-329cb6629255,df3b8982eaa6e31fc92ba0199e3312c592f74fc2,2021-11-11 12:33:48-07:00,"{'latitude': 31.784823, 'longitude': -106.505841, 'geohash': '9tskb6', 'postalCode': '79902', 'regionCode': 'TX', 'countryCode': 'US'}","{'speed': 18.43, 'heading': 331.0}","{'wejoVehicleTypeId': -8365967274701180683, 'status': {'ignitionStatus': 'MID_JOURNEY'}}",31.784823,-106.505841,9tskb6,79902,TX,US,18.43,331.0,-8365967274701180683,{'ignitionStatus': 'MID_JOURNEY'}
83bb9157-443c-4b64-ad81-1d53809db288,8aa3031f331890034705246530cd708e28fa8891,2021-11-11 12:01:35-07:00,"{'latitude': 31.785156, 'longitude': -106.506698, 'geohash': '9tskb6', 'postalCode': '79902', 'regionCode': 'TX', 'countryCode': 'US'}","{'speed': 0.0, 'heading': 231.0}","{'wejoVehicleTypeId': -2042328715056192980, 'status': {'ignitionStatus': 'MID_JOURNEY'}}",31.785156,-106.506698,9tskb6,79902,TX,US,0.0,231.0,-2042328715056192980,{'ignitionStatus': 'MID_JOURNEY'}
9b3659d7-bffa-4856-9013-10751e9f7b75,5d22b94280944b112510d1dc6e4a31e546d6c292,2021-11-11 12:29:50-07:00,"{'latitude': 31.783544, 'longitude': -106.50638, 'geohash': '9tskb6', 'postalCode': '79902', 'regionCode': 'TX', 'countryCode': 'US'}","{'speed': 0.0, 'heading': 0.0}","{'wejoVehicleTypeId': 7111871753776661095, 'status': {'ignitionStatus': 'MID_JOURNEY'}}",31.783544,-106.50638,9tskb6,79902,TX,US,0.0,0.0,7111871753776661095,{'ignitionStatus': 'MID_JOURNEY'}
9b48bebc-b868-497e-828a-cbc9e303f943,5d22b94280944b112510d1dc6e4a31e546d6c292,2021-11-11 12:27:32-07:00,"{'latitude': 31.783452, 'longitude': -106.506375, 'geohash': '9tskb6', 'postalCode': '79902', 'regionCode': 'TX', 'countryCode': 'US'}","{'speed': 0.0, 'heading': 0.0}","{'wejoVehicleTypeId': 7111871753776661095, 'status': {'ignitionStatus': 'MID_JOURNEY'}}",31.783452,-106.506375,9tskb6,79902,TX,US,0.0,0.0,7111871753776661095,{'ignitionStatus': 'MID_JOURNEY'}
a92c9a0d-32de-4b71-a227-146eca602ad3,a46296a9cd5d30ad85426aa0d034ff29147e1886,2021-11-11 12:35:11-07:00,"{'latitude': 31.783245, 'longitude': -106.507865, 'geohash': '9tskb3', 'postalCode': '79902', 'regionCode': 'TX', 'countryCode': 'US'}","{'speed': 0.0, 'heading': 168.0}","{'wejoVehicleTypeId': 7026689138061308090, 'status': {'ignitionStatus': 'MID_JOURNEY'}}",31.783245,-106.507865,9tskb3,79902,TX,US,0.0,168.0,7026689138061308090,{'ignitionStatus': 'MID_JOURNEY'}
ad47c451-d35c-4a62-a850-79db7c43a466,04bb66d5c82a5174373f1e0824535afdebc76617,2021-11-11 12:18:58-07:00,"{'latitude': 31.784684, 'longitude': -106.506797, 'geohash': '9tskb6', 'postalCode': '79902', 'regionCode': 'TX', 'countryCode': 'US'}","{'speed': 0.0, 'heading': 79.0}","{'wejoVehicleTypeId': 2401757630609642758, 'status': {'ignitionStatus': 'MID_JOURNEY'}}",31.784684,-106.506797,9tskb6,79902,TX,US,0.0,79.0,2401757630609642758,{'ignitionStatus': 'MID_JOURNEY'}
b045d1a6-e7a0-492e-9f35-1996f14b7cb1,5d22b94280944b112510d1dc6e4a31e546d6c292,2021-11-11 12:26:17-07:00,"{'latitude': 31.783452, 'longitude': -106.506375, 'geohash': '9tskb6', 'postalCode': '79902', 'regionCode': 'TX', 'countryCode': 'US'}","{'speed': 0.0, 'heading': 0.0}","{'wejoVehicleTypeId': 7111871753776661095, 'status': {'ignitionStatus': 'MID_JOURNEY'}}",31.783452,-106.506375,9tskb6,79902,TX,US,0.0,0.0,7111871753776661095,{'ignitionStatus': 'MID_JOURNEY'}
b07025ea-04d0-4054-966d-745d3ab26170,e054cd52d657c6f5d87f6efe6462b967b0182aa3,2021-11-11 12:31:01-07:00,"{'latitude': 31.783427, 'longitude': -106.50595, 'geohash': '9tskb3', 'postalCode': '79902', 'regionCode': 'TX', 'countryCode': 'US'}","{'speed': 0.0, 'heading': 263.0}","{'wejoVehicleTypeId': -6690099478050290831, 'status': {'ignitionStatus': 'MID_JOURNEY'}}",31.783427,-106.50595,9tskb3,79902,TX,US,0.0,263.0,-6690099478050290831,{'ignitionStatus': 'MID_JOURNEY'}
b1f94562-df6c-4345-8483-a8bb6d9e4242,d3556dfd131c68446493e678c2f353c1dc78df3e,2021-11-11 12:07:23-07:00,"{'latitude': 31.783152, 'longitude': -106.506371, 'geohash': '9tskb3', 'postalCode': '79902', 'regionCode': 'TX', 'countryCode': 'US'}","{'speed': 0.0, 'heading': 358.0}","{'wejoVehicleTypeId': 7111871753776661095, 'status': {'ignitionStatus': 'MID_JOURNEY'}}",31.783152,-106.506371,9tskb3,79902,TX,US,0.0,358.0,7111871753776661095,{'ignitionStatus': 'MID_JOURNEY'}
c99d3913-3c99-4f03-8890-14f15bf11c1f,8aa3031f331890034705246530cd708e28fa8891,2021-11-11 12:07:05-07:00,"{'latitude': 31.785124, 'longitude': -106.506772, 'geohash': '9tskb6', 'postalCode': '79902', 'regionCode': 'TX', 'countryCode': 'US'}","{'speed': 0.0, 'heading': 251.0}","{'wejoVehicleTypeId': -2042328715056192980, 'status': {'ignitionStatus': 'MID_JOURNEY'}}",31.785124,-106.506772,9tskb6,79902,TX,US,0.0,251.0,-2042328715056192980,{'ignitionStatus': 'MID_JOURNEY'}
dc3adce7-8cf7-41fc-9606-3a48e376c500,4b1fb9b3457b3945273d26f836de848f64fd8e4c,2021-11-11 12:36:28-07:00,"{'latitude': 31.784693, 'longitude': -106.506776, 'geohash': '9tskb6', 'postalCode': '79902', 'regionCode': 'TX', 'countryCode': 'US'}","{'speed': 0.0, 'heading': 83.0}","{'wejoVehicleTypeId': 4937768443193831845, 'status': {'ignitionStatus': 'MID_JOURNEY'}}",31.784693,-106.506776,9tskb6,79902,TX,US,0.0,83.0,4937768443193831845,{'ignitionStatus': 'MID_JOURNEY'}
e7cb1f51-e009-4bdf-9df2-19c33071820b,d3556dfd131c68446493e678c2f353c1dc78df3e,2021-11-11 12:11:56-07:00,"{'latitude': 31.783226, 'longitude': -106.506378, 'geohash': '9tskb3', 'postalCode': '79902', 'regionCode': 'TX', 'countryCode': 'US'}","{'speed': 0.0, 'heading': 358.0}","{'wejoVehicleTypeId': 7111871753776661095, 'status': {'ignitionStatus': 'MID_JOURNEY'}}",31.783226,-106.506378,9tskb3,79902,TX,US,0.0,358.0,7111871753776661095,{'ignitionStatus': 'MID_JOURNEY'}
ea8ab60f-239a-4b33-a682-ccc3474d5158,a0bb99edd6a0c5fc33a6d1bbde52063cbfec4428,2021-11-11 12:00:39-07:00,"{'latitude': 31.785708, 'longitude': -106.506306, 'geohash': '9tskb6', 'postalCode': '79902', 'regionCode': 'TX', 'countryCode': 'US'}","{'speed': 52.99, 'heading': 165.0}","{'wejoVehicleTypeId': 2697567197675447457, 'status': {'ignitionStatus': 'MID_JOURNEY'}}",31.785708,-106.506306,9tskb6,79902,TX,US,52.99,165.0,2697567197675447457,{'ignitionStatus': 'MID_JOURNEY'}
769e38ee-f140-4ed5-b87b-eaaff9840fd3,7207115e4c4c4f4b2f66daece76d44df19ce81b8,2021-11-12 12:49:47-07:00,"{'latitude': 31.782101, 'longitude': -106.507235, 'geohash': '9tskb3', 'postalCode': '79902', 'regionCode': 'TX', 'countryCode': 'US'}","{'speed': 44.92, 'heading': 176.0}","{'wejoVehicleTypeId': 7111871753776661095, 'status': {'ignitionStatus': 'MID_JOURNEY'}}",31.782101,-106.507235,9tskb3,79902,TX,US,44.92,176.0,7111871753776661095,{'ignitionStatus': 'MID_JOURNEY'}
7ae70099-5beb-40c0-b6bb-37efc4fc93f7,fad864a09bddf1a36cb8bb0719c4ca032900a695,2021-11-12 12:29:13-07:00,"{'latitude': 31.782654, 'longitude': -106.505408, 'geohash': '9tskb3', 'postalCode': '79902', 'regionCode': 'TX', 'countryCode': 'US'}","{'speed': 19.58, 'heading': 165.0}","{'wejoVehicleTypeId': 5981514331096727011, 'status': {'ignitionStatus': 'MID_JOURNEY'}}",31.782654,-106.505408,9tskb3,79902,TX,US,19.58,165.0,5981514331096727011,{'ignitionStatus': 'MID_JOURNEY'}
b840c16d-1f9c-4ee1-ad57-0d5f274fa066,3fe3dea37afa95249c4635c23e7bf6309efa9405,2021-11-12 12:29:35-07:00,"{'latitude': 31.784773, 'longitude': -106.505587, 'geohash': '9tskb6', 'postalCode': '79902', 'regionCode': 'TX', 'countryCode': 'US'}","{'speed': 0.0, 'heading': 150.0}","{'wejoVehicleTypeId': -1409802844613292423, 'status': {'ignitionStatus': 'MID_JOURNEY'}}",31.784773,-106.505587,9tskb6,79902,TX,US,0.0,150.0,-1409802844613292423,{'ignitionStatus': 'MID_JOURNEY'}
b9c9f01f-4097-4190-b261-a8bf9eba5a34,e5d411d2c566a676b8c7aee81caded547d864ce7,2021-11-12 12:43:24-07:00,"{'latitude': 31.785349, 'longitude': -106.506003, 'geohash': '9tskb6', 'postalCode': '79902', 'regionCode': 'TX', 'countryCode': 'US'}","{'speed': 16.12, 'heading': 345.0}","{'wejoVehicleTypeId': 2005109438996634144, 'status': {'ignitionStatus': 'MID_JOURNEY'}}",31.785349,-106.506003,9tskb6,79902,TX,US,16.12,345.0,2005109438996634144,{'ignitionStatus': 'MID_JOURNEY'}
edbfeede-d8d2-4102-ab3c-5f9a5937fb2b,a6012ef6066ea1a85b4f1c09fcb75cdfd850e169,2021-11-12 12:52:28-07:00,"{'latitude': 31.782605, 'longitude': -106.507036, 'geohash': '9tskb3', 'postalCode': '79902', 'regionCode': 'TX', 'countryCode': 'US'}","{'speed': 0.0, 'heading': 105.0}","{'wejoVehicleTypeId': 3797057719397632061, 'status': {'ignitionStatus': 'MID_JOURNEY'}}",31.782605,-106.507036,9tskb3,79902,TX,US,0.0,105.0,3797057719397632061,{'ignitionStatus': 'MID_JOURNEY'}
efa348f2-5b33-4282-b2cc-7e3637f0ab4c,3f24e1a7c3e194958dc94bb1bb1ddcc620c1cb45,2021-11-12 12:36:49-07:00,"{'latitude': 31.783829, 'longitude': -106.505756, 'geohash': '9tskb6', 'postalCode': '79902', 'regionCode': 'TX', 'countryCode': 'US'}","{'speed': 76.03, 'heading': 165.0}","{'wejoVehicleTypeId': -3894503086931515190, 'status': {'ignitionStatus': 'MID_JOURNEY'}}",31.783829,-106.505756,9tskb6,79902,TX,US,76.03,165.0,-3894503086931515190,{'ignitionStatus': 'MID_JOURNEY'}
0c232fec-45d9-49c7-93be-7082655902e5,09e0d73edf08b8a8fbe2b3b7c31b0a7568721020,2021-11-08 12:14:51-07:00,"{'latitude': 31.785287, 'longitude': -106.506345, 'geohash': '9tskb6', 'postalCode': '79902', 'regionCode': 'TX', 'countryCode': 'US'}","{'speed': 0.0, 'heading': 73.0}","{'wejoVehicleTypeId': 3208469000586520151, 'status': {'ignitionStatus': 'MID_JOURNEY'}}",31.785287,-106.506345,9tskb6,79902,TX,US,0.0,73.0,3208469000586520151,{'ignitionStatus': 'MID_JOURNEY'}
13dd5ac1-bfd3-4c66-8b5d-1384068b006c,2f8b60590c6c8266b696b63320f8c0ac9bb6cda3,2021-11-08 12:57:34-07:00,"{'latitude': 31.78505, 'longitude': -106.505986, 'geohash': '9tskb6', 'postalCode': '79902', 'regionCode': 'TX', 'countryCode': 'US'}","{'speed': 17.27, 'heading': 345.0}","{'wejoVehicleTypeId': 7718111031466085055, 'status': {'ignitionStatus': 'MID_JOURNEY'}}",31.78505,-106.505986,9tskb6,79902,TX,US,17.27,345.0,7718111031466085055,{'ignitionStatus': 'MID_JOURNEY'}
352fa3c6-3559-4d28-b4f1-73c3b019f4b8,d4096826709453979ff823d661a8e7984f12ade5,2021-11-08 12:20:07-07:00,"{'latitude': 31.783654, 'longitude': -106.507409, 'geohash': '9tskb6', 'postalCode': '79902', 'regionCode': 'TX', 'countryCode': 'US'}","{'speed': 36.86, 'heading': 349.0}","{'wejoVehicleTypeId': 2152205988974496968, 'status': {'ignitionStatus': 'MID_JOURNEY'}}",31.783654,-106.507409,9tskb6,79902,TX,US,36.86,349.0,2152205988974496968,{'ignitionStatus': 'MID_JOURNEY'}
59267f22-fe57-4021-9ded-34b015589240,6dadd304a30ecdda2de524bf516dec3d6c87f871,2021-11-08 12:20:44-07:00,"{'latitude': 31.785336, 'longitude': -106.506081, 'geohash': '9tskb6', 'postalCode': '79902', 'regionCode': 'TX', 'countryCode': 'US'}","{'speed': 0.0, 'heading': 343.0}","{'wejoVehicleTypeId': -5202287729521290197, 'status': {'ignitionStatus': 'MID_JOURNEY'}}",31.785336,-106.506081,9tskb6,79902,TX,US,0.0,343.0,-5202287729521290197,{'ignitionStatus': 'MID_JOURNEY'}
8040de2d-f7c3-4912-a3ef-cfb8265b3946,06822609014bf6be437009f294b5bc4087ae7ffb,2021-11-08 12:18:37-07:00,"{'latitude': 31.784038, 'longitude': -106.505655, 'geohash': '9tskb6', 'postalCode': '79902', 'regionCode': 'TX', 'countryCode': 'US'}","{'speed': 70.27, 'heading': 346.0}","{'wejoVehicleTypeId': -6019091172350122940, 'status': {'ignitionStatus': 'MID_JOURNEY'}}",31.784038,-106.505655,9tskb6,79902,TX,US,70.27,346.0,-6019091172350122940,{'ignitionStatus': 'MID_JOURNEY'}
811d81da-c811-477a-affe-5c15abdbcfee,75b3f00721f906f82156db6b609aac5f17f06373,2021-11-08 12:09:34-07:00,"{'latitude': 31.782291, 'longitude': -106.505265, 'geohash': '9tskb3', 'postalCode': '79902', 'regionCode': 'TX', 'countryCode': 'US'}","{'speed': 63.35, 'heading': 353.0}","{'wejoVehicleTypeId': -2375652435348643196, 'status': {'ignitionStatus': 'MID_JOURNEY'}}",31.782291,-106.505265,9tskb3,79902,TX,US,63.35,353.0,-2375652435348643196,{'ignitionStatus': 'MID_JOURNEY'}
c6dd475b-e903-4ec6-abeb-84642d6a48c9,834d15fef0d86af1c6679090fc96bd5feb5f97f5,2021-11-08 12:06:02-07:00,"{'latitude': 31.78226, 'longitude': -106.505238, 'geohash': '9tskb3', 'postalCode': '79902', 'regionCode': 'TX', 'countryCode': 'US'}","{'speed': 69.11, 'heading': 352.0}","{'wejoVehicleTypeId': 1143774393690528169, 'status': {'ignitionStatus': 'MID_JOURNEY'}}",31.78226,-106.505238,9tskb3,79902,TX,US,69.11,352.0,1143774393690528169,{'ignitionStatus': 'MID_JOURNEY'}
e811bb6c-63de-42d0-b4b6-f14894eea612,a621b098fdfdd2998d023a59564252fa6c608709,2021-11-08 12:01:53-07:00,"{'latitude': 31.782933, 'longitude': -106.505374, 'geohash': '9tskb3', 'postalCode': '79902', 'regionCode': 'TX', 'countryCode': 'US'}","{'speed': 54.14, 'heading': 349.0}","{'wejoVehicleTypeId': 7426343930447909158, 'status': {'ignitionStatus': 'MID_JOURNEY'}}",31.782933,-106.505374,9tskb3,79902,TX,US,54.14,349.0,7426343930447909158,{'ignitionStatus': 'MID_JOURNEY'}
e8fb8bb5-2444-4e27-bcfe-0a4d50ed60e8,3ce62a8831ac46b30d723e8ef1a673f7cf1b38aa,2021-11-08 12:58:04-07:00,"{'latitude': 31.78223, 'longitude': -106.505432, 'geohash': '9tskb3', 'postalCode': '79902', 'regionCode': 'TX', 'countryCode': 'US'}","{'speed': 55.29, 'heading': 172.0}","{'wejoVehicleTypeId': -2513557776318661902, 'status': {'ignitionStatus': 'MID_JOURNEY'}}",31.78223,-106.505432,9tskb3,79902,TX,US,55.29,172.0,-2513557776318661902,{'ignitionStatus': 'MID_JOURNEY'}
eb219bb3-29a6-4afb-8535-b6661bc1fa46,c650316f6f2bb68953109bfff6c1fe60edea4729,2021-11-08 12:24:02-07:00,"{'latitude': 31.783726, 'longitude': -106.50747, 'geohash': '9tskb6', 'postalCode': '79902', 'regionCode': 'TX', 'countryCode': 'US'}","{'speed': 50.68, 'heading': 170.0}","{'wejoVehicleTypeId': -6926116275765510715, 'status': {'ignitionStatus': 'MID_JOURNEY'}}",31.783726,-106.50747,9tskb6,79902,TX,US,50.68,170.0,-6926116275765510715,{'ignitionStatus': 'MID_JOURNEY'}
02237de8-47a9-4de2-8a8a-b9226f255cc0,5fdc731e7badd6261392a8ecda5d4d7e75a41cbc,2021-11-08 12:25:23-07:00,"{'latitude': 31.782428, 'longitude': -106.505447, 'geohash': '9tskb3', 'postalCode': '79902', 'regionCode': 'TX', 'countryCode': 'US'}","{'speed': 49.53, 'heading': 171.0}","{'wejoVehicleTypeId': 4132158919903096584, 'status': {'ignitionStatus': 'MID_JOURNEY'}}",31.782428,-106.505447,9tskb3,79902,TX,US,49.53,171.0,4132158919903096584,{'ignitionStatus': 'MID_JOURNEY'}
402f7c6f-90e8-4857-902a-f7dd54ec97b8,7754779d850348f33c5d14439bf116254557d61f,2021-11-08 12:44:18-07:00,"{'latitude': 31.784826, 'longitude': -106.506826, 'geohash': '9tskb6', 'postalCode': '79902', 'regionCode': 'TX', 'countryCode': 'US'}","{'speed': 0.0, 'heading': 236.0}","{'wejoVehicleTypeId': -5855284742271387348, 'status': {'ignitionStatus': 'MID_JOURNEY'}}",31.784826,-106.506826,9tskb6,79902,TX,US,0.0,236.0,-5855284742271387348,{'ignitionStatus': 'MID_JOURNEY'}
597742e5-896a-4f44-a7d7-ea213713e831,7fb4cb45444b7708a2c0e5611290cae30d019e2b,2021-11-08 12:07:57-07:00,"{'latitude': 31.785506, 'longitude': -106.506114, 'geohash': '9tskb6', 'postalCode': '79902', 'regionCode': 'TX', 'countryCode': 'US'}","{'speed': 3.45, 'heading': 342.0}","{'wejoVehicleTypeId': 450084667685037951, 'status': {'ignitionStatus': 'MID_JOURNEY'}}",31.785506,-106.506114,9tskb6,79902,TX,US,3.45,342.0,450084667685037951,{'ignitionStatus': 'MID_JOURNEY'}
836e4911-1a90-413b-8d50-3046a615b4fb,7754779d850348f33c5d14439bf116254557d61f,2021-11-08 12:41:36-07:00,"{'latitude': 31.784896, 'longitude': -106.50649, 'geohash': '9tskb6', 'postalCode': '79902', 'regionCode': 'TX', 'countryCode': 'US'}","{'speed': 5.76, 'heading': 254.0}","{'wejoVehicleTypeId': -5855284742271387348, 'status': {'ignitionStatus': 'MID_JOURNEY'}}",31.784896,-106.50649,9tskb6,79902,TX,US,5.76,254.0,-5855284742271387348,{'ignitionStatus': 'MID_JOURNEY'}
91e9285d-aefa-4370-b7f8-d0172d2a5bfa,09e0d73edf08b8a8fbe2b3b7c31b0a7568721020,2021-11-08 12:14:06-07:00,"{'latitude': 31.785238, 'longitude': -106.506612, 'geohash': '9tskb6', 'postalCode': '79902', 'regionCode': 'TX', 'countryCode': 'US'}","{'speed': 12.67, 'heading': 113.0}","{'wejoVehicleTypeId': 3208469000586520151, 'status': {'ignitionStatus': 'MID_JOURNEY'}}",31.785238,-106.506612,9tskb6,79902,TX,US,12.67,113.0,3208469000586520151,{'ignitionStatus': 'MID_JOURNEY'}
a148c9c5-0f3b-4813-9648-212f6febc6e1,09e0d73edf08b8a8fbe2b3b7c31b0a7568721020,2021-11-08 12:15:03-07:00,"{'latitude': 31.785287, 'longitude': -106.506345, 'geohash': '9tskb6', 'postalCode': '79902', 'regionCode': 'TX', 'countryCode': 'US'}","{'speed': 0.0, 'heading': 73.0}","{'wejoVehicleTypeId': 3208469000586520151, 'status': {'ignitionStatus': 'KEY_OFF'}}",31.785287,-106.506345,9tskb6,79902,TX,US,0.0,73.0,3208469000586520151,{'ignitionStatus': 'KEY_OFF'}
aa2657bc-d2a8-4b1a-bc8b-9649f326308a,ea07c714b2eef787cfe4c9bb679d5e4a874aaac4,2021-11-08 12:11:40-07:00,"{'latitude': 31.782112, 'longitude': -106.506534, 'geohash': '9tskb3', 'postalCode': '79902', 'regionCode': 'TX', 'countryCode': 'US'}","{'speed': 0.0, 'heading': 178.0}","{'wejoVehicleTypeId': 8356401384089741547, 'status': {'ignitionStatus': 'MID_JOURNEY'}}",31.782112,-106.506534,9tskb3,79902,TX,US,0.0,178.0,8356401384089741547,{'ignitionStatus': 'MID_JOURNEY'}
ac605c80-4424-4553-8bf8-ac1a2d294ddb,0d0250a698f05ce76c71badaad61af726777ae3c,2021-11-08 12:32:15-07:00,"{'latitude': 31.78561, 'longitude': -106.506263, 'geohash': '9tskb6', 'postalCode': '79902', 'regionCode': 'TX', 'countryCode': 'US'}","{'speed': 47.23, 'heading': 165.0}","{'wejoVehicleTypeId': 2005109438996634144, 'status': {'ignitionStatus': 'MID_JOURNEY'}}",31.78561,-106.506263,9tskb6,79902,TX,US,47.23,165.0,2005109438996634144,{'ignitionStatus': 'MID_JOURNEY'}
b0696add-c155-4229-8ae6-e27efb8214af,201f99d845e7fdb1b85536d480dd6f9658280be4,2021-11-08 12:35:22-07:00,"{'latitude': 31.785494, 'longitude': -106.506066, 'geohash': '9tskb6', 'postalCode': '79902', 'regionCode': 'TX', 'countryCode': 'US'}","{'speed': 0.0, 'heading': 346.0}","{'wejoVehicleTypeId': 1018278761689241644, 'status': {'ignitionStatus': 'MID_JOURNEY'}}",31.785494,-106.506066,9tskb6,79902,TX,US,0.0,346.0,1018278761689241644,{'ignitionStatus': 'MID_JOURNEY'}
b1d27544-f26a-4741-967a-c27b9e2e4af7,ea07c714b2eef787cfe4c9bb679d5e4a874aaac4,2021-11-08 12:09:40-07:00,"{'latitude': 31.782112, 'longitude': -106.506534, 'geohash': '9tskb3', 'postalCode': '79902', 'regionCode': 'TX', 'countryCode': 'US'}","{'speed': 0.0, 'heading': 178.0}","{'wejoVehicleTypeId': 8356401384089741547, 'status': {'ignitionStatus': 'MID_JOURNEY'}}",31.782112,-106.506534,9tskb3,79902,TX,US,0.0,178.0,8356401384089741547,{'ignitionStatus': 'MID_JOURNEY'}
c221dc30-6184-4caf-91e8-a8f6516e147b,6b8f9cc49680cf74d00e72c71d9bee13e8e86b5b,2021-11-08 12:03:02-07:00,"{'latitude': 31.785539, 'longitude': -106.506137, 'geohash': '9tskb6', 'postalCode': '79902', 'regionCode': 'TX', 'countryCode': 'US'}","{'speed': 0.0, 'heading': 344.0}","{'wejoVehicleTypeId': -2513557776318661902, 'status': {'ignitionStatus': 'MID_JOURNEY'}}",31.785539,-106.506137,9tskb6,79902,TX,US,0.0,344.0,-2513557776318661902,{'ignitionStatus': 'MID_JOURNEY'}
d8eeb669-247d-4bd8-9f5e-fb1b8c0a4ba5,14ebdea055c3ed017d88929a99691493a6a7f649,2021-11-08 12:09:37-07:00,"{'latitude': 31.785549, 'longitude': -106.506337, 'geohash': '9tskb6', 'postalCode': '79902', 'regionCode': 'TX', 'countryCode': 'US'}","{'speed': 26.49, 'heading': 68.0}","{'wejoVehicleTypeId': 3797057719397632061, 'status': {'ignitionStatus': 'MID_JOURNEY'}}",31.785549,-106.506337,9tskb6,79902,TX,US,26.49,68.0,3797057719397632061,{'ignitionStatus': 'MID_JOURNEY'}
e7b2186c-06b4-4e3f-b210-41baf15a3557,4d0574b9f3b351dece42ff49e840624e6e02a11d,2021-11-08 12:42:20-07:00,"{'latitude': 31.783421, 'longitude': -106.505653, 'geohash': '9tskb3', 'postalCode': '79902', 'regionCode': 'TX', 'countryCode': 'US'}","{'speed': 48.38, 'heading': 165.0}","{'wejoVehicleTypeId': 6714483973217668437, 'status': {'ignitionStatus': 'MID_JOURNEY'}}",31.783421,-106.505653,9tskb3,79902,TX,US,48.38,165.0,6714483973217668437,{'ignitionStatus': 'MID_JOURNEY'}
eb4c173b-1321-4391-9cf0-a3c6525b892c,09e0d73edf08b8a8fbe2b3b7c31b0a7568721020,2021-11-08 12:14:24-07:00,"{'latitude': 31.785287, 'longitude': -106.506345, 'geohash': '9tskb6', 'postalCode': '79902', 'regionCode': 'TX', 'countryCode': 'US'}","{'speed': 0.0, 'heading': 73.0}","{'wejoVehicleTypeId': 3208469000586520151, 'status': {'ignitionStatus': 'MID_JOURNEY'}}",31.785287,-106.506345,9tskb6,79902,TX,US,0.0,73.0,3208469000586520151,{'ignitionStatus': 'MID_JOURNEY'}
ffc662d0-0fa3-477c-9975-8fc5e93c884e,faa9e6713d25c095d729b06d575fadb19d9a932f,2021-11-08 12:47:27-07:00,"{'latitude': 31.785015, 'longitude': -106.507074, 'geohash': '9tskb6', 'postalCode': '79902', 'regionCode': 'TX', 'countryCode': 'US'}","{'speed': 34.55, 'heading': 30.0}","{'wejoVehicleTypeId': 7285970169710860698, 'status': {'ignitionStatus': 'MID_JOURNEY'}}",31.785015,-106.507074,9tskb6,79902,TX,US,34.55,30.0,7285970169710860698,{'ignitionStatus': 'MID_JOURNEY'}
00a19f6b-f5c7-4c31-a31e-ced1d2877507,231f721d4de6ba1d2d1a7775069ef612b4d4764b,2021-11-17 12:44:09-07:00,"{'latitude': 31.783405, 'longitude': -106.506371, 'geohash': '9tskb3', 'postalCode': '79902', 'regionCode': 'TX', 'countryCode': 'US'}","{'speed': 0.0, 'heading': 358.0}","{'wejoVehicleTypeId': 2673556772495501503, 'status': {'ignitionStatus': 'MID_JOURNEY'}}",31.783405,-106.506371,9tskb3,79902,TX,US,0.0,358.0,2673556772495501503,{'ignitionStatus': 'MID_JOURNEY'}
22b27b71-9aac-42f4-9f29-0ddbe392d389,231f721d4de6ba1d2d1a7775069ef612b4d4764b,2021-11-17 12:59:24-07:00,"{'latitude': 31.783542, 'longitude': -106.506383, 'geohash': '9tskb6', 'postalCode': '79902', 'regionCode': 'TX', 'countryCode': 'US'}","{'speed': 0.0, 'heading': 358.0}","{'wejoVehicleTypeId': 2673556772495501503, 'status': {'ignitionStatus': 'MID_JOURNEY'}}",31.783542,-106.506383,9tskb6,79902,TX,US,0.0,358.0,2673556772495501503,{'ignitionStatus': 'MID_JOURNEY'}
23d91ebe-9466-42c0-a1ac-d87b2d7ec89c,31a2058dbc4daddbb5cff6ea33a4f41a278da81e,2021-11-17 12:07:42-07:00,"{'latitude': 31.78528, 'longitude': -106.506034, 'geohash': '9tskb6', 'postalCode': '79902', 'regionCode': 'TX', 'countryCode': 'US'}","{'speed': 10.36, 'heading': 346.0}","{'wejoVehicleTypeId': -2375652435348643196, 'status': {'ignitionStatus': 'MID_JOURNEY'}}",31.78528,-106.506034,9tskb6,79902,TX,US,10.36,346.0,-2375652435348643196,{'ignitionStatus': 'MID_JOURNEY'}
245c4213-68d7-49cf-afe8-72851b180f48,231f721d4de6ba1d2d1a7775069ef612b4d4764b,2021-11-17 12:43:36-07:00,"{'latitude': 31.783405, 'longitude': -106.506371, 'geohash': '9tskb3', 'postalCode': '79902', 'regionCode': 'TX', 'countryCode': 'US'}","{'speed': 0.0, 'heading': 358.0}","{'wejoVehicleTypeId': 2673556772495501503, 'status': {'ignitionStatus': 'MID_JOURNEY'}}",31.783405,-106.506371,9tskb3,79902,TX,US,0.0,358.0,2673556772495501503,{'ignitionStatus': 'MID_JOURNEY'}
329ed6d0-10f5-4489-b300-7d01e7862c7d,231f721d4de6ba1d2d1a7775069ef612b4d4764b,2021-11-17 12:52:09-07:00,"{'latitude': 31.783405, 'longitude': -106.506371, 'geohash': '9tskb3', 'postalCode': '79902', 'regionCode': 'TX', 'countryCode': 'US'}","{'speed': 0.0, 'heading': 358.0}","{'wejoVehicleTypeId': 2673556772495501503, 'status': {'ignitionStatus': 'MID_JOURNEY'}}",31.783405,-106.506371,9tskb3,79902,TX,US,0.0,358.0,2673556772495501503,{'ignitionStatus': 'MID_JOURNEY'}
5e2c8dda-dd0e-4418-8173-7e6ef0546f97,036562fc616f109be14564c3bddb916236d10c17,2021-11-17 12:06:56-07:00,"{'latitude': 31.783435, 'longitude': -106.505432, 'geohash': '9tskb3', 'postalCode': '79902', 'regionCode': 'TX', 'countryCode': 'US'}","{'speed': 59.9, 'heading': 347.0}","{'wejoVehicleTypeId': 4022660182159126993, 'status': {'ignitionStatus': 'MID_JOURNEY'}}",31.783435,-106.505432,9tskb3,79902,TX,US,59.9,347.0,4022660182159126993,{'ignitionStatus': 'MID_JOURNEY'}
f49de51a-89a1-4e31-bdf5-23dbe5bea860,72fc9f16ba1268e1d8271cd67afc98f93b1fb467,2021-11-17 12:10:53-07:00,"{'latitude': 31.784759, 'longitude': -106.506856, 'geohash': '9tskb6', 'postalCode': '79902', 'regionCode': 'TX', 'countryCode': 'US'}","{'speed': 0.0, 'heading': 183.0}","{'wejoVehicleTypeId': 1018278761689241644, 'status': {'ignitionStatus': 'MID_JOURNEY'}}",31.784759,-106.506856,9tskb6,79902,TX,US,0.0,183.0,1018278761689241644,{'ignitionStatus': 'MID_JOURNEY'}
296613f0-0821-4093-bb61-07620247ec84,3de25a4423de9243805779378b5432c397faf10b,2021-11-17 12:06:03-07:00,"{'latitude': 31.78257, 'longitude': -106.50721, 'geohash': '9tskb3', 'postalCode': '79902', 'regionCode': 'TX', 'countryCode': 'US'}","{'speed': 47.23, 'heading': 355.0}","{'wejoVehicleTypeId': 1915655752790434263, 'status': {'ignitionStatus': 'MID_JOURNEY'}}",31.78257,-106.50721,9tskb3,79902,TX,US,47.23,355.0,1915655752790434263,{'ignitionStatus': 'MID_JOURNEY'}
4d833102-3896-49e3-a119-362d960aad21,3de25a4423de9243805779378b5432c397faf10b,2021-11-17 12:06:09-07:00,"{'latitude': 31.783322, 'longitude': -106.507303, 'geohash': '9tskb3', 'postalCode': '79902', 'regionCode': 'TX', 'countryCode': 'US'}","{'speed': 50.68, 'heading': 351.0}","{'wejoVehicleTypeId': 1915655752790434263, 'status': {'ignitionStatus': 'MID_JOURNEY'}}",31.783322,-106.507303,9tskb3,79902,TX,US,50.68,351.0,1915655752790434263,{'ignitionStatus': 'MID_JOURNEY'}
4e4bd89a-2a4c-4e99-8a7d-3df94bdfad97,494cf5d144bf01e153ba2b134697ebe72a366b1a,2021-11-17 12:27:18-07:00,"{'latitude': 31.782085, 'longitude': -106.50489, 'geohash': '9tskb3', 'postalCode': '79902', 'regionCode': 'TX', 'countryCode': 'US'}","{'speed': 0.0, 'heading': 266.0}","{'wejoVehicleTypeId': -938654720586005002, 'status': {'ignitionStatus': 'MID_JOURNEY'}}",31.782085,-106.50489,9tskb3,79902,TX,US,0.0,266.0,-938654720586005002,{'ignitionStatus': 'MID_JOURNEY'}
5c063b64-cde3-4d1e-8e5f-d3c512a3c048,231f721d4de6ba1d2d1a7775069ef612b4d4764b,2021-11-17 12:39:15-07:00,"{'latitude': 31.783405, 'longitude': -106.506371, 'geohash': '9tskb3', 'postalCode': '79902', 'regionCode': 'TX', 'countryCode': 'US'}","{'speed': 0.0, 'heading': 358.0}","{'wejoVehicleTypeId': 2673556772495501503, 'status': {'ignitionStatus': 'MID_JOURNEY'}}",31.783405,-106.506371,9tskb3,79902,TX,US,0.0,358.0,2673556772495501503,{'ignitionStatus': 'MID_JOURNEY'}
831e15d6-983e-47a7-90de-5e01b5dcff1f,6a2158544e8d4d426ce0dc1c583ce84017011ba2,2021-11-17 12:03:22-07:00,"{'latitude': 31.784762, 'longitude': -106.505928, 'geohash': '9tskb6', 'postalCode': '79902', 'regionCode': 'TX', 'countryCode': 'US'}","{'speed': 32.25, 'heading': 334.0}","{'wejoVehicleTypeId': 5840964419435185967, 'status': {'ignitionStatus': 'MID_JOURNEY'}}",31.784762,-106.505928,9tskb6,79902,TX,US,32.25,334.0,5840964419435185967,{'ignitionStatus': 'MID_JOURNEY'}
8a0a529e-172b-4a63-ab31-b64368b31a0f,231f721d4de6ba1d2d1a7775069ef612b4d4764b,2021-11-17 12:31:03-07:00,"{'latitude': 31.784781, 'longitude': -106.505925, 'geohash': '9tskb6', 'postalCode': '79902', 'regionCode': 'TX', 'countryCode': 'US'}","{'speed': 0.0, 'heading': 343.0}","{'wejoVehicleTypeId': 2673556772495501503, 'status': {'ignitionStatus': 'MID_JOURNEY'}}",31.784781,-106.505925,9tskb6,79902,TX,US,0.0,343.0,2673556772495501503,{'ignitionStatus': 'MID_JOURNEY'}
8b8ef16e-7e5a-4ff7-bd0a-1f477cb179ce,1b7769a947032f1071eaf718dc507c39051daa6e,2021-11-17 12:50:52-07:00,"{'latitude': 31.784301, 'longitude': -106.505868, 'geohash': '9tskb6', 'postalCode': '79902', 'regionCode': 'TX', 'countryCode': 'US'}","{'speed': 66.81, 'heading': 166.0}","{'wejoVehicleTypeId': -6555505978794158813, 'status': {'ignitionStatus': 'MID_JOURNEY'}}",31.784301,-106.505868,9tskb6,79902,TX,US,66.81,166.0,-6555505978794158813,{'ignitionStatus': 'MID_JOURNEY'}
9c5d43dd-5bd6-4ab9-bad8-117db97e573f,041c0c869a11511f4a3ad2f964495cd4954a8121,2021-11-17 12:08:50-07:00,"{'latitude': 31.784738, 'longitude': -106.506004, 'geohash': '9tskb6', 'postalCode': '79902', 'regionCode': 'TX', 'countryCode': 'US'}","{'speed': 71.42, 'heading': 167.0}","{'wejoVehicleTypeId': -2625593113725028058, 'status': {'ignitionStatus': 'MID_JOURNEY'}}",31.784738,-106.506004,9tskb6,79902,TX,US,71.42,167.0,-2625593113725028058,{'ignitionStatus': 'MID_JOURNEY'}
d1eeb02d-504e-4a35-b593-06bd688b5b34,2ce509a9d619ff944c1e51389110b29a6435982f,2021-11-17 12:53:48-07:00,"{'latitude': 31.78531, 'longitude': -106.506009, 'geohash': '9tskb6', 'postalCode': '79902', 'regionCode': 'TX', 'countryCode': 'US'}","{'speed': 0.0, 'heading': 346.0}","{'wejoVehicleTypeId': -5866723578744670022, 'status': {'ignitionStatus': 'MID_JOURNEY'}}",31.78531,-106.506009,9tskb6,79902,TX,US,0.0,346.0,-5866723578744670022,{'ignitionStatus': 'MID_JOURNEY'}
23d3a026-0953-43f5-a3cd-bfcb578c4319,d7dcfd21a0f37904cb3dff53503022126e999180,2021-10-25 13:48:40-06:00,"{'latitude': 31.784619, 'longitude': -106.50732, 'geohash': '9tskb6', 'postalCode': '79902', 'regionCode': 'TX', 'countryCode': 'US'}","{'speed': 43.77, 'heading': 22.0}","{'wejoVehicleTypeId': -817569073383516562, 'status': {'ignitionStatus': 'MID_JOURNEY'}}",31.784619,-106.50732,9tskb6,79902,TX,US,43.77,22.0,-817569073383516562,{'ignitionStatus': 'MID_JOURNEY'}
854e3189-fe5a-4b90-b846-41b3b8981248,408a9c82ecf59956383fa6d49791800112070410,2021-10-25 13:27:47-06:00,"{'latitude': 31.784792, 'longitude': -106.506063, 'geohash': '9tskb6', 'postalCode': '79902', 'regionCode': 'TX', 'countryCode': 'US'}","{'speed': 17.27, 'heading': 196.0}","{'wejoVehicleTypeId': -9169399119893648668, 'status': {'ignitionStatus': 'MID_JOURNEY'}}",31.784792,-106.506063,9tskb6,79902,TX,US,17.27,196.0,-9169399119893648668,{'ignitionStatus': 'MID_JOURNEY'}
ac5f005a-0ab9-48f0-9b78-42389e6054c4,dab410caf4844c24a989ce73f37c3c66cc8347f8,2021-10-25 13:56:10-06:00,"{'latitude': 31.783135, 'longitude': -106.505558, 'geohash': '9tskb3', 'postalCode': '79902', 'regionCode': 'TX', 'countryCode': 'US'}","{'speed': 61.05, 'heading': 167.0}","{'wejoVehicleTypeId': -2299459125706108376, 'status': {'ignitionStatus': 'MID_JOURNEY'}}",31.783135,-106.505558,9tskb3,79902,TX,US,61.05,167.0,-2299459125706108376,{'ignitionStatus': 'MID_JOURNEY'}
b5e684e0-e4e7-4127-ba59-c2cae49510af,3bcc0ba806ed581173e97645dfd05cb8ed918609,2021-10-25 13:44:06-06:00,"{'latitude': 31.78518, 'longitude': -106.505958, 'geohash': '9tskb6', 'postalCode': '79902', 'regionCode': 'TX', 'countryCode': 'US'}","{'speed': 23.04, 'heading': 345.0}","{'wejoVehicleTypeId': 2884054447646859997, 'status': {'ignitionStatus': 'MID_JOURNEY'}}",31.78518,-106.505958,9tskb6,79902,TX,US,23.04,345.0,2884054447646859997,{'ignitionStatus': 'MID_JOURNEY'}
b622cf73-f3d7-4cef-adee-a1ca88b0a6fa,fe23021e18f3af9b272233950b4646bcecf70717,2021-10-25 13:20:43-06:00,"{'latitude': 31.784676, 'longitude': -106.505825, 'geohash': '9tskb6', 'postalCode': '79902', 'regionCode': 'TX', 'countryCode': 'US'}","{'speed': 84.09, 'heading': 345.0}","{'wejoVehicleTypeId': -2783107540689802993, 'status': {'ignitionStatus': 'MID_JOURNEY'}}",31.784676,-106.505825,9tskb6,79902,TX,US,84.09,345.0,-2783107540689802993,{'ignitionStatus': 'MID_JOURNEY'}
b7637a7e-35c3-4139-926c-8a92f59a4f3f,333e7fc193c8b65fa99f6d0259b47e21ffd4d142,2021-10-25 13:33:30-06:00,"{'latitude': 31.784, 'longitude': -106.505613, 'geohash': '9tskb6', 'postalCode': '79902', 'regionCode': 'TX', 'countryCode': 'US'}","{'speed': 61.05, 'heading': 346.0}","{'wejoVehicleTypeId': -6815819603754668391, 'status': {'ignitionStatus': 'MID_JOURNEY'}}",31.784,-106.505613,9tskb6,79902,TX,US,61.05,346.0,-6815819603754668391,{'ignitionStatus': 'MID_JOURNEY'}
f25a6b1c-9a5e-4a50-b4f3-fab77b72f317,46312c804c1bc271364cefddc611511b12082517,2021-10-25 13:14:00-06:00,"{'latitude': 31.783726, 'longitude': -106.507449, 'geohash': '9tskb6', 'postalCode': '79902', 'regionCode': 'TX', 'countryCode': 'US'}","{'speed': 56.44, 'heading': 169.0}","{'wejoVehicleTypeId': 1091389250172272112, 'status': {'ignitionStatus': 'MID_JOURNEY'}}",31.783726,-106.507449,9tskb6,79902,TX,US,56.44,169.0,1091389250172272112,{'ignitionStatus': 'MID_JOURNEY'}
f8ecec3b-74f3-4890-bf90-f2081be07d09,bb396deefa1ecb70342e60f62ae8c4f0dd14dac9,2021-10-25 13:12:02-06:00,"{'latitude': 31.783257, 'longitude': -106.506053, 'geohash': '9tskb3', 'postalCode': '79902', 'regionCode': 'TX', 'countryCode': 'US'}","{'speed': 0.0, 'heading': 178.0}","{'wejoVehicleTypeId': -4859298144236932860, 'status': {'ignitionStatus': 'KEY_OFF'}}",31.783257,-106.506053,9tskb3,79902,TX,US,0.0,178.0,-4859298144236932860,{'ignitionStatus': 'KEY_OFF'}
013d1a35-ae95-48ee-8674-a43eb4289b7b,7da6bc918b04e52c93b90b4123ca950cf228020d,2021-10-28 13:22:15-06:00,"{'latitude': 31.785186, 'longitude': -106.50636, 'geohash': '9tskb6', 'postalCode': '79902', 'regionCode': 'TX', 'countryCode': 'US'}","{'speed': 0.0, 'heading': 295.0}","{'wejoVehicleTypeId': -6519314678940220591, 'status': {'ignitionStatus': 'MID_JOURNEY'}}",31.785186,-106.50636,9tskb6,79902,TX,US,0.0,295.0,-6519314678940220591,{'ignitionStatus': 'MID_JOURNEY'}
0812437f-a211-4de6-bb2f-2eaaa16d936b,8f6deb13e3a959bba017d5bf6e7c68056c55f783,2021-10-28 13:41:50-06:00,"{'latitude': 31.784124, 'longitude': -106.506096, 'geohash': '9tskb6', 'postalCode': '79902', 'regionCode': 'TX', 'countryCode': 'US'}","{'speed': 0.0, 'heading': 254.0}","{'wejoVehicleTypeId': -9220724719826756199, 'status': {'ignitionStatus': 'MID_JOURNEY'}}",31.784124,-106.506096,9tskb6,79902,TX,US,0.0,254.0,-9220724719826756199,{'ignitionStatus': 'MID_JOURNEY'}
10d4e11e-3732-49fe-8a19-04935349cc1e,74f63116dce7aa76e003ff62d651d24f1acd6c1e,2021-10-28 13:48:35-06:00,"{'latitude': 31.78292, 'longitude': -106.505525, 'geohash': '9tskb3', 'postalCode': '79902', 'regionCode': 'TX', 'countryCode': 'US'}","{'speed': 62.2, 'heading': 168.0}","{'wejoVehicleTypeId': -3885927701807671571, 'status': {'ignitionStatus': 'MID_JOURNEY'}}",31.78292,-106.505525,9tskb3,79902,TX,US,62.2,168.0,-3885927701807671571,{'ignitionStatus': 'MID_JOURNEY'}
26996ca5-e1e1-4615-a07e-b697df1c35f4,d2a9f5657068983a38d3736dfef07a27c614144d,2021-10-28 13:22:29-06:00,"{'latitude': 31.783261, 'longitude': -106.506063, 'geohash': '9tskb3', 'postalCode': '79902', 'regionCode': 'TX', 'countryCode': 'US'}","{'speed': 0.0, 'heading': 175.0}","{'wejoVehicleTypeId': -4859298144236932860, 'status': {'ignitionStatus': 'MID_JOURNEY'}}",31.783261,-106.506063,9tskb3,79902,TX,US,0.0,175.0,-4859298144236932860,{'ignitionStatus': 'MID_JOURNEY'}
29dbd863-90b2-4e41-9b15-d7adbc2d8ca5,202c617383477bbf0a962a1fdfea0350b264c4a4,2021-10-28 13:04:28-06:00,"{'latitude': 31.785794, 'longitude': -106.506268, 'geohash': '9tskb6', 'postalCode': '79902', 'regionCode': 'TX', 'countryCode': 'US'}","{'speed': 0.0, 'heading': 166.0}","{'wejoVehicleTypeId': -9220724719826756199, 'status': {'ignitionStatus': 'MID_JOURNEY'}}",31.785794,-106.506268,9tskb6,79902,TX,US,0.0,166.0,-9220724719826756199,{'ignitionStatus': 'MID_JOURNEY'}
3588b3f1-e6aa-4055-8431-3d8d5b20ed23,8165d7fe7d46d6ea429c2eee246b174816e795d9,2021-10-28 13:36:16-06:00,"{'latitude': 31.785494, 'longitude': -106.506215, 'geohash': '9tskb6', 'postalCode': '79902', 'regionCode': 'TX', 'countryCode': 'US'}","{'speed': 38.01, 'heading': 165.0}","{'wejoVehicleTypeId': -9139794590686135495, 'status': {'ignitionStatus': 'MID_JOURNEY'}}",31.785494,-106.506215,9tskb6,79902,TX,US,38.01,165.0,-9139794590686135495,{'ignitionStatus': 'MID_JOURNEY'}
3873c80b-2dab-44de-a735-8898a7c8da18,ba5a8e1fecb4338b74f1b47293c93a8a47b0f682,2021-10-28 13:49:15-06:00,"{'latitude': 31.785428, 'longitude': -106.506166, 'geohash': '9tskb6', 'postalCode': '79902', 'regionCode': 'TX', 'countryCode': 'US'}","{'speed': 0.0, 'heading': 346.0}","{'wejoVehicleTypeId': -2375652435348643196, 'status': {'ignitionStatus': 'MID_JOURNEY'}}",31.785428,-106.506166,9tskb6,79902,TX,US,0.0,346.0,-2375652435348643196,{'ignitionStatus': 'MID_JOURNEY'}
4b78721f-22eb-40b4-902b-f279eade0a1b,d8723d10e76f480bcc3f36cf06ea34c9f960ba71,2021-10-28 13:39:46-06:00,"{'latitude': 31.785783, 'longitude': -106.506293, 'geohash': '9tskb6', 'postalCode': '79902', 'regionCode': 'TX', 'countryCode': 'US'}","{'speed': 16.12, 'heading': 165.0}","{'wejoVehicleTypeId': -4631236007836459408, 'status': {'ignitionStatus': 'MID_JOURNEY'}}",31.785783,-106.506293,9tskb6,79902,TX,US,16.12,165.0,-4631236007836459408,{'ignitionStatus': 'MID_JOURNEY'}
61a8ff02-c428-4ad5-957f-fccb52f5ee20,027b5e88cae9b26aba9c58bca8c6d60e346ad054,2021-10-28 13:53:37-06:00,"{'latitude': 31.783011, 'longitude': -106.50532, 'geohash': '9tskb3', 'postalCode': '79902', 'regionCode': 'TX', 'countryCode': 'US'}","{'speed': 61.05, 'heading': 348.0}","{'wejoVehicleTypeId': 3589220983253908237, 'status': {'ignitionStatus': 'MID_JOURNEY'}}",31.783011,-106.50532,9tskb3,79902,TX,US,61.05,348.0,3589220983253908237,{'ignitionStatus': 'MID_JOURNEY'}
6427a47b-7f18-4c08-82f6-a1e77398f7c8,444512792ab0eb3688fa2b9916475a8a717d4d29,2021-10-28 13:26:09-06:00,"{'latitude': 31.785509, 'longitude': -106.506098, 'geohash': '9tskb6', 'postalCode': '79902', 'regionCode': 'TX', 'countryCode': 'US'}","{'speed': 0.0, 'heading': 345.0}","{'wejoVehicleTypeId': 223670452290257521, 'status': {'ignitionStatus': 'MID_JOURNEY'}}",31.785509,-106.506098,9tskb6,79902,TX,US,0.0,345.0,223670452290257521,{'ignitionStatus': 'MID_JOURNEY'}
67e2a2c9-362a-4793-bafb-f727038a9fb0,d2a9f5657068983a38d3736dfef07a27c614144d,2021-10-28 13:22:44-06:00,"{'latitude': 31.783261, 'longitude': -106.506063, 'geohash': '9tskb3', 'postalCode': '79902', 'regionCode': 'TX', 'countryCode': 'US'}","{'speed': 0.0, 'heading': 175.0}","{'wejoVehicleTypeId': -4859298144236932860, 'status': {'ignitionStatus': 'MID_JOURNEY'}}",31.783261,-106.506063,9tskb3,79902,TX,US,0.0,175.0,-4859298144236932860,{'ignitionStatus': 'MID_JOURNEY'}
681231e0-0861-4b33-b573-ab24d70e64b5,8f6deb13e3a959bba017d5bf6e7c68056c55f783,2021-10-28 13:49:17-06:00,"{'latitude': 31.784124, 'longitude': -106.506096, 'geohash': '9tskb6', 'postalCode': '79902', 'regionCode': 'TX', 'countryCode': 'US'}","{'speed': 0.0, 'heading': 254.0}","{'wejoVehicleTypeId': -9220724719826756199, 'status': {'ignitionStatus': 'MID_JOURNEY'}}",31.784124,-106.506096,9tskb6,79902,TX,US,0.0,254.0,-9220724719826756199,{'ignitionStatus': 'MID_JOURNEY'}
7c63defe-b39b-4f11-b145-b5c94adda410,d2a9f5657068983a38d3736dfef07a27c614144d,2021-10-28 13:33:53-06:00,"{'latitude': 31.783261, 'longitude': -106.506063, 'geohash': '9tskb3', 'postalCode': '79902', 'regionCode': 'TX', 'countryCode': 'US'}","{'speed': 0.0, 'heading': 175.0}","{'wejoVehicleTypeId': -4859298144236932860, 'status': {'ignitionStatus': 'MID_JOURNEY'}}",31.783261,-106.506063,9tskb3,79902,TX,US,0.0,175.0,-4859298144236932860,{'ignitionStatus': 'MID_JOURNEY'}
836ea4d1-1a5e-4a42-83cc-0e8f1577054a,92333f676e67ac4fa9da201ed63ddbcbcf480550,2021-10-28 13:37:18-06:00,"{'latitude': 31.782146, 'longitude': -106.505371, 'geohash': '9tskb3', 'postalCode': '79902', 'regionCode': 'TX', 'countryCode': 'US'}","{'speed': 40.32, 'heading': 171.0}","{'wejoVehicleTypeId': -3645435209334860870, 'status': {'ignitionStatus': 'MID_JOURNEY'}}",31.782146,-106.505371,9tskb3,79902,TX,US,40.32,171.0,-3645435209334860870,{'ignitionStatus': 'MID_JOURNEY'}
84c05678-be62-47f2-8767-861c9bea79ef,d2a9f5657068983a38d3736dfef07a27c614144d,2021-10-28 13:24:05-06:00,"{'latitude': 31.783261, 'longitude': -106.506063, 'geohash': '9tskb3', 'postalCode': '79902', 'regionCode': 'TX', 'countryCode': 'US'}","{'speed': 0.0, 'heading': 175.0}","{'wejoVehicleTypeId': -4859298144236932860, 'status': {'ignitionStatus': 'MID_JOURNEY'}}",31.783261,-106.506063,9tskb3,79902,TX,US,0.0,175.0,-4859298144236932860,{'ignitionStatus': 'MID_JOURNEY'}
8a41ac39-841c-4f14-b32a-2972ebc2f39b,c974e80e0878fb3ada294256124c75f81307a672,2021-10-28 13:22:56-06:00,"{'latitude': 31.782135, 'longitude': -106.5059, 'geohash': '9tskb3', 'postalCode': '79902', 'regionCode': 'TX', 'countryCode': 'US'}","{'speed': 0.0, 'heading': 354.0}","{'wejoVehicleTypeId': -8827937680524571235, 'status': {'ignitionStatus': 'MID_JOURNEY'}}",31.782135,-106.5059,9tskb3,79902,TX,US,0.0,354.0,-8827937680524571235,{'ignitionStatus': 'MID_JOURNEY'}
8cfb4948-3e9b-4895-90a4-f68763f4bd34,80fb65b54f2c9b74ba00a9a9a02f2d837c6b9fd0,2021-10-28 13:24:00-06:00,"{'latitude': 31.782764, 'longitude': -106.505301, 'geohash': '9tskb3', 'postalCode': '79902', 'regionCode': 'TX', 'countryCode': 'US'}","{'speed': 73.72, 'heading': 351.0}","{'wejoVehicleTypeId': 2005109438996634144, 'status': {'ignitionStatus': 'MID_JOURNEY'}}",31.782764,-106.505301,9tskb3,79902,TX,US,73.72,351.0,2005109438996634144,{'ignitionStatus': 'MID_JOURNEY'}
9699f0a6-f59f-4cc7-b804-b5f8391051e8,d9c290c8561efad08e36101c7e400aa99b7b2868,2021-10-28 13:58:27-06:00,"{'latitude': 31.782405, 'longitude': -106.506533, 'geohash': '9tskb3', 'postalCode': '79902', 'regionCode': 'TX', 'countryCode': 'US'}","{'speed': 8.06, 'heading': 157.0}","{'wejoVehicleTypeId': -1207015137674157005, 'status': {'ignitionStatus': 'MID_JOURNEY'}}",31.782405,-106.506533,9tskb3,79902,TX,US,8.06,157.0,-1207015137674157005,{'ignitionStatus': 'MID_JOURNEY'}
a6b42771-220c-41af-9c26-6dcf341f0073,d21753598e404faeaf77883e9c2b7ac61182b281,2021-10-28 13:48:18-06:00,"{'latitude': 31.784684, 'longitude': -106.506785, 'geohash': '9tskb6', 'postalCode': '79902', 'regionCode': 'TX', 'countryCode': 'US'}","{'speed': 2.3, 'heading': 80.0}","{'wejoVehicleTypeId': -9143705181317883711, 'status': {'ignitionStatus': 'MID_JOURNEY'}}",31.784684,-106.506785,9tskb6,79902,TX,US,2.3,80.0,-9143705181317883711,{'ignitionStatus': 'MID_JOURNEY'}
be95ddde-9d04-427f-a89c-d636407a6527,ab3299f5eecea1365dd04065c54fff0e04276d77,2021-10-28 13:08:46-06:00,"{'latitude': 31.782675, 'longitude': -106.505447, 'geohash': '9tskb3', 'postalCode': '79902', 'regionCode': 'TX', 'countryCode': 'US'}","{'speed': 82.94, 'heading': 169.0}","{'wejoVehicleTypeId': -1202619316512475034, 'status': {'ignitionStatus': 'MID_JOURNEY'}}",31.782675,-106.505447,9tskb3,79902,TX,US,82.94,169.0,-1202619316512475034,{'ignitionStatus': 'MID_JOURNEY'}
c18444be-c7fe-41c7-8129-8068f927d545,3e45fbcfa8a570cadd616bb79ae35710ea3f883f,2021-10-28 13:43:20-06:00,"{'latitude': 31.78473, 'longitude': -106.506588, 'geohash': '9tskb6', 'postalCode': '79902', 'regionCode': 'TX', 'countryCode': 'US'}","{'speed': 0.0, 'heading': 76.0}","{'wejoVehicleTypeId': -6042628273181326410, 'status': {'ignitionStatus': 'MID_JOURNEY'}}",31.78473,-106.506588,9tskb6,79902,TX,US,0.0,76.0,-6042628273181326410,{'ignitionStatus': 'MID_JOURNEY'}
c229cf03-5d80-4553-a455-e091f962b1a9,a38d8335fbabee0ba693dd474df7997373a4f6f6,2021-10-28 13:22:33-06:00,"{'latitude': 31.785199, 'longitude': -106.506289, 'geohash': '9tskb6', 'postalCode': '79902', 'regionCode': 'TX', 'countryCode': 'US'}","{'speed': 0.0, 'heading': 255.0}","{'wejoVehicleTypeId': -6519314678940220591, 'status': {'ignitionStatus': 'KEY_ON'}}",31.785199,-106.506289,9tskb6,79902,TX,US,0.0,255.0,-6519314678940220591,{'ignitionStatus': 'KEY_ON'}
cdcd1463-a0d8-4787-a87b-a6954af443f4,c974e80e0878fb3ada294256124c75f81307a672,2021-10-28 13:23:44-06:00,"{'latitude': 31.782218, 'longitude': -106.505749, 'geohash': '9tskb3', 'postalCode': '79902', 'regionCode': 'TX', 'countryCode': 'US'}","{'speed': 0.0, 'heading': 90.0}","{'wejoVehicleTypeId': -8827937680524571235, 'status': {'ignitionStatus': 'MID_JOURNEY'}}",31.782218,-106.505749,9tskb3,79902,TX,US,0.0,90.0,-8827937680524571235,{'ignitionStatus': 'MID_JOURNEY'}
d41d1154-9d47-403a-b521-a78e791cb53d,8f6deb13e3a959bba017d5bf6e7c68056c55f783,2021-10-28 13:42:50-06:00,"{'latitude': 31.784124, 'longitude': -106.506096, 'geohash': '9tskb6', 'postalCode': '79902', 'regionCode': 'TX', 'countryCode': 'US'}","{'speed': 0.0, 'heading': 254.0}","{'wejoVehicleTypeId': -9220724719826756199, 'status': {'ignitionStatus': 'MID_JOURNEY'}}",31.784124,-106.506096,9tskb6,79902,TX,US,0.0,254.0,-9220724719826756199,{'ignitionStatus': 'MID_JOURNEY'}
fd6d6962-bb16-4566-ad97-1c9e264573a1,be798eee9ee19b12f106a92e26507dfc184867e6,2021-10-28 13:10:11-06:00,"{'latitude': 31.784567, 'longitude': -106.505977, 'geohash': '9tskb6', 'postalCode': '79902', 'regionCode': 'TX', 'countryCode': 'US'}","{'speed': 80.64, 'heading': 164.0}","{'wejoVehicleTypeId': 6795726256239913250, 'status': {'ignitionStatus': 'MID_JOURNEY'}}",31.784567,-106.505977,9tskb6,79902,TX,US,80.64,164.0,6795726256239913250,{'ignitionStatus': 'MID_JOURNEY'}
1c95a484-9008-4651-9eef-0bd51c6061cb,c4be7d6e76ffc082db0222ebd5170931de3f2684,2021-10-28 13:49:21-06:00,"{'latitude': 31.785138, 'longitude': -106.506637, 'geohash': '9tskb6', 'postalCode': '79902', 'regionCode': 'TX', 'countryCode': 'US'}","{'speed': 0.0, 'heading': 166.0}","{'wejoVehicleTypeId': 3208469000586520151, 'status': {'ignitionStatus': 'MID_JOURNEY'}}",31.785138,-106.506637,9tskb6,79902,TX,US,0.0,166.0,3208469000586520151,{'ignitionStatus': 'MID_JOURNEY'}
2b638974-a4f0-449a-99bf-84cc9d802ec9,166105b567b5ade198c9952484d5984f715abd0c,2021-10-28 13:28:18-06:00,"{'latitude': 31.785771, 'longitude': -106.506156, 'geohash': '9tskb6', 'postalCode': '79902', 'regionCode': 'TX', 'countryCode': 'US'}","{'speed': 56.44, 'heading': 346.0}","{'wejoVehicleTypeId': -6243991338125763409, 'status': {'ignitionStatus': 'MID_JOURNEY'}}",31.785771,-106.506156,9tskb6,79902,TX,US,56.44,346.0,-6243991338125763409,{'ignitionStatus': 'MID_JOURNEY'}
3225aaad-f53c-42b9-a614-bf6b32af29c5,8f6deb13e3a959bba017d5bf6e7c68056c55f783,2021-10-28 13:44:23-06:00,"{'latitude': 31.784124, 'longitude': -106.506096, 'geohash': '9tskb6', 'postalCode': '79902', 'regionCode': 'TX', 'countryCode': 'US'}","{'speed': 0.0, 'heading': 254.0}","{'wejoVehicleTypeId': -9220724719826756199, 'status': {'ignitionStatus': 'MID_JOURNEY'}}",31.784124,-106.506096,9tskb6,79902,TX,US,0.0,254.0,-9220724719826756199,{'ignitionStatus': 'MID_JOURNEY'}
39fb31b9-ef27-4e51-8176-208c42e3e37e,d2a9f5657068983a38d3736dfef07a27c614144d,2021-10-28 13:30:50-06:00,"{'latitude': 31.783261, 'longitude': -106.506063, 'geohash': '9tskb3', 'postalCode': '79902', 'regionCode': 'TX', 'countryCode': 'US'}","{'speed': 0.0, 'heading': 175.0}","{'wejoVehicleTypeId': -4859298144236932860, 'status': {'ignitionStatus': 'MID_JOURNEY'}}",31.783261,-106.506063,9tskb3,79902,TX,US,0.0,175.0,-4859298144236932860,{'ignitionStatus': 'MID_JOURNEY'}
52956cda-a64b-4c20-9555-cdde03197380,039ec0602a000262b3be30f53f2149e2ca5775d9,2021-10-28 13:11:39-06:00,"{'latitude': 31.785104, 'longitude': -106.505993, 'geohash': '9tskb6', 'postalCode': '79902', 'regionCode': 'TX', 'countryCode': 'US'}","{'speed': 0.0, 'heading': 346.0}","{'wejoVehicleTypeId': -7738357529029830108, 'status': {'ignitionStatus': 'MID_JOURNEY'}}",31.785104,-106.505993,9tskb6,79902,TX,US,0.0,346.0,-7738357529029830108,{'ignitionStatus': 'MID_JOURNEY'}
5be81e2a-eb09-438c-a0e1-57896d614c47,8f6deb13e3a959bba017d5bf6e7c68056c55f783,2021-10-28 13:29:23-06:00,"{'latitude': 31.784124, 'longitude': -106.506096, 'geohash': '9tskb6', 'postalCode': '79902', 'regionCode': 'TX', 'countryCode': 'US'}","{'speed': 0.0, 'heading': 254.0}","{'wejoVehicleTypeId': -9220724719826756199, 'status': {'ignitionStatus': 'MID_JOURNEY'}}",31.784124,-106.506096,9tskb6,79902,TX,US,0.0,254.0,-9220724719826756199,{'ignitionStatus': 'MID_JOURNEY'}
60e7faa7-c7be-4287-bb86-71382c68a6b3,ad6b9cf00049093fef6f9ed9e3cac2ff27f7059a,2021-10-28 13:39:11-06:00,"{'latitude': 31.785174, 'longitude': -106.505989, 'geohash': '9tskb6', 'postalCode': '79902', 'regionCode': 'TX', 'countryCode': 'US'}","{'speed': 23.04, 'heading': 346.0}","{'wejoVehicleTypeId': -8271179874012902248, 'status': {'ignitionStatus': 'MID_JOURNEY'}}",31.785174,-106.505989,9tskb6,79902,TX,US,23.04,346.0,-8271179874012902248,{'ignitionStatus': 'MID_JOURNEY'}
62d37c62-b23f-48a1-bcf8-89e1ebfea946,f8ffd3ee621ceb5d864ad2ca3a705777b409f9bb,2021-10-28 13:04:37-06:00,"{'latitude': 31.785193, 'longitude': -106.506041, 'geohash': '9tskb6', 'postalCode': '79902', 'regionCode': 'TX', 'countryCode': 'US'}","{'speed': 40.32, 'heading': 338.0}","{'wejoVehicleTypeId': 3062202479980516108, 'status': {'ignitionStatus': 'MID_JOURNEY'}}",31.785193,-106.506041,9tskb6,79902,TX,US,40.32,338.0,3062202479980516108,{'ignitionStatus': 'MID_JOURNEY'}
6ce7134b-ed34-4a4a-ab4a-2c56b17528e9,8f6deb13e3a959bba017d5bf6e7c68056c55f783,2021-10-28 13:33:05-06:00,"{'latitude': 31.784124, 'longitude': -106.506096, 'geohash': '9tskb6', 'postalCode': '79902', 'regionCode': 'TX', 'countryCode': 'US'}","{'speed': 0.0, 'heading': 254.0}","{'wejoVehicleTypeId': -9220724719826756199, 'status': {'ignitionStatus': 'MID_JOURNEY'}}",31.784124,-106.506096,9tskb6,79902,TX,US,0.0,254.0,-9220724719826756199,{'ignitionStatus': 'MID_JOURNEY'}
81b274d0-2833-4f08-a530-317e134f1546,027b5e88cae9b26aba9c58bca8c6d60e346ad054,2021-10-28 13:54:04-06:00,"{'latitude': 31.785681, 'longitude': -106.506071, 'geohash': '9tskb6', 'postalCode': '79902', 'regionCode': 'TX', 'countryCode': 'US'}","{'speed': 25.34, 'heading': 346.0}","{'wejoVehicleTypeId': 3589220983253908237, 'status': {'ignitionStatus': 'MID_JOURNEY'}}",31.785681,-106.506071,9tskb6,79902,TX,US,25.34,346.0,3589220983253908237,{'ignitionStatus': 'MID_JOURNEY'}
8dbf9c6e-9186-4c68-90dc-981ada0a6b75,fcee8791e63c150e2a84fd25969a336e6c845ff8,2021-10-28 13:51:45-06:00,"{'latitude': 31.784702, 'longitude': -106.507383, 'geohash': '9tskb6', 'postalCode': '79902', 'regionCode': 'TX', 'countryCode': 'US'}","{'speed': 48.38, 'heading': 205.0}","{'wejoVehicleTypeId': -7714236369518399097, 'status': {'ignitionStatus': 'MID_JOURNEY'}}",31.784702,-106.507383,9tskb6,79902,TX,US,48.38,205.0,-7714236369518399097,{'ignitionStatus': 'MID_JOURNEY'}
8fb82007-56b3-4fd4-aabd-4887885dfe21,d2a9f5657068983a38d3736dfef07a27c614144d,2021-10-28 13:26:41-06:00,"{'latitude': 31.783261, 'longitude': -106.506063, 'geohash': '9tskb3', 'postalCode': '79902', 'regionCode': 'TX', 'countryCode': 'US'}","{'speed': 0.0, 'heading': 175.0}","{'wejoVehicleTypeId': -4859298144236932860, 'status': {'ignitionStatus': 'MID_JOURNEY'}}",31.783261,-106.506063,9tskb3,79902,TX,US,0.0,175.0,-4859298144236932860,{'ignitionStatus': 'MID_JOURNEY'}
99f35440-da20-4aa5-970b-4ce05f281105,d2a9f5657068983a38d3736dfef07a27c614144d,2021-10-28 13:34:20-06:00,"{'latitude': 31.783261, 'longitude': -106.506063, 'geohash': '9tskb3', 'postalCode': '79902', 'regionCode': 'TX', 'countryCode': 'US'}","{'speed': 0.0, 'heading': 175.0}","{'wejoVehicleTypeId': -4859298144236932860, 'status': {'ignitionStatus': 'MID_JOURNEY'}}",31.783261,-106.506063,9tskb3,79902,TX,US,0.0,175.0,-4859298144236932860,{'ignitionStatus': 'MID_JOURNEY'}
9b86404f-286a-4398-8c83-88dbe63c58e4,8f6deb13e3a959bba017d5bf6e7c68056c55f783,2021-10-28 13:32:26-06:00,"{'latitude': 31.784124, 'longitude': -106.506096, 'geohash': '9tskb6', 'postalCode': '79902', 'regionCode': 'TX', 'countryCode': 'US'}","{'speed': 0.0, 'heading': 254.0}","{'wejoVehicleTypeId': -9220724719826756199, 'status': {'ignitionStatus': 'MID_JOURNEY'}}",31.784124,-106.506096,9tskb6,79902,TX,US,0.0,254.0,-9220724719826756199,{'ignitionStatus': 'MID_JOURNEY'}
a842ff47-fea5-4812-ab34-b5ac8d108c9e,a38d8335fbabee0ba693dd474df7997373a4f6f6,2021-10-28 13:23:58-06:00,"{'latitude': 31.782596, 'longitude': -106.505433, 'geohash': '9tskb3', 'postalCode': '79902', 'regionCode': 'TX', 'countryCode': 'US'}","{'speed': 73.72, 'heading': 170.0}","{'wejoVehicleTypeId': -6519314678940220591, 'status': {'ignitionStatus': 'MID_JOURNEY'}}",31.782596,-106.505433,9tskb3,79902,TX,US,73.72,170.0,-6519314678940220591,{'ignitionStatus': 'MID_JOURNEY'}
ad265b07-cf0f-4296-bd39-8ee5f9bea23a,c974e80e0878fb3ada294256124c75f81307a672,2021-10-28 13:24:08-06:00,"{'latitude': 31.782218, 'longitude': -106.5056, 'geohash': '9tskb3', 'postalCode': '79902', 'regionCode': 'TX', 'countryCode': 'US'}","{'speed': 6.91, 'heading': 89.0}","{'wejoVehicleTypeId': -8827937680524571235, 'status': {'ignitionStatus': 'MID_JOURNEY'}}",31.782218,-106.5056,9tskb3,79902,TX,US,6.91,89.0,-8827937680524571235,{'ignitionStatus': 'MID_JOURNEY'}
afa5ce9c-7167-4b5e-8688-b502ab977f58,26f47d4087ea6f48c35d7fff166b6c5c470f1bb7,2021-10-28 13:54:45-06:00,"{'latitude': 31.783392, 'longitude': -106.505677, 'geohash': '9tskb3', 'postalCode': '79902', 'regionCode': 'TX', 'countryCode': 'US'}","{'speed': 67.96, 'heading': 166.0}","{'wejoVehicleTypeId': 5451814086907522835, 'status': {'ignitionStatus': 'MID_JOURNEY'}}",31.783392,-106.505677,9tskb3,79902,TX,US,67.96,166.0,5451814086907522835,{'ignitionStatus': 'MID_JOURNEY'}
b661845a-9d42-4901-ae58-1b1d18729769,c4be7d6e76ffc082db0222ebd5170931de3f2684,2021-10-28 13:52:54-06:00,"{'latitude': 31.785486, 'longitude': -106.506498, 'geohash': '9tskb6', 'postalCode': '79902', 'regionCode': 'TX', 'countryCode': 'US'}","{'speed': 0.0, 'heading': 63.0}","{'wejoVehicleTypeId': 3208469000586520151, 'status': {'ignitionStatus': 'MID_JOURNEY'}}",31.785486,-106.506498,9tskb6,79902,TX,US,0.0,63.0,3208469000586520151,{'ignitionStatus': 'MID_JOURNEY'}
04cd55b1-4efe-40cb-b1a0-da79408978eb,9c801ca8b4159db2f94536d9f2c37e2874fb4a58,2021-10-29 13:32:38-06:00,"{'latitude': 31.784235, 'longitude': -106.506021, 'geohash': '9tskb6', 'postalCode': '79902', 'regionCode': 'TX', 'countryCode': 'US'}","{'speed': 0.0, 'heading': 70.0}","{'wejoVehicleTypeId': -8355496233394648629, 'status': {'ignitionStatus': 'MID_JOURNEY'}}",31.784235,-106.506021,9tskb6,79902,TX,US,0.0,70.0,-8355496233394648629,{'ignitionStatus': 'MID_JOURNEY'}
0b570141-b47e-4a70-bdda-061a686adaab,6aadaa25fd9c98fd48d16cb3be47e56551e2e218,2021-10-29 13:17:25-06:00,"{'latitude': 31.785779, 'longitude': -106.506359, 'geohash': '9tskb6', 'postalCode': '79902', 'regionCode': 'TX', 'countryCode': 'US'}","{'speed': 0.0, 'heading': 166.0}","{'wejoVehicleTypeId': -3472464704134812754, 'status': {'ignitionStatus': 'MID_JOURNEY'}}",31.785779,-106.506359,9tskb6,79902,TX,US,0.0,166.0,-3472464704134812754,{'ignitionStatus': 'MID_JOURNEY'}
1666dfea-12f7-4ac8-94d3-9e925eba7cf1,98aa87c7e78cbfe7960be3c6a598b46a9eb98af9,2021-10-29 13:22:07-06:00,"{'latitude': 31.784666, 'longitude': -106.506867, 'geohash': '9tskb6', 'postalCode': '79902', 'regionCode': 'TX', 'countryCode': 'US'}","{'speed': 0.0, 'heading': 79.0}","{'wejoVehicleTypeId': 4427167167115703432, 'status': {'ignitionStatus': 'MID_JOURNEY'}}",31.784666,-106.506867,9tskb6,79902,TX,US,0.0,79.0,4427167167115703432,{'ignitionStatus': 'MID_JOURNEY'}
2607a834-5608-49f9-b57c-fe4005ca4bcb,217268aab94556d529fa24601e41984174909ca5,2021-10-29 13:58:49-06:00,"{'latitude': 31.785055, 'longitude': -106.506114, 'geohash': '9tskb6', 'postalCode': '79902', 'regionCode': 'TX', 'countryCode': 'US'}","{'speed': 69.11, 'heading': 166.0}","{'wejoVehicleTypeId': 2774005097481635812, 'status': {'ignitionStatus': 'MID_JOURNEY'}}",31.785055,-106.506114,9tskb6,79902,TX,US,69.11,166.0,2774005097481635812,{'ignitionStatus': 'MID_JOURNEY'}
2aa70b43-87a6-4938-acfb-8e2cbba2d237,b2417288bac634a92e4f9aa9e25204f4632d2003,2021-10-29 13:07:03-06:00,"{'latitude': 31.782105, 'longitude': -106.506261, 'geohash': '9tskb3', 'postalCode': '79902', 'regionCode': 'TX', 'countryCode': 'US'}","{'speed': 0.0, 'heading': 358.0}","{'wejoVehicleTypeId': 412781937144978318, 'status': {'ignitionStatus': 'KEY_ON'}}",31.782105,-106.506261,9tskb3,79902,TX,US,0.0,358.0,412781937144978318,{'ignitionStatus': 'KEY_ON'}
725eaf56-1f3f-47be-b094-7abd3dbd21de,b7f043ed48e07a4a926808050d8e1fe1a21440b4,2021-10-29 13:00:17-06:00,"{'latitude': 31.785135, 'longitude': -106.505951, 'geohash': '9tskb6', 'postalCode': '79902', 'regionCode': 'TX', 'countryCode': 'US'}","{'speed': 64.51, 'heading': 346.0}","{'wejoVehicleTypeId': -8365967274701180683, 'status': {'ignitionStatus': 'MID_JOURNEY'}}",31.785135,-106.505951,9tskb6,79902,TX,US,64.51,346.0,-8365967274701180683,{'ignitionStatus': 'MID_JOURNEY'}
78e5b92a-66ff-407c-9ab4-a090a1ddaf65,7bf9cd24957bfb4b080be396d7b3717f764077a7,2021-10-29 13:53:10-06:00,"{'latitude': 31.785503, 'longitude': -106.506052, 'geohash': '9tskb6', 'postalCode': '79902', 'regionCode': 'TX', 'countryCode': 'US'}","{'speed': 4.6, 'heading': 345.0}","{'wejoVehicleTypeId': -8877962588134376066, 'status': {'ignitionStatus': 'MID_JOURNEY'}}",31.785503,-106.506052,9tskb6,79902,TX,US,4.6,345.0,-8877962588134376066,{'ignitionStatus': 'MID_JOURNEY'}
89eb77b9-86f0-4fbe-b309-d75807190c68,b040ffe3e93de7836026f3216fd53a58807ed22b,2021-10-29 13:08:13-06:00,"{'latitude': 31.785288, 'longitude': -106.506038, 'geohash': '9tskb6', 'postalCode': '79902', 'regionCode': 'TX', 'countryCode': 'US'}","{'speed': 5.76, 'heading': 345.0}","{'wejoVehicleTypeId': -853609999546110219, 'status': {'ignitionStatus': 'MID_JOURNEY'}}",31.785288,-106.506038,9tskb6,79902,TX,US,5.76,345.0,-853609999546110219,{'ignitionStatus': 'MID_JOURNEY'}
bae030a1-c6f9-46de-a862-aa6407b9d6f0,98aa87c7e78cbfe7960be3c6a598b46a9eb98af9,2021-10-29 13:23:10-06:00,"{'latitude': 31.78468, 'longitude': -106.506792, 'geohash': '9tskb6', 'postalCode': '79902', 'regionCode': 'TX', 'countryCode': 'US'}","{'speed': 0.0, 'heading': 75.0}","{'wejoVehicleTypeId': 4427167167115703432, 'status': {'ignitionStatus': 'MID_JOURNEY'}}",31.78468,-106.506792,9tskb6,79902,TX,US,0.0,75.0,4427167167115703432,{'ignitionStatus': 'MID_JOURNEY'}
d27eed77-f4ab-4587-aa88-2777d7ff64d9,9c801ca8b4159db2f94536d9f2c37e2874fb4a58,2021-10-29 13:33:38-06:00,"{'latitude': 31.78285, 'longitude': -106.505496, 'geohash': '9tskb3', 'postalCode': '79902', 'regionCode': 'TX', 'countryCode': 'US'}","{'speed': 47.23, 'heading': 167.0}","{'wejoVehicleTypeId': -8355496233394648629, 'status': {'ignitionStatus': 'MID_JOURNEY'}}",31.78285,-106.505496,9tskb3,79902,TX,US,47.23,167.0,-8355496233394648629,{'ignitionStatus': 'MID_JOURNEY'}
ea52b63e-4e97-4079-b939-841c20f6dd24,b2417288bac634a92e4f9aa9e25204f4632d2003,2021-10-29 13:07:30-06:00,"{'latitude': 31.78211, 'longitude': -106.506261, 'geohash': '9tskb3', 'postalCode': '79902', 'regionCode': 'TX', 'countryCode': 'US'}","{'speed': 1.15, 'heading': 359.0}","{'wejoVehicleTypeId': 412781937144978318, 'status': {'ignitionStatus': 'MID_JOURNEY'}}",31.78211,-106.506261,9tskb3,79902,TX,US,1.15,359.0,412781937144978318,{'ignitionStatus': 'MID_JOURNEY'}
fdcd8704-76c4-4e5e-a157-02efce8427fb,9868a4241c02d41541a89c5f469b90b181d51d6d,2021-10-29 13:55:24-06:00,"{'latitude': 31.785529, 'longitude': -106.506136, 'geohash': '9tskb6', 'postalCode': '79902', 'regionCode': 'TX', 'countryCode': 'US'}","{'speed': 42.62, 'heading': 343.0}","{'wejoVehicleTypeId': -7680809021156932547, 'status': {'ignitionStatus': 'MID_JOURNEY'}}",31.785529,-106.506136,9tskb6,79902,TX,US,42.62,343.0,-7680809021156932547,{'ignitionStatus': 'MID_JOURNEY'}
2e26b334-013c-4bc9-9e27-b303860045ce,12997c9be9075c5ac86de5ca0af478cd5245b8f5,2021-10-29 13:16:41-06:00,"{'latitude': 31.781825, 'longitude': -106.505142, 'geohash': '9tskb3', 'postalCode': '79902', 'regionCode': 'TX', 'countryCode': 'US'}","{'speed': 70.27, 'heading': 354.0}","{'wejoVehicleTypeId': 8564225996404398006, 'status': {'ignitionStatus': 'MID_JOURNEY'}}",31.781825,-106.505142,9tskb3,79902,TX,US,70.27,354.0,8564225996404398006,{'ignitionStatus': 'MID_JOURNEY'}
35f0fe32-1f1f-45e2-8c2d-da96e05d10e9,deda2d46aa7c67bea87e97034ba0e24aaa2b1162,2021-10-29 13:44:50-06:00,"{'latitude': 31.785027, 'longitude': -106.506509, 'geohash': '9tskb6', 'postalCode': '79902', 'regionCode': 'TX', 'countryCode': 'US'}","{'speed': 0.0, 'heading': 74.0}","{'wejoVehicleTypeId': 3208469000586520151, 'status': {'ignitionStatus': 'MID_JOURNEY'}}",31.785027,-106.506509,9tskb6,79902,TX,US,0.0,74.0,3208469000586520151,{'ignitionStatus': 'MID_JOURNEY'}
54731146-0922-4385-b99b-f9baa245283f,858cb308bc9c39449f1c106acc438367e63c6b3b,2021-10-29 13:08:53-06:00,"{'latitude': 31.782442, 'longitude': -106.505397, 'geohash': '9tskb3', 'postalCode': '79902', 'regionCode': 'TX', 'countryCode': 'US'}","{'speed': 61.05, 'heading': 171.0}","{'wejoVehicleTypeId': 7285970169710860698, 'status': {'ignitionStatus': 'MID_JOURNEY'}}",31.782442,-106.505397,9tskb3,79902,TX,US,61.05,171.0,7285970169710860698,{'ignitionStatus': 'MID_JOURNEY'}
6e35a3ac-7395-4fab-ab19-ddbcaf0912a3,7bf9cd24957bfb4b080be396d7b3717f764077a7,2021-10-29 13:52:46-06:00,"{'latitude': 31.782412, 'longitude': -106.50524, 'geohash': '9tskb3', 'postalCode': '79902', 'regionCode': 'TX', 'countryCode': 'US'}","{'speed': 55.29, 'heading': 353.0}","{'wejoVehicleTypeId': -8877962588134376066, 'status': {'ignitionStatus': 'MID_JOURNEY'}}",31.782412,-106.50524,9tskb3,79902,TX,US,55.29,353.0,-8877962588134376066,{'ignitionStatus': 'MID_JOURNEY'}
a2d6f460-aef9-4eb9-b867-9a0522166169,98aa87c7e78cbfe7960be3c6a598b46a9eb98af9,2021-10-29 13:22:49-06:00,"{'latitude': 31.784666, 'longitude': -106.506867, 'geohash': '9tskb6', 'postalCode': '79902', 'regionCode': 'TX', 'countryCode': 'US'}","{'speed': 0.0, 'heading': 79.0}","{'wejoVehicleTypeId': 4427167167115703432, 'status': {'ignitionStatus': 'MID_JOURNEY'}}",31.784666,-106.506867,9tskb6,79902,TX,US,0.0,79.0,4427167167115703432,{'ignitionStatus': 'MID_JOURNEY'}
d661c895-5d3d-4733-8c65-9448cf80bcad,2005e5bfa7a96ac92941d65d2647b8d1f0045b2c,2021-10-29 13:47:50-06:00,"{'latitude': 31.785773, 'longitude': -106.506302, 'geohash': '9tskb6', 'postalCode': '79902', 'regionCode': 'TX', 'countryCode': 'US'}","{'speed': 0.0, 'heading': 166.0}","{'wejoVehicleTypeId': -3367102432402431320, 'status': {'ignitionStatus': 'MID_JOURNEY'}}",31.785773,-106.506302,9tskb6,79902,TX,US,0.0,166.0,-3367102432402431320,{'ignitionStatus': 'MID_JOURNEY'}
d8fcbf67-2694-417d-a381-c9bd39d35128,153abcd3a7d4b2e3e1e3d5bcba465a7afa26f4f2,2021-10-29 13:05:59-06:00,"{'latitude': 31.785741, 'longitude': -106.506291, 'geohash': '9tskb6', 'postalCode': '79902', 'regionCode': 'TX', 'countryCode': 'US'}","{'speed': 0.0, 'heading': 164.0}","{'wejoVehicleTypeId': 2321264941142346931, 'status': {'ignitionStatus': 'MID_JOURNEY'}}",31.785741,-106.506291,9tskb6,79902,TX,US,0.0,164.0,2321264941142346931,{'ignitionStatus': 'MID_JOURNEY'}
f0cf5229-7717-4678-96eb-c6b89f2e7290,ab8881773527e5f329a097cdc428ade119e82ad5,2021-10-29 13:14:27-06:00,"{'latitude': 31.78542, 'longitude': -106.506547, 'geohash': '9tskb6', 'postalCode': '79902', 'regionCode': 'TX', 'countryCode': 'US'}","{'speed': 0.0, 'heading': 62.0}","{'wejoVehicleTypeId': -1034020960605010723, 'status': {'ignitionStatus': 'MID_JOURNEY'}}",31.78542,-106.506547,9tskb6,79902,TX,US,0.0,62.0,-1034020960605010723,{'ignitionStatus': 'MID_JOURNEY'}
0ca8e19b-8be1-4d14-abc9-15acfc24b34c,c982f211de47dccd7d3f3ecc6515312cfc365bdf,2021-10-27 13:25:50-06:00,"{'latitude': 31.783255, 'longitude': -106.506034, 'geohash': '9tskb3', 'postalCode': '79902', 'regionCode': 'TX', 'countryCode': 'US'}","{'speed': 0.0, 'heading': 173.0}","{'wejoVehicleTypeId': -4859298144236932860, 'status': {'ignitionStatus': 'MID_JOURNEY'}}",31.783255,-106.506034,9tskb3,79902,TX,US,0.0,173.0,-4859298144236932860,{'ignitionStatus': 'MID_JOURNEY'}
19fdbc07-2ac7-4eca-8216-d4141067f0ea,c982f211de47dccd7d3f3ecc6515312cfc365bdf,2021-10-27 13:31:35-06:00,"{'latitude': 31.783255, 'longitude': -106.506034, 'geohash': '9tskb3', 'postalCode': '79902', 'regionCode': 'TX', 'countryCode': 'US'}","{'speed': 0.0, 'heading': 173.0}","{'wejoVehicleTypeId': -4859298144236932860, 'status': {'ignitionStatus': 'MID_JOURNEY'}}",31.783255,-106.506034,9tskb3,79902,TX,US,0.0,173.0,-4859298144236932860,{'ignitionStatus': 'MID_JOURNEY'}
1e31de74-189b-4e40-883a-afaafb63716a,c9b0fcb169bb8122e551bfec57c7c4ca52ab8a19,2021-10-27 13:45:16-06:00,"{'latitude': 31.785348, 'longitude': -106.506103, 'geohash': '9tskb6', 'postalCode': '79902', 'regionCode': 'TX', 'countryCode': 'US'}","{'speed': 0.0, 'heading': 343.0}","{'wejoVehicleTypeId': 5178930115813147977, 'status': {'ignitionStatus': 'MID_JOURNEY'}}",31.785348,-106.506103,9tskb6,79902,TX,US,0.0,343.0,5178930115813147977,{'ignitionStatus': 'MID_JOURNEY'}
24d149ea-3798-45dd-bbcf-e9e1d00c7e4b,c9b0fcb169bb8122e551bfec57c7c4ca52ab8a19,2021-10-27 13:44:37-06:00,"{'latitude': 31.782562, 'longitude': -106.505311, 'geohash': '9tskb3', 'postalCode': '79902', 'regionCode': 'TX', 'countryCode': 'US'}","{'speed': 54.14, 'heading': 352.0}","{'wejoVehicleTypeId': 5178930115813147977, 'status': {'ignitionStatus': 'MID_JOURNEY'}}",31.782562,-106.505311,9tskb3,79902,TX,US,54.14,352.0,5178930115813147977,{'ignitionStatus': 'MID_JOURNEY'}
4364e939-4b7e-40bb-a716-cf898229c3b6,c982f211de47dccd7d3f3ecc6515312cfc365bdf,2021-10-27 13:26:59-06:00,"{'latitude': 31.783255, 'longitude': -106.506034, 'geohash': '9tskb3', 'postalCode': '79902', 'regionCode': 'TX', 'countryCode': 'US'}","{'speed': 0.0, 'heading': 173.0}","{'wejoVehicleTypeId': -4859298144236932860, 'status': {'ignitionStatus': 'MID_JOURNEY'}}",31.783255,-106.506034,9tskb3,79902,TX,US,0.0,173.0,-4859298144236932860,{'ignitionStatus': 'MID_JOURNEY'}
4df55454-fb40-4c5e-b8c6-49bd3968fbe3,359dadade5635338dec9d40ccf634f323ebbd7b2,2021-10-27 13:14:18-06:00,"{'latitude': 31.784301, 'longitude': -106.505916, 'geohash': '9tskb6', 'postalCode': '79902', 'regionCode': 'TX', 'countryCode': 'US'}","{'speed': 51.83, 'heading': 165.0}","{'wejoVehicleTypeId': 1676350168999332106, 'status': {'ignitionStatus': 'MID_JOURNEY'}}",31.784301,-106.505916,9tskb6,79902,TX,US,51.83,165.0,1676350168999332106,{'ignitionStatus': 'MID_JOURNEY'}
55a3edfd-50ec-4c1c-8e07-cb62d5239990,c3894c83f1425d4ab60fae5ae7d07e21f79f6a8b,2021-10-27 13:41:18-06:00,"{'latitude': 31.782484, 'longitude': -106.506459, 'geohash': '9tskb3', 'postalCode': '79902', 'regionCode': 'TX', 'countryCode': 'US'}","{'speed': 0.0, 'heading': 87.0}","{'wejoVehicleTypeId': -4581201081145603461, 'status': {'ignitionStatus': 'MID_JOURNEY'}}",31.782484,-106.506459,9tskb3,79902,TX,US,0.0,87.0,-4581201081145603461,{'ignitionStatus': 'MID_JOURNEY'}
5a361e13-c993-4bfe-a48d-77fb5511c2fe,c982f211de47dccd7d3f3ecc6515312cfc365bdf,2021-10-27 13:28:05-06:00,"{'latitude': 31.783255, 'longitude': -106.506034, 'geohash': '9tskb3', 'postalCode': '79902', 'regionCode': 'TX', 'countryCode': 'US'}","{'speed': 0.0, 'heading': 173.0}","{'wejoVehicleTypeId': -4859298144236932860, 'status': {'ignitionStatus': 'MID_JOURNEY'}}",31.783255,-106.506034,9tskb3,79902,TX,US,0.0,173.0,-4859298144236932860,{'ignitionStatus': 'MID_JOURNEY'}
5f9a36a2-d499-43bb-bfb6-42d8d11fe133,1e37efdde83d7c852ff4f7c22f82e83cff501e4c,2021-10-27 13:34:10-06:00,"{'latitude': 31.783687, 'longitude': -106.505734, 'geohash': '9tskb6', 'postalCode': '79902', 'regionCode': 'TX', 'countryCode': 'US'}","{'speed': 62.2, 'heading': 165.0}","{'wejoVehicleTypeId': 6254313567849197008, 'status': {'ignitionStatus': 'MID_JOURNEY'}}",31.783687,-106.505734,9tskb6,79902,TX,US,62.2,165.0,6254313567849197008,{'ignitionStatus': 'MID_JOURNEY'}
642822db-c161-492f-88ff-c043b8ab5adf,35fa794376e001038c0bacbf72342a63d33faa95,2021-10-27 13:05:31-06:00,"{'latitude': 31.785432, 'longitude': -106.506108, 'geohash': '9tskb6', 'postalCode': '79902', 'regionCode': 'TX', 'countryCode': 'US'}","{'speed': 0.0, 'heading': 346.0}","{'wejoVehicleTypeId': 5196418745706600835, 'status': {'ignitionStatus': 'MID_JOURNEY'}}",31.785432,-106.506108,9tskb6,79902,TX,US,0.0,346.0,5196418745706600835,{'ignitionStatus': 'MID_JOURNEY'}
7acf2eb6-0453-4989-850b-17541b3a16d6,af8bf03c2b487ab27dd82614314064d7dcfe861e,2021-10-27 13:43:10-06:00,"{'latitude': 31.783488, 'longitude': -106.505479, 'geohash': '9tskb6', 'postalCode': '79902', 'regionCode': 'TX', 'countryCode': 'US'}","{'speed': 70.27, 'heading': 346.0}","{'wejoVehicleTypeId': -3483456720929760337, 'status': {'ignitionStatus': 'MID_JOURNEY'}}",31.783488,-106.505479,9tskb6,79902,TX,US,70.27,346.0,-3483456720929760337,{'ignitionStatus': 'MID_JOURNEY'}
8a0e59e3-2aaf-4c2d-a743-da0f07432ced,c982f211de47dccd7d3f3ecc6515312cfc365bdf,2021-10-27 13:27:56-06:00,"{'latitude': 31.783255, 'longitude': -106.506034, 'geohash': '9tskb3', 'postalCode': '79902', 'regionCode': 'TX', 'countryCode': 'US'}","{'speed': 0.0, 'heading': 173.0}","{'wejoVehicleTypeId': -4859298144236932860, 'status': {'ignitionStatus': 'MID_JOURNEY'}}",31.783255,-106.506034,9tskb3,79902,TX,US,0.0,173.0,-4859298144236932860,{'ignitionStatus': 'MID_JOURNEY'}
8e43a029-ce87-4ab6-9e87-e0f33cc88ac6,33a801e515b7fba19965b94a0f5e1cdbd58f7faa,2021-10-27 13:17:01-06:00,"{'latitude': 31.782594, 'longitude': -106.50526, 'geohash': '9tskb3', 'postalCode': '79902', 'regionCode': 'TX', 'countryCode': 'US'}","{'speed': 62.2, 'heading': 350.0}","{'wejoVehicleTypeId': -421385764776494633, 'status': {'ignitionStatus': 'MID_JOURNEY'}}",31.782594,-106.50526,9tskb3,79902,TX,US,62.2,350.0,-421385764776494633,{'ignitionStatus': 'MID_JOURNEY'}
a0202dc8-f077-4904-8df5-233e56be2e2e,af8bf03c2b487ab27dd82614314064d7dcfe861e,2021-10-27 13:43:37-06:00,"{'latitude': 31.785293, 'longitude': -106.506009, 'geohash': '9tskb6', 'postalCode': '79902', 'regionCode': 'TX', 'countryCode': 'US'}","{'speed': 0.0, 'heading': 345.0}","{'wejoVehicleTypeId': -3483456720929760337, 'status': {'ignitionStatus': 'MID_JOURNEY'}}",31.785293,-106.506009,9tskb6,79902,TX,US,0.0,345.0,-3483456720929760337,{'ignitionStatus': 'MID_JOURNEY'}
dc1aeb13-18b8-4172-aa5b-9ba7a1ee890b,3ba33e6d2240b91f1ebf126c3024e636fc9d4cf2,2021-10-27 13:40:04-06:00,"{'latitude': 31.782621, 'longitude': -106.506899, 'geohash': '9tskb3', 'postalCode': '79902', 'regionCode': 'TX', 'countryCode': 'US'}","{'speed': 0.0, 'heading': 86.0}","{'wejoVehicleTypeId': 8392244891075150894, 'status': {'ignitionStatus': 'MID_JOURNEY'}}",31.782621,-106.506899,9tskb3,79902,TX,US,0.0,86.0,8392244891075150894,{'ignitionStatus': 'MID_JOURNEY'}
de76629f-7767-4417-b587-963301dd33d4,c982f211de47dccd7d3f3ecc6515312cfc365bdf,2021-10-27 13:16:56-06:00,"{'latitude': 31.783424, 'longitude': -106.505965, 'geohash': '9tskb3', 'postalCode': '79902', 'regionCode': 'TX', 'countryCode': 'US'}","{'speed': 0.0, 'heading': 259.0}","{'wejoVehicleTypeId': -4859298144236932860, 'status': {'ignitionStatus': 'MID_JOURNEY'}}",31.783424,-106.505965,9tskb3,79902,TX,US,0.0,259.0,-4859298144236932860,{'ignitionStatus': 'MID_JOURNEY'}
09d526e6-e0d4-4631-b551-8b9f5e9ee88c,0f5252dd70f56e86f08bbd41d5821fefe1a1259d,2021-10-26 13:17:48-06:00,"{'latitude': 31.783666, 'longitude': -106.507085, 'geohash': '9tskb6', 'postalCode': '79902', 'regionCode': 'TX', 'countryCode': 'US'}","{'speed': 0.0, 'heading': 72.0}","{'wejoVehicleTypeId': 1559375648136069064, 'status': {'ignitionStatus': 'MID_JOURNEY'}}",31.783666,-106.507085,9tskb6,79902,TX,US,0.0,72.0,1559375648136069064,{'ignitionStatus': 'MID_JOURNEY'}
0d3be5ad-beba-48f8-a100-991903cb5f24,854c05522dbacb998c02e9fcfb26c621cb225d90,2021-10-26 13:33:59-06:00,"{'latitude': 31.785438, 'longitude': -106.506105, 'geohash': '9tskb6', 'postalCode': '79902', 'regionCode': 'TX', 'countryCode': 'US'}","{'speed': 18.43, 'heading': 345.0}","{'wejoVehicleTypeId': 2890954762552801783, 'status': {'ignitionStatus': 'MID_JOURNEY'}}",31.785438,-106.506105,9tskb6,79902,TX,US,18.43,345.0,2890954762552801783,{'ignitionStatus': 'MID_JOURNEY'}
248caf1b-9de5-4b69-8c76-9264b871fe74,0f5252dd70f56e86f08bbd41d5821fefe1a1259d,2021-10-26 13:50:03-06:00,"{'latitude': 31.783666, 'longitude': -106.507085, 'geohash': '9tskb6', 'postalCode': '79902', 'regionCode': 'TX', 'countryCode': 'US'}","{'speed': 0.0, 'heading': 72.0}","{'wejoVehicleTypeId': 1559375648136069064, 'status': {'ignitionStatus': 'MID_JOURNEY'}}",31.783666,-106.507085,9tskb6,79902,TX,US,0.0,72.0,1559375648136069064,{'ignitionStatus': 'MID_JOURNEY'}
2b995112-3ee2-44ad-b34f-aac8044c4c64,3c442578973a2efe20a98471df87b4f940c2a118,2021-10-26 13:11:20-06:00,"{'latitude': 31.784516, 'longitude': -106.506133, 'geohash': '9tskb6', 'postalCode': '79902', 'regionCode': 'TX', 'countryCode': 'US'}","{'speed': 0.0, 'heading': 72.0}","{'wejoVehicleTypeId': 8603920939059598987, 'status': {'ignitionStatus': 'MID_JOURNEY'}}",31.784516,-106.506133,9tskb6,79902,TX,US,0.0,72.0,8603920939059598987,{'ignitionStatus': 'MID_JOURNEY'}
3af58bea-5b4e-4df0-b566-f6af45d1048e,0f5252dd70f56e86f08bbd41d5821fefe1a1259d,2021-10-26 13:20:42-06:00,"{'latitude': 31.783666, 'longitude': -106.507085, 'geohash': '9tskb6', 'postalCode': '79902', 'regionCode': 'TX', 'countryCode': 'US'}","{'speed': 0.0, 'heading': 72.0}","{'wejoVehicleTypeId': 1559375648136069064, 'status': {'ignitionStatus': 'MID_JOURNEY'}}",31.783666,-106.507085,9tskb6,79902,TX,US,0.0,72.0,1559375648136069064,{'ignitionStatus': 'MID_JOURNEY'}
3e39d406-37bc-4cae-a8b3-c856ea6026ad,2a16bfd780bae617679634ff3a92b13f4dbf814b,2021-10-26 13:09:53-06:00,"{'latitude': 31.783483, 'longitude': -106.505437, 'geohash': '9tskb6', 'postalCode': '79902', 'regionCode': 'TX', 'countryCode': 'US'}","{'speed': 66.81, 'heading': 347.0}","{'wejoVehicleTypeId': 5479228709399282452, 'status': {'ignitionStatus': 'MID_JOURNEY'}}",31.783483,-106.505437,9tskb6,79902,TX,US,66.81,347.0,5479228709399282452,{'ignitionStatus': 'MID_JOURNEY'}
41f528bd-beb0-4821-b555-4335febb8e94,bb5cb1f3b08f92b437de17c54a25118e2fae62ea,2021-10-26 13:52:49-06:00,"{'latitude': 31.782129, 'longitude': -106.506383, 'geohash': '9tskb3', 'postalCode': '79902', 'regionCode': 'TX', 'countryCode': 'US'}","{'speed': 0.0, 'heading': 175.0}","{'wejoVehicleTypeId': -5191932342276369765, 'status': {'ignitionStatus': 'MID_JOURNEY'}}",31.782129,-106.506383,9tskb3,79902,TX,US,0.0,175.0,-5191932342276369765,{'ignitionStatus': 'MID_JOURNEY'}
58462818-e0d9-44db-8205-2062174f1751,a49140d5a710f5ca86ae192fab4fbc69e946c0a4,2021-10-26 13:26:23-06:00,"{'latitude': 31.785777, 'longitude': -106.505889, 'geohash': '9tskb6', 'postalCode': '79902', 'regionCode': 'TX', 'countryCode': 'US'}","{'speed': 0.0, 'heading': 249.0}","{'wejoVehicleTypeId': -1764075994848641904, 'status': {'ignitionStatus': 'MID_JOURNEY'}}",31.785777,-106.505889,9tskb6,79902,TX,US,0.0,249.0,-1764075994848641904,{'ignitionStatus': 'MID_JOURNEY'}
59f7ed58-7b5d-461c-9326-aa5bdee48aad,811d360489a8b066039984e59d29160599e48656,2021-10-26 13:02:15-06:00,"{'latitude': 31.784948, 'longitude': -106.506199, 'geohash': '9tskb6', 'postalCode': '79902', 'regionCode': 'TX', 'countryCode': 'US'}","{'speed': 0.0, 'heading': 87.0}","{'wejoVehicleTypeId': -8735686858431946495, 'status': {'ignitionStatus': 'MID_JOURNEY'}}",31.784948,-106.506199,9tskb6,79902,TX,US,0.0,87.0,-8735686858431946495,{'ignitionStatus': 'MID_JOURNEY'}
6f3751d3-a0d5-4753-aaf5-cf3c0debd0f8,0f5252dd70f56e86f08bbd41d5821fefe1a1259d,2021-10-26 13:24:39-06:00,"{'latitude': 31.783666, 'longitude': -106.507085, 'geohash': '9tskb6', 'postalCode': '79902', 'regionCode': 'TX', 'countryCode': 'US'}","{'speed': 0.0, 'heading': 72.0}","{'wejoVehicleTypeId': 1559375648136069064, 'status': {'ignitionStatus': 'MID_JOURNEY'}}",31.783666,-106.507085,9tskb6,79902,TX,US,0.0,72.0,1559375648136069064,{'ignitionStatus': 'MID_JOURNEY'}
75931a10-92cf-46db-a1a7-93a00b6503aa,bb5cb1f3b08f92b437de17c54a25118e2fae62ea,2021-10-26 13:52:16-06:00,"{'latitude': 31.782129, 'longitude': -106.506383, 'geohash': '9tskb3', 'postalCode': '79902', 'regionCode': 'TX', 'countryCode': 'US'}","{'speed': 0.0, 'heading': 175.0}","{'wejoVehicleTypeId': -5191932342276369765, 'status': {'ignitionStatus': 'MID_JOURNEY'}}",31.782129,-106.506383,9tskb3,79902,TX,US,0.0,175.0,-5191932342276369765,{'ignitionStatus': 'MID_JOURNEY'}
7d381626-4192-44ad-a185-944ab4a60e72,51dfa58d83088c36efc3ab260828ff15d08eea2a,2021-10-26 13:50:28-06:00,"{'latitude': 31.782164, 'longitude': -106.505347, 'geohash': '9tskb3', 'postalCode': '79902', 'regionCode': 'TX', 'countryCode': 'US'}","{'speed': 57.59, 'heading': 172.0}","{'wejoVehicleTypeId': -7364997604673476781, 'status': {'ignitionStatus': 'MID_JOURNEY'}}",31.782164,-106.505347,9tskb3,79902,TX,US,57.59,172.0,-7364997604673476781,{'ignitionStatus': 'MID_JOURNEY'}
800eb220-f3c7-464b-b2bd-4af311169189,0f5252dd70f56e86f08bbd41d5821fefe1a1259d,2021-10-26 13:17:03-06:00,"{'latitude': 31.783666, 'longitude': -106.507085, 'geohash': '9tskb6', 'postalCode': '79902', 'regionCode': 'TX', 'countryCode': 'US'}","{'speed': 0.0, 'heading': 72.0}","{'wejoVehicleTypeId': 1559375648136069064, 'status': {'ignitionStatus': 'MID_JOURNEY'}}",31.783666,-106.507085,9tskb6,79902,TX,US,0.0,72.0,1559375648136069064,{'ignitionStatus': 'MID_JOURNEY'}
94a7176e-f71f-4514-a62d-36ba3b1d8e31,3c442578973a2efe20a98471df87b4f940c2a118,2021-10-26 13:07:53-06:00,"{'latitude': 31.784516, 'longitude': -106.506133, 'geohash': '9tskb6', 'postalCode': '79902', 'regionCode': 'TX', 'countryCode': 'US'}","{'speed': 0.0, 'heading': 72.0}","{'wejoVehicleTypeId': 8603920939059598987, 'status': {'ignitionStatus': 'MID_JOURNEY'}}",31.784516,-106.506133,9tskb6,79902,TX,US,0.0,72.0,8603920939059598987,{'ignitionStatus': 'MID_JOURNEY'}
9525d7e3-6c76-495c-8aac-2d1bb9995305,df41d47040b829a751b6f037156324363dc91adb,2021-10-26 13:43:24-06:00,"{'latitude': 31.785582, 'longitude': -106.506233, 'geohash': '9tskb6', 'postalCode': '79902', 'regionCode': 'TX', 'countryCode': 'US'}","{'speed': 23.04, 'heading': 62.0}","{'wejoVehicleTypeId': 2982408891612750496, 'status': {'ignitionStatus': 'MID_JOURNEY'}}",31.785582,-106.506233,9tskb6,79902,TX,US,23.04,62.0,2982408891612750496,{'ignitionStatus': 'MID_JOURNEY'}
9d01686b-c558-43d9-890e-8fd188795a0f,88b7e9848ea902bb65b13d2aa65aa87dcf8842a6,2021-10-26 13:31:33-06:00,"{'latitude': 31.78543, 'longitude': -106.506044, 'geohash': '9tskb6', 'postalCode': '79902', 'regionCode': 'TX', 'countryCode': 'US'}","{'speed': 0.0, 'heading': 345.0}","{'wejoVehicleTypeId': 8618328030186327708, 'status': {'ignitionStatus': 'MID_JOURNEY'}}",31.78543,-106.506044,9tskb6,79902,TX,US,0.0,345.0,8618328030186327708,{'ignitionStatus': 'MID_JOURNEY'}
b4ea05a6-9fd5-47d4-bbe2-28983699c4e8,81bc6560a12ba015682ca0a2096bf45e72060e4f,2021-10-26 13:15:08-06:00,"{'latitude': 31.785774, 'longitude': -106.506274, 'geohash': '9tskb6', 'postalCode': '79902', 'regionCode': 'TX', 'countryCode': 'US'}","{'speed': 0.0, 'heading': 166.0}","{'wejoVehicleTypeId': -6428713935998715748, 'status': {'ignitionStatus': 'MID_JOURNEY'}}",31.785774,-106.506274,9tskb6,79902,TX,US,0.0,166.0,-6428713935998715748,{'ignitionStatus': 'MID_JOURNEY'}
cb3eda3a-b1f7-4049-a473-69b944664a52,bb5cb1f3b08f92b437de17c54a25118e2fae62ea,2021-10-26 13:53:01-06:00,"{'latitude': 31.782129, 'longitude': -106.506383, 'geohash': '9tskb3', 'postalCode': '79902', 'regionCode': 'TX', 'countryCode': 'US'}","{'speed': 0.0, 'heading': 175.0}","{'wejoVehicleTypeId': -5191932342276369765, 'status': {'ignitionStatus': 'MID_JOURNEY'}}",31.782129,-106.506383,9tskb3,79902,TX,US,0.0,175.0,-5191932342276369765,{'ignitionStatus': 'MID_JOURNEY'}
e6a92672-97bc-4905-bdba-e60cbd896942,a9426c70b904d85b69ef1cd1637a7cbd1342b19b,2021-10-26 13:17:07-06:00,"{'latitude': 31.783306, 'longitude': -106.505556, 'geohash': '9tskb3', 'postalCode': '79902', 'regionCode': 'TX', 'countryCode': 'US'}","{'speed': 76.03, 'heading': 166.0}","{'wejoVehicleTypeId': 4728445452002431639, 'status': {'ignitionStatus': 'MID_JOURNEY'}}",31.783306,-106.505556,9tskb3,79902,TX,US,76.03,166.0,4728445452002431639,{'ignitionStatus': 'MID_JOURNEY'}
f800d3e5-a103-4844-bfce-0291466f86aa,3c442578973a2efe20a98471df87b4f940c2a118,2021-10-26 13:06:54-06:00,"{'latitude': 31.784516, 'longitude': -106.506133, 'geohash': '9tskb6', 'postalCode': '79902', 'regionCode': 'TX', 'countryCode': 'US'}","{'speed': 0.0, 'heading': 72.0}","{'wejoVehicleTypeId': 8603920939059598987, 'status': {'ignitionStatus': 'MID_JOURNEY'}}",31.784516,-106.506133,9tskb6,79902,TX,US,0.0,72.0,8603920939059598987,{'ignitionStatus': 'MID_JOURNEY'}
fbb0d731-8018-4f6d-a206-a7df5d752c59,7404f218912f468760c400e9a9ac29aad6b7b9dc,2021-10-26 13:25:13-06:00,"{'latitude': 31.785519, 'longitude': -106.506143, 'geohash': '9tskb6', 'postalCode': '79902', 'regionCode': 'TX', 'countryCode': 'US'}","{'speed': 0.0, 'heading': 345.0}","{'wejoVehicleTypeId': -6428713935998715748, 'status': {'ignitionStatus': 'MID_JOURNEY'}}",31.785519,-106.506143,9tskb6,79902,TX,US,0.0,345.0,-6428713935998715748,{'ignitionStatus': 'MID_JOURNEY'}
03f0a155-a03a-4897-a281-6e923ff85f62,0f5252dd70f56e86f08bbd41d5821fefe1a1259d,2021-10-26 13:25:36-06:00,"{'latitude': 31.783666, 'longitude': -106.507085, 'geohash': '9tskb6', 'postalCode': '79902', 'regionCode': 'TX', 'countryCode': 'US'}","{'speed': 0.0, 'heading': 72.0}","{'wejoVehicleTypeId': 1559375648136069064, 'status': {'ignitionStatus': 'MID_JOURNEY'}}",31.783666,-106.507085,9tskb6,79902,TX,US,0.0,72.0,1559375648136069064,{'ignitionStatus': 'MID_JOURNEY'}
04a0e9be-84dc-4714-9555-fd98a9ba27d8,0f5252dd70f56e86f08bbd41d5821fefe1a1259d,2021-10-26 13:56:33-06:00,"{'latitude': 31.783666, 'longitude': -106.507085, 'geohash': '9tskb6', 'postalCode': '79902', 'regionCode': 'TX', 'countryCode': 'US'}","{'speed': 0.0, 'heading': 72.0}","{'wejoVehicleTypeId': 1559375648136069064, 'status': {'ignitionStatus': 'MID_JOURNEY'}}",31.783666,-106.507085,9tskb6,79902,TX,US,0.0,72.0,1559375648136069064,{'ignitionStatus': 'MID_JOURNEY'}
06444184-8766-4e7f-86be-fabe77a0e183,6f5858a6f8ac53db38231e7e7fe6f5f3ec1ece63,2021-10-26 13:33:23-06:00,"{'latitude': 31.782553, 'longitude': -106.505377, 'geohash': '9tskb3', 'postalCode': '79902', 'regionCode': 'TX', 'countryCode': 'US'}","{'speed': 23.04, 'heading': 325.0}","{'wejoVehicleTypeId': -8856306992092792876, 'status': {'ignitionStatus': 'MID_JOURNEY'}}",31.782553,-106.505377,9tskb3,79902,TX,US,23.04,325.0,-8856306992092792876,{'ignitionStatus': 'MID_JOURNEY'}
119a3290-0025-4117-99c8-fdb5869e7e00,df41d47040b829a751b6f037156324363dc91adb,2021-10-26 13:42:18-06:00,"{'latitude': 31.785501, 'longitude': -106.506451, 'geohash': '9tskb6', 'postalCode': '79902', 'regionCode': 'TX', 'countryCode': 'US'}","{'speed': 1.15, 'heading': 63.0}","{'wejoVehicleTypeId': 2982408891612750496, 'status': {'ignitionStatus': 'MID_JOURNEY'}}",31.785501,-106.506451,9tskb6,79902,TX,US,1.15,63.0,2982408891612750496,{'ignitionStatus': 'MID_JOURNEY'}
1c0ca560-2f99-4a9a-836a-7711784cf1ad,fc17233fdfe0b9c28688f939d163b723d2f2c4ed,2021-10-26 13:50:04-06:00,"{'latitude': 31.785092, 'longitude': -106.506124, 'geohash': '9tskb6', 'postalCode': '79902', 'regionCode': 'TX', 'countryCode': 'US'}","{'speed': 43.77, 'heading': 166.0}","{'wejoVehicleTypeId': -5855284742271387348, 'status': {'ignitionStatus': 'MID_JOURNEY'}}",31.785092,-106.506124,9tskb6,79902,TX,US,43.77,166.0,-5855284742271387348,{'ignitionStatus': 'MID_JOURNEY'}
20920aab-35ef-47b3-882b-f3a41e19be13,9643553b19017c6fc1ea46866a3519e688473f7a,2021-10-26 13:21:29-06:00,"{'latitude': 31.785375, 'longitude': -106.505957, 'geohash': '9tskb6', 'postalCode': '79902', 'regionCode': 'TX', 'countryCode': 'US'}","{'speed': 26.49, 'heading': 346.0}","{'wejoVehicleTypeId': -5770034493250993150, 'status': {'ignitionStatus': 'MID_JOURNEY'}}",31.785375,-106.505957,9tskb6,79902,TX,US,26.49,346.0,-5770034493250993150,{'ignitionStatus': 'MID_JOURNEY'}
2f41a730-fede-4b90-9c16-ce4d9243cb2c,a790f154906421142052702e3bc49aebfd0e1f21,2021-10-26 13:27:27-06:00,"{'latitude': 31.78563, 'longitude': -106.506246, 'geohash': '9tskb6', 'postalCode': '79902', 'regionCode': 'TX', 'countryCode': 'US'}","{'speed': 20.73, 'heading': 56.0}","{'wejoVehicleTypeId': -2244652964165601328, 'status': {'ignitionStatus': 'MID_JOURNEY'}}",31.78563,-106.506246,9tskb6,79902,TX,US,20.73,56.0,-2244652964165601328,{'ignitionStatus': 'MID_JOURNEY'}
378f3ea3-7490-48aa-b160-f36b2589ca60,94d0fb413f2f4e362b8cfd6216a4eb31eb9bb701,2021-10-26 13:19:04-06:00,"{'latitude': 31.785505, 'longitude': -106.506426, 'geohash': '9tskb6', 'postalCode': '79902', 'regionCode': 'TX', 'countryCode': 'US'}","{'speed': 0.0, 'heading': 63.0}","{'wejoVehicleTypeId': 2759209351481663111, 'status': {'ignitionStatus': 'MID_JOURNEY'}}",31.785505,-106.506426,9tskb6,79902,TX,US,0.0,63.0,2759209351481663111,{'ignitionStatus': 'MID_JOURNEY'}
477dce1e-1d80-430e-8aae-19bc5f8fd158,6b7786c930298bb5b1251a3c5ad60d37655097a2,2021-10-26 13:57:08-06:00,"{'latitude': 31.784488, 'longitude': -106.505783, 'geohash': '9tskb6', 'postalCode': '79902', 'regionCode': 'TX', 'countryCode': 'US'}","{'speed': 51.83, 'heading': 345.0}","{'wejoVehicleTypeId': -5202287729521290197, 'status': {'ignitionStatus': 'MID_JOURNEY'}}",31.784488,-106.505783,9tskb6,79902,TX,US,51.83,345.0,-5202287729521290197,{'ignitionStatus': 'MID_JOURNEY'}
4de6f004-6dfc-45f6-8107-36615f211e50,a3f14f4c2b37c7bf089cc19d61269054beb54062,2021-10-26 13:01:06-06:00,"{'latitude': 31.781927, 'longitude': -106.505376, 'geohash': '9tskb3', 'postalCode': '79902', 'regionCode': 'TX', 'countryCode': 'US'}","{'speed': 55.29, 'heading': 173.0}","{'wejoVehicleTypeId': -8856306992092792876, 'status': {'ignitionStatus': 'MID_JOURNEY'}}",31.781927,-106.505376,9tskb3,79902,TX,US,55.29,173.0,-8856306992092792876,{'ignitionStatus': 'MID_JOURNEY'}
58c5e647-d2e4-409b-b6e4-32d17f28282f,3c442578973a2efe20a98471df87b4f940c2a118,2021-10-26 13:07:41-06:00,"{'latitude': 31.784516, 'longitude': -106.506133, 'geohash': '9tskb6', 'postalCode': '79902', 'regionCode': 'TX', 'countryCode': 'US'}","{'speed': 0.0, 'heading': 72.0}","{'wejoVehicleTypeId': 8603920939059598987, 'status': {'ignitionStatus': 'MID_JOURNEY'}}",31.784516,-106.506133,9tskb6,79902,TX,US,0.0,72.0,8603920939059598987,{'ignitionStatus': 'MID_JOURNEY'}
663d7961-3b8d-4721-b98e-6485bebe43d1,ee110d83758e3738bc6e78cd927e4866e140aa2e,2021-10-26 13:21:28-06:00,"{'latitude': 31.785096, 'longitude': -106.505923, 'geohash': '9tskb6', 'postalCode': '79902', 'regionCode': 'TX', 'countryCode': 'US'}","{'speed': 36.86, 'heading': 346.0}","{'wejoVehicleTypeId': 5326235730196300636, 'status': {'ignitionStatus': 'MID_JOURNEY'}}",31.785096,-106.505923,9tskb6,79902,TX,US,36.86,346.0,5326235730196300636,{'ignitionStatus': 'MID_JOURNEY'}
6641791c-557a-4f82-abbc-f6239fe57c10,21adec369212b4eb4531b9eea5e993562e980b51,2021-10-26 13:49:06-06:00,"{'latitude': 31.784795, 'longitude': -106.506204, 'geohash': '9tskb6', 'postalCode': '79902', 'regionCode': 'TX', 'countryCode': 'US'}","{'speed': 6.91, 'heading': 74.0}","{'wejoVehicleTypeId': 7682339952434875459, 'status': {'ignitionStatus': 'MID_JOURNEY'}}",31.784795,-106.506204,9tskb6,79902,TX,US,6.91,74.0,7682339952434875459,{'ignitionStatus': 'MID_JOURNEY'}
67e0f592-d35d-493d-87bc-6ee979407bd9,0f5252dd70f56e86f08bbd41d5821fefe1a1259d,2021-10-26 13:34:30-06:00,"{'latitude': 31.783666, 'longitude': -106.507085, 'geohash': '9tskb6', 'postalCode': '79902', 'regionCode': 'TX', 'countryCode': 'US'}","{'speed': 0.0, 'heading': 72.0}","{'wejoVehicleTypeId': 1559375648136069064, 'status': {'ignitionStatus': 'MID_JOURNEY'}}",31.783666,-106.507085,9tskb6,79902,TX,US,0.0,72.0,1559375648136069064,{'ignitionStatus': 'MID_JOURNEY'}
69396fe7-dc66-4594-92e7-5f1675bfea4a,00aa445a1e000917616c89e99c930a1518a8cc9c,2021-10-26 13:40:10-06:00,"{'latitude': 31.785521, 'longitude': -106.506482, 'geohash': '9tskb6', 'postalCode': '79902', 'regionCode': 'TX', 'countryCode': 'US'}","{'speed': 1.15, 'heading': 62.0}","{'wejoVehicleTypeId': 2890954762552801783, 'status': {'ignitionStatus': 'MID_JOURNEY'}}",31.785521,-106.506482,9tskb6,79902,TX,US,1.15,62.0,2890954762552801783,{'ignitionStatus': 'MID_JOURNEY'}
69eebc99-eea3-4838-868c-0c84b72f2389,bb5cb1f3b08f92b437de17c54a25118e2fae62ea,2021-10-26 13:52:40-06:00,"{'latitude': 31.782129, 'longitude': -106.506383, 'geohash': '9tskb3', 'postalCode': '79902', 'regionCode': 'TX', 'countryCode': 'US'}","{'speed': 0.0, 'heading': 175.0}","{'wejoVehicleTypeId': -5191932342276369765, 'status': {'ignitionStatus': 'MID_JOURNEY'}}",31.782129,-106.506383,9tskb3,79902,TX,US,0.0,175.0,-5191932342276369765,{'ignitionStatus': 'MID_JOURNEY'}
6d4520b5-3b08-48d1-86d9-c36be8b20a16,0f5252dd70f56e86f08bbd41d5821fefe1a1259d,2021-10-26 13:32:33-06:00,"{'latitude': 31.783666, 'longitude': -106.507085, 'geohash': '9tskb6', 'postalCode': '79902', 'regionCode': 'TX', 'countryCode': 'US'}","{'speed': 0.0, 'heading': 72.0}","{'wejoVehicleTypeId': 1559375648136069064, 'status': {'ignitionStatus': 'MID_JOURNEY'}}",31.783666,-106.507085,9tskb6,79902,TX,US,0.0,72.0,1559375648136069064,{'ignitionStatus': 'MID_JOURNEY'}
819da379-07d6-4785-bf90-b470f8245f30,3c442578973a2efe20a98471df87b4f940c2a118,2021-10-26 13:12:11-06:00,"{'latitude': 31.784516, 'longitude': -106.506133, 'geohash': '9tskb6', 'postalCode': '79902', 'regionCode': 'TX', 'countryCode': 'US'}","{'speed': 0.0, 'heading': 72.0}","{'wejoVehicleTypeId': 8603920939059598987, 'status': {'ignitionStatus': 'MID_JOURNEY'}}",31.784516,-106.506133,9tskb6,79902,TX,US,0.0,72.0,8603920939059598987,{'ignitionStatus': 'MID_JOURNEY'}
827fdd50-8097-431f-9e3d-c54d9a532d71,21adec369212b4eb4531b9eea5e993562e980b51,2021-10-26 13:48:30-06:00,"{'latitude': 31.784734, 'longitude': -106.506508, 'geohash': '9tskb6', 'postalCode': '79902', 'regionCode': 'TX', 'countryCode': 'US'}","{'speed': 0.0, 'heading': 72.0}","{'wejoVehicleTypeId': 7682339952434875459, 'status': {'ignitionStatus': 'MID_JOURNEY'}}",31.784734,-106.506508,9tskb6,79902,TX,US,0.0,72.0,7682339952434875459,{'ignitionStatus': 'MID_JOURNEY'}
85be02bc-9836-4e86-aee8-2815a314e654,3c442578973a2efe20a98471df87b4f940c2a118,2021-10-26 13:07:59-06:00,"{'latitude': 31.784516, 'longitude': -106.506133, 'geohash': '9tskb6', 'postalCode': '79902', 'regionCode': 'TX', 'countryCode': 'US'}","{'speed': 0.0, 'heading': 72.0}","{'wejoVehicleTypeId': 8603920939059598987, 'status': {'ignitionStatus': 'MID_JOURNEY'}}",31.784516,-106.506133,9tskb6,79902,TX,US,0.0,72.0,8603920939059598987,{'ignitionStatus': 'MID_JOURNEY'}
8a9f3067-0cea-4f16-abb9-c18338ee2ce8,bb5cb1f3b08f92b437de17c54a25118e2fae62ea,2021-10-26 13:55:43-06:00,"{'latitude': 31.782129, 'longitude': -106.506383, 'geohash': '9tskb3', 'postalCode': '79902', 'regionCode': 'TX', 'countryCode': 'US'}","{'speed': 0.0, 'heading': 175.0}","{'wejoVehicleTypeId': -5191932342276369765, 'status': {'ignitionStatus': 'MID_JOURNEY'}}",31.782129,-106.506383,9tskb3,79902,TX,US,0.0,175.0,-5191932342276369765,{'ignitionStatus': 'MID_JOURNEY'}
8dec0541-7871-4e50-bfef-411acd17d06d,51dfa58d83088c36efc3ab260828ff15d08eea2a,2021-10-26 13:50:25-06:00,"{'latitude': 31.782733, 'longitude': -106.505449, 'geohash': '9tskb3', 'postalCode': '79902', 'regionCode': 'TX', 'countryCode': 'US'}","{'speed': 55.29, 'heading': 169.0}","{'wejoVehicleTypeId': -7364997604673476781, 'status': {'ignitionStatus': 'MID_JOURNEY'}}",31.782733,-106.505449,9tskb3,79902,TX,US,55.29,169.0,-7364997604673476781,{'ignitionStatus': 'MID_JOURNEY'}
8f9f81ad-22e0-4106-9bba-40865325458e,2a16bfd780bae617679634ff3a92b13f4dbf814b,2021-10-26 13:09:57-06:00,"{'latitude': 31.783816, 'longitude': -106.505527, 'geohash': '9tskb6', 'postalCode': '79902', 'regionCode': 'TX', 'countryCode': 'US'}","{'speed': 66.81, 'heading': 346.0}","{'wejoVehicleTypeId': 5479228709399282452, 'status': {'ignitionStatus': 'MID_JOURNEY'}}",31.783816,-106.505527,9tskb6,79902,TX,US,66.81,346.0,5479228709399282452,{'ignitionStatus': 'MID_JOURNEY'}
987450c3-0bcc-4b14-b839-c913f332bf64,0f5252dd70f56e86f08bbd41d5821fefe1a1259d,2021-10-26 13:28:00-06:00,"{'latitude': 31.783666, 'longitude': -106.507085, 'geohash': '9tskb6', 'postalCode': '79902', 'regionCode': 'TX', 'countryCode': 'US'}","{'speed': 0.0, 'heading': 72.0}","{'wejoVehicleTypeId': 1559375648136069064, 'status': {'ignitionStatus': 'MID_JOURNEY'}}",31.783666,-106.507085,9tskb6,79902,TX,US,0.0,72.0,1559375648136069064,{'ignitionStatus': 'MID_JOURNEY'}
bff8a226-6ed8-40a1-b25d-881fa3188894,0f5252dd70f56e86f08bbd41d5821fefe1a1259d,2021-10-26 13:18:42-06:00,"{'latitude': 31.783666, 'longitude': -106.507085, 'geohash': '9tskb6', 'postalCode': '79902', 'regionCode': 'TX', 'countryCode': 'US'}","{'speed': 0.0, 'heading': 72.0}","{'wejoVehicleTypeId': 1559375648136069064, 'status': {'ignitionStatus': 'MID_JOURNEY'}}",31.783666,-106.507085,9tskb6,79902,TX,US,0.0,72.0,1559375648136069064,{'ignitionStatus': 'MID_JOURNEY'}
c1c01f89-383c-4a16-8f2f-e4e0cec71d68,b35b4258aa5ef4f2bdc4102401667a4137e3166c,2021-10-26 13:27:27-06:00,"{'latitude': 31.784898, 'longitude': -106.507295, 'geohash': '9tskb6', 'postalCode': '79902', 'regionCode': 'TX', 'countryCode': 'US'}","{'speed': 13.82, 'heading': 316.0}","{'wejoVehicleTypeId': 4854097699743449313, 'status': {'ignitionStatus': 'MID_JOURNEY'}}",31.784898,-106.507295,9tskb6,79902,TX,US,13.82,316.0,4854097699743449313,{'ignitionStatus': 'MID_JOURNEY'}
cef8fd90-b68a-458b-95bd-98354a61d111,3c442578973a2efe20a98471df87b4f940c2a118,2021-10-26 13:12:26-06:00,"{'latitude': 31.784516, 'longitude': -106.506133, 'geohash': '9tskb6', 'postalCode': '79902', 'regionCode': 'TX', 'countryCode': 'US'}","{'speed': 0.0, 'heading': 72.0}","{'wejoVehicleTypeId': 8603920939059598987, 'status': {'ignitionStatus': 'MID_JOURNEY'}}",31.784516,-106.506133,9tskb6,79902,TX,US,0.0,72.0,8603920939059598987,{'ignitionStatus': 'MID_JOURNEY'}
d1194f8a-0f7f-4b20-baa5-24dba9096f18,811d360489a8b066039984e59d29160599e48656,2021-10-26 13:01:00-06:00,"{'latitude': 31.784956, 'longitude': -106.506429, 'geohash': '9tskb6', 'postalCode': '79902', 'regionCode': 'TX', 'countryCode': 'US'}","{'speed': 0.0, 'heading': 343.0}","{'wejoVehicleTypeId': -8735686858431946495, 'status': {'ignitionStatus': 'MID_JOURNEY'}}",31.784956,-106.506429,9tskb6,79902,TX,US,0.0,343.0,-8735686858431946495,{'ignitionStatus': 'MID_JOURNEY'}
dfa97268-296f-4900-9609-47d7c1425262,f4e3666371a4ef6e6686182b98ea0e219f2cef71,2021-10-26 13:49:06-06:00,"{'latitude': 31.784442, 'longitude': -106.505766, 'geohash': '9tskb6', 'postalCode': '79902', 'regionCode': 'TX', 'countryCode': 'US'}","{'speed': 74.88, 'heading': 345.0}","{'wejoVehicleTypeId': 7511110719808102778, 'status': {'ignitionStatus': 'MID_JOURNEY'}}",31.784442,-106.505766,9tskb6,79902,TX,US,74.88,345.0,7511110719808102778,{'ignitionStatus': 'MID_JOURNEY'}
f9796401-f28e-4458-80ba-eb37ea89f822,0f5252dd70f56e86f08bbd41d5821fefe1a1259d,2021-10-26 13:34:48-06:00,"{'latitude': 31.783666, 'longitude': -106.507085, 'geohash': '9tskb6', 'postalCode': '79902', 'regionCode': 'TX', 'countryCode': 'US'}","{'speed': 0.0, 'heading': 72.0}","{'wejoVehicleTypeId': 1559375648136069064, 'status': {'ignitionStatus': 'MID_JOURNEY'}}",31.783666,-106.507085,9tskb6,79902,TX,US,0.0,72.0,1559375648136069064,{'ignitionStatus': 'MID_JOURNEY'}
06c83de5-1e6e-4c54-bbf7-5dd4c72f1d89,1f958c84c82117a581bf26307c754e364398515b,2021-11-02 13:57:03-06:00,"{'latitude': 31.784891, 'longitude': -106.505868, 'geohash': '9tskb6', 'postalCode': '79902', 'regionCode': 'TX', 'countryCode': 'US'}","{'speed': 59.9, 'heading': 345.0}","{'wejoVehicleTypeId': -6375098658616624329, 'status': {'ignitionStatus': 'MID_JOURNEY'}}",31.784891,-106.505868,9tskb6,79902,TX,US,59.9,345.0,-6375098658616624329,{'ignitionStatus': 'MID_JOURNEY'}
1af14661-e240-4d57-98f0-b9f8203b629b,72803445606e6bc8a0411906d4569c4fa2a1877f,2021-11-02 13:04:53-06:00,"{'latitude': 31.783233, 'longitude': -106.506312, 'geohash': '9tskb3', 'postalCode': '79902', 'regionCode': 'TX', 'countryCode': 'US'}","{'speed': 16.12, 'heading': 9.0}","{'wejoVehicleTypeId': -565109897161390376, 'status': {'ignitionStatus': 'MID_JOURNEY'}}",31.783233,-106.506312,9tskb3,79902,TX,US,16.12,9.0,-565109897161390376,{'ignitionStatus': 'MID_JOURNEY'}
30a8c3e0-61e0-438d-b11e-d43ede4e76c2,72803445606e6bc8a0411906d4569c4fa2a1877f,2021-11-02 13:04:26-06:00,"{'latitude': 31.78267, 'longitude': -106.506781, 'geohash': '9tskb3', 'postalCode': '79902', 'regionCode': 'TX', 'countryCode': 'US'}","{'speed': 9.21, 'heading': 89.0}","{'wejoVehicleTypeId': -565109897161390376, 'status': {'ignitionStatus': 'MID_JOURNEY'}}",31.78267,-106.506781,9tskb3,79902,TX,US,9.21,89.0,-565109897161390376,{'ignitionStatus': 'MID_JOURNEY'}
53172574-0e3c-49da-a13c-0aa05d309800,ae2c5144d3bc591044672bbd99c069e6fc64deab,2021-11-02 13:30:58-06:00,"{'latitude': 31.782429, 'longitude': -106.506132, 'geohash': '9tskb3', 'postalCode': '79902', 'regionCode': 'TX', 'countryCode': 'US'}","{'speed': 0.0, 'heading': 353.0}","{'wejoVehicleTypeId': -345822443061872740, 'status': {'ignitionStatus': 'MID_JOURNEY'}}",31.782429,-106.506132,9tskb3,79902,TX,US,0.0,353.0,-345822443061872740,{'ignitionStatus': 'MID_JOURNEY'}
700a1777-f13c-4585-a66b-d7cdca996b8c,ae2c5144d3bc591044672bbd99c069e6fc64deab,2021-11-02 13:28:28-06:00,"{'latitude': 31.782429, 'longitude': -106.506132, 'geohash': '9tskb3', 'postalCode': '79902', 'regionCode': 'TX', 'countryCode': 'US'}","{'speed': 0.0, 'heading': 353.0}","{'wejoVehicleTypeId': -345822443061872740, 'status': {'ignitionStatus': 'MID_JOURNEY'}}",31.782429,-106.506132,9tskb3,79902,TX,US,0.0,353.0,-345822443061872740,{'ignitionStatus': 'MID_JOURNEY'}
70708ac1-c3bc-477b-91b7-1fe686259d11,ae2c5144d3bc591044672bbd99c069e6fc64deab,2021-11-02 13:30:01-06:00,"{'latitude': 31.782429, 'longitude': -106.506132, 'geohash': '9tskb3', 'postalCode': '79902', 'regionCode': 'TX', 'countryCode': 'US'}","{'speed': 0.0, 'heading': 353.0}","{'wejoVehicleTypeId': -345822443061872740, 'status': {'ignitionStatus': 'MID_JOURNEY'}}",31.782429,-106.506132,9tskb3,79902,TX,US,0.0,353.0,-345822443061872740,{'ignitionStatus': 'MID_JOURNEY'}
71229eff-cf29-4824-9339-a7e1d2c824be,ae2c5144d3bc591044672bbd99c069e6fc64deab,2021-11-02 13:24:25-06:00,"{'latitude': 31.782429, 'longitude': -106.506132, 'geohash': '9tskb3', 'postalCode': '79902', 'regionCode': 'TX', 'countryCode': 'US'}","{'speed': 0.0, 'heading': 353.0}","{'wejoVehicleTypeId': -345822443061872740, 'status': {'ignitionStatus': 'MID_JOURNEY'}}",31.782429,-106.506132,9tskb3,79902,TX,US,0.0,353.0,-345822443061872740,{'ignitionStatus': 'MID_JOURNEY'}
7b54421b-3e5b-4927-8fd3-db608e1a8947,ae2c5144d3bc591044672bbd99c069e6fc64deab,2021-11-02 13:34:58-06:00,"{'latitude': 31.782429, 'longitude': -106.506132, 'geohash': '9tskb3', 'postalCode': '79902', 'regionCode': 'TX', 'countryCode': 'US'}","{'speed': 0.0, 'heading': 353.0}","{'wejoVehicleTypeId': -345822443061872740, 'status': {'ignitionStatus': 'MID_JOURNEY'}}",31.782429,-106.506132,9tskb3,79902,TX,US,0.0,353.0,-345822443061872740,{'ignitionStatus': 'MID_JOURNEY'}
823d6f2e-ba3d-4c98-b7e0-5d96e88d8b9c,0e40a37ea87ed545d62a8e42e997bfacd5a6d89e,2021-11-02 13:35:13-06:00,"{'latitude': 31.782225, 'longitude': -106.505385, 'geohash': '9tskb3', 'postalCode': '79902', 'regionCode': 'TX', 'countryCode': 'US'}","{'speed': 55.29, 'heading': 172.0}","{'wejoVehicleTypeId': 412781937144978318, 'status': {'ignitionStatus': 'MID_JOURNEY'}}",31.782225,-106.505385,9tskb3,79902,TX,US,55.29,172.0,412781937144978318,{'ignitionStatus': 'MID_JOURNEY'}
8d94da73-6fc9-49c0-a049-d0a16e740444,2a12161cf42ff6819a309c067f49a85cc13a4142,2021-11-02 13:52:52-06:00,"{'latitude': 31.785378, 'longitude': -106.506056, 'geohash': '9tskb6', 'postalCode': '79902', 'regionCode': 'TX', 'countryCode': 'US'}","{'speed': 69.11, 'heading': 347.0}","{'wejoVehicleTypeId': -836497562990380809, 'status': {'ignitionStatus': 'MID_JOURNEY'}}",31.785378,-106.506056,9tskb6,79902,TX,US,69.11,347.0,-836497562990380809,{'ignitionStatus': 'MID_JOURNEY'}
a43eedb4-3044-4665-a6e4-8005ed7f1397,194e882a441c154581c77a222e7483631d84eed2,2021-11-02 13:51:24-06:00,"{'latitude': 31.784715, 'longitude': -106.50688, 'geohash': '9tskb6', 'postalCode': '79902', 'regionCode': 'TX', 'countryCode': 'US'}","{'speed': 4.6, 'heading': 156.0}","{'wejoVehicleTypeId': -6042628273181326410, 'status': {'ignitionStatus': 'MID_JOURNEY'}}",31.784715,-106.50688,9tskb6,79902,TX,US,4.6,156.0,-6042628273181326410,{'ignitionStatus': 'MID_JOURNEY'}
aaa4ceb4-793c-4b19-bdf0-31ef47222b12,ec974ae2a1518be4c62403d3d6e5015af50ca556,2021-11-02 13:20:03-06:00,"{'latitude': 31.783856, 'longitude': -106.507478, 'geohash': '9tskb6', 'postalCode': '79902', 'regionCode': 'TX', 'countryCode': 'US'}","{'speed': 50.68, 'heading': 169.0}","{'wejoVehicleTypeId': 4427167167115703432, 'status': {'ignitionStatus': 'MID_JOURNEY'}}",31.783856,-106.507478,9tskb6,79902,TX,US,50.68,169.0,4427167167115703432,{'ignitionStatus': 'MID_JOURNEY'}
ae7bf5af-96d6-4e22-a219-5e6a00cdbcba,3e9455c7d8487f8186a6995c3df426f18162700d,2021-11-02 13:26:48-06:00,"{'latitude': 31.785725, 'longitude': -106.50594, 'geohash': '9tskb6', 'postalCode': '79902', 'regionCode': 'TX', 'countryCode': 'US'}","{'speed': 0.0, 'heading': 251.0}","{'wejoVehicleTypeId': 7256565410767058662, 'status': {'ignitionStatus': 'MID_JOURNEY'}}",31.785725,-106.50594,9tskb6,79902,TX,US,0.0,251.0,7256565410767058662,{'ignitionStatus': 'MID_JOURNEY'}
b724e443-3893-48a4-aeab-8501d15888fd,d9fb7f92c7e2264aa16714fba0e1b5e3e3800a35,2021-11-02 13:49:29-06:00,"{'latitude': 31.784636, 'longitude': -106.50598, 'geohash': '9tskb6', 'postalCode': '79902', 'regionCode': 'TX', 'countryCode': 'US'}","{'speed': 49.53, 'heading': 166.0}","{'wejoVehicleTypeId': -8856306992092792876, 'status': {'ignitionStatus': 'MID_JOURNEY'}}",31.784636,-106.50598,9tskb6,79902,TX,US,49.53,166.0,-8856306992092792876,{'ignitionStatus': 'MID_JOURNEY'}
fc6811b5-c953-4591-ac1d-a22b633fb603,ae2c5144d3bc591044672bbd99c069e6fc64deab,2021-11-02 13:47:46-06:00,"{'latitude': 31.782429, 'longitude': -106.506132, 'geohash': '9tskb3', 'postalCode': '79902', 'regionCode': 'TX', 'countryCode': 'US'}","{'speed': 0.0, 'heading': 353.0}","{'wejoVehicleTypeId': -345822443061872740, 'status': {'ignitionStatus': 'MID_JOURNEY'}}",31.782429,-106.506132,9tskb3,79902,TX,US,0.0,353.0,-345822443061872740,{'ignitionStatus': 'MID_JOURNEY'}
0eb7b51c-a759-45f6-8f69-eba35d82e194,0032307397e5aa0cca94a587a37936d60552cbc0,2021-11-02 13:50:41-06:00,"{'latitude': 31.782731, 'longitude': -106.505361, 'geohash': '9tskb3', 'postalCode': '79902', 'regionCode': 'TX', 'countryCode': 'US'}","{'speed': 63.35, 'heading': 349.0}","{'wejoVehicleTypeId': 7296114687783352916, 'status': {'ignitionStatus': 'MID_JOURNEY'}}",31.782731,-106.505361,9tskb3,79902,TX,US,63.35,349.0,7296114687783352916,{'ignitionStatus': 'MID_JOURNEY'}
3cd0577d-3b8c-48e4-908e-68208a0f6e39,fcfcdc194c1969f5989d3fda5259ccb7710fc7c7,2021-11-02 13:13:58-06:00,"{'latitude': 31.785213, 'longitude': -106.505956, 'geohash': '9tskb6', 'postalCode': '79902', 'regionCode': 'TX', 'countryCode': 'US'}","{'speed': 73.72, 'heading': 346.0}","{'wejoVehicleTypeId': 4316525759685416732, 'status': {'ignitionStatus': 'MID_JOURNEY'}}",31.785213,-106.505956,9tskb6,79902,TX,US,73.72,346.0,4316525759685416732,{'ignitionStatus': 'MID_JOURNEY'}
4f8c37eb-a50d-4ec8-85fd-c073610afe25,9028ff8d8cde9ef5656b0721e4f0ed0fee539115,2021-11-02 13:51:05-06:00,"{'latitude': 31.782702, 'longitude': -106.505505, 'geohash': '9tskb3', 'postalCode': '79902', 'regionCode': 'TX', 'countryCode': 'US'}","{'speed': 58.75, 'heading': 169.0}","{'wejoVehicleTypeId': -6428713935998715748, 'status': {'ignitionStatus': 'MID_JOURNEY'}}",31.782702,-106.505505,9tskb3,79902,TX,US,58.75,169.0,-6428713935998715748,{'ignitionStatus': 'MID_JOURNEY'}
5d98723a-dfc0-420a-b025-4d1f4cc933c2,ae2c5144d3bc591044672bbd99c069e6fc64deab,2021-11-02 13:35:31-06:00,"{'latitude': 31.782429, 'longitude': -106.506132, 'geohash': '9tskb3', 'postalCode': '79902', 'regionCode': 'TX', 'countryCode': 'US'}","{'speed': 0.0, 'heading': 353.0}","{'wejoVehicleTypeId': -345822443061872740, 'status': {'ignitionStatus': 'MID_JOURNEY'}}",31.782429,-106.506132,9tskb3,79902,TX,US,0.0,353.0,-345822443061872740,{'ignitionStatus': 'MID_JOURNEY'}
63007bed-4d7d-42f9-b271-d0d032746354,72803445606e6bc8a0411906d4569c4fa2a1877f,2021-11-02 13:04:11-06:00,"{'latitude': 31.782666, 'longitude': -106.50693, 'geohash': '9tskb3', 'postalCode': '79902', 'regionCode': 'TX', 'countryCode': 'US'}","{'speed': 0.0, 'heading': 85.0}","{'wejoVehicleTypeId': -565109897161390376, 'status': {'ignitionStatus': 'MID_JOURNEY'}}",31.782666,-106.50693,9tskb3,79902,TX,US,0.0,85.0,-565109897161390376,{'ignitionStatus': 'MID_JOURNEY'}
895962fb-985a-49e4-a9f4-464bd7f753de,194e882a441c154581c77a222e7483631d84eed2,2021-11-02 13:53:45-06:00,"{'latitude': 31.784693, 'longitude': -106.506752, 'geohash': '9tskb6', 'postalCode': '79902', 'regionCode': 'TX', 'countryCode': 'US'}","{'speed': 5.76, 'heading': 74.0}","{'wejoVehicleTypeId': -6042628273181326410, 'status': {'ignitionStatus': 'MID_JOURNEY'}}",31.784693,-106.506752,9tskb6,79902,TX,US,5.76,74.0,-6042628273181326410,{'ignitionStatus': 'MID_JOURNEY'}
b60b74a0-f594-48fa-b671-76689460cfb7,ae2c5144d3bc591044672bbd99c069e6fc64deab,2021-11-02 13:27:22-06:00,"{'latitude': 31.782429, 'longitude': -106.506132, 'geohash': '9tskb3', 'postalCode': '79902', 'regionCode': 'TX', 'countryCode': 'US'}","{'speed': 0.0, 'heading': 353.0}","{'wejoVehicleTypeId': -345822443061872740, 'status': {'ignitionStatus': 'MID_JOURNEY'}}",31.782429,-106.506132,9tskb3,79902,TX,US,0.0,353.0,-345822443061872740,{'ignitionStatus': 'MID_JOURNEY'}
c3833532-ed67-4733-b45d-847a74cf971d,3f61d38aceb894b3051b4e4a6fa7fac9f61317dd,2021-11-02 13:15:44-06:00,"{'latitude': 31.785779, 'longitude': -106.506338, 'geohash': '9tskb6', 'postalCode': '79902', 'regionCode': 'TX', 'countryCode': 'US'}","{'speed': 0.0, 'heading': 165.0}","{'wejoVehicleTypeId': -3598454913492553382, 'status': {'ignitionStatus': 'MID_JOURNEY'}}",31.785779,-106.506338,9tskb6,79902,TX,US,0.0,165.0,-3598454913492553382,{'ignitionStatus': 'MID_JOURNEY'}
de6c9b12-c5a4-420b-b2a3-1aa69cc8390e,f7ca2c454946211c5094eaa4e7bf352349201672,2021-11-02 13:49:18-06:00,"{'latitude': 31.782023, 'longitude': -106.505351, 'geohash': '9tskb3', 'postalCode': '79902', 'regionCode': 'TX', 'countryCode': 'US'}","{'speed': 65.66, 'heading': 174.0}","{'wejoVehicleTypeId': 2445953904171465897, 'status': {'ignitionStatus': 'MID_JOURNEY'}}",31.782023,-106.505351,9tskb3,79902,TX,US,65.66,174.0,2445953904171465897,{'ignitionStatus': 'MID_JOURNEY'}
e8ac3559-4343-4491-9de6-2b37dce9672e,72803445606e6bc8a0411906d4569c4fa2a1877f,2021-11-02 13:02:38-06:00,"{'latitude': 31.782695, 'longitude': -106.507019, 'geohash': '9tskb3', 'postalCode': '79902', 'regionCode': 'TX', 'countryCode': 'US'}","{'speed': 0.0, 'heading': 131.0}","{'wejoVehicleTypeId': -565109897161390376, 'status': {'ignitionStatus': 'MID_JOURNEY'}}",31.782695,-106.507019,9tskb3,79902,TX,US,0.0,131.0,-565109897161390376,{'ignitionStatus': 'MID_JOURNEY'}
371b11f9-3040-49c7-8309-68b137a06ecb,233a7ed8af2f1067b15f7fe3a179b706974978e2,2021-11-19 12:49:23-07:00,"{'latitude': 31.784601, 'longitude': -106.50596, 'geohash': '9tskb6', 'postalCode': '79902', 'regionCode': 'TX', 'countryCode': 'US'}","{'speed': 28.79, 'heading': 166.0}","{'wejoVehicleTypeId': 4937768443193831845, 'status': {'ignitionStatus': 'MID_JOURNEY'}}",31.784601,-106.50596,9tskb6,79902,TX,US,28.79,166.0,4937768443193831845,{'ignitionStatus': 'MID_JOURNEY'}
4fff123d-e370-43f3-8a58-8350c232127d,eec8d3f6739fe0264f098712fcdfbcc9da29b6c5,2021-11-19 12:44:19-07:00,"{'latitude': 31.785041, 'longitude': -106.506133, 'geohash': '9tskb6', 'postalCode': '79902', 'regionCode': 'TX', 'countryCode': 'US'}","{'speed': 55.29, 'heading': 166.0}","{'wejoVehicleTypeId': 5840964419435185967, 'status': {'ignitionStatus': 'MID_JOURNEY'}}",31.785041,-106.506133,9tskb6,79902,TX,US,55.29,166.0,5840964419435185967,{'ignitionStatus': 'MID_JOURNEY'}
6aab832e-5556-4572-bd25-e1243f3341df,11af4708e973ee878be762f23e6464998c1e4899,2021-11-19 12:49:57-07:00,"{'latitude': 31.78324, 'longitude': -106.507721, 'geohash': '9tskb3', 'postalCode': '79902', 'regionCode': 'TX', 'countryCode': 'US'}","{'speed': 31.1, 'heading': 69.0}","{'wejoVehicleTypeId': -6228348484068078583, 'status': {'ignitionStatus': 'MID_JOURNEY'}}",31.78324,-106.507721,9tskb3,79902,TX,US,31.1,69.0,-6228348484068078583,{'ignitionStatus': 'MID_JOURNEY'}
e28dea1f-f581-43c1-ada6-95087e7ce3e2,98129c8bc09b976474c3eb0c7d2535113e046a65,2021-11-19 12:55:59-07:00,"{'latitude': 31.783209, 'longitude': -106.506367, 'geohash': '9tskb3', 'postalCode': '79902', 'regionCode': 'TX', 'countryCode': 'US'}","{'speed': 0.0, 'heading': 356.0}","{'wejoVehicleTypeId': -6990580732108160032, 'status': {'ignitionStatus': 'MID_JOURNEY'}}",31.783209,-106.506367,9tskb3,79902,TX,US,0.0,356.0,-6990580732108160032,{'ignitionStatus': 'MID_JOURNEY'}
f3f36f45-cbd1-484c-ab6e-3d5c3a42e2e4,56885cfa1f1b3c6879f3ad4631ed5c7ededa7b01,2021-11-19 12:37:28-07:00,"{'latitude': 31.783037, 'longitude': -106.50534, 'geohash': '9tskb3', 'postalCode': '79902', 'regionCode': 'TX', 'countryCode': 'US'}","{'speed': 62.2, 'heading': 347.0}","{'wejoVehicleTypeId': 2005109438996634144, 'status': {'ignitionStatus': 'MID_JOURNEY'}}",31.783037,-106.50534,9tskb3,79902,TX,US,62.2,347.0,2005109438996634144,{'ignitionStatus': 'MID_JOURNEY'}
66db018b-4b3d-47fa-99d7-ac023447b945,bc702195cdb4c6b440701979125c4fe99004b760,2021-11-05 13:23:31-06:00,"{'latitude': 31.785399, 'longitude': -106.505858, 'geohash': '9tskb6', 'postalCode': '79902', 'regionCode': 'TX', 'countryCode': 'US'}","{'speed': 0.0, 'heading': 58.0}","{'wejoVehicleTypeId': 235495832604841687, 'status': {'ignitionStatus': 'MID_JOURNEY'}}",31.785399,-106.505858,9tskb6,79902,TX,US,0.0,58.0,235495832604841687,{'ignitionStatus': 'MID_JOURNEY'}
a20a0957-a7c3-4289-8c6b-bd3619984292,b3d6b0e6a2ce1f2c525b3ae713ad3f63ed09e09a,2021-11-05 13:39:20-06:00,"{'latitude': 31.782257, 'longitude': -106.50597, 'geohash': '9tskb3', 'postalCode': '79902', 'regionCode': 'TX', 'countryCode': 'US'}","{'speed': 0.0, 'heading': 177.0}","{'wejoVehicleTypeId': 617094543127239714, 'status': {'ignitionStatus': 'MID_JOURNEY'}}",31.782257,-106.50597,9tskb3,79902,TX,US,0.0,177.0,617094543127239714,{'ignitionStatus': 'MID_JOURNEY'}
bd404851-599a-49b2-85b0-d47c433d8a44,982310ce05e89c39e2a7af7b478d29609116bfb4,2021-11-05 13:46:08-06:00,"{'latitude': 31.784314, 'longitude': -106.507485, 'geohash': '9tskb6', 'postalCode': '79902', 'regionCode': 'TX', 'countryCode': 'US'}","{'speed': 31.1, 'heading': 8.0}","{'wejoVehicleTypeId': 4427167167115703432, 'status': {'ignitionStatus': 'MID_JOURNEY'}}",31.784314,-106.507485,9tskb6,79902,TX,US,31.1,8.0,4427167167115703432,{'ignitionStatus': 'MID_JOURNEY'}
d45fde8d-9a03-448b-a469-21139df57420,b3d6b0e6a2ce1f2c525b3ae713ad3f63ed09e09a,2021-11-05 13:33:41-06:00,"{'latitude': 31.782257, 'longitude': -106.50597, 'geohash': '9tskb3', 'postalCode': '79902', 'regionCode': 'TX', 'countryCode': 'US'}","{'speed': 0.0, 'heading': 177.0}","{'wejoVehicleTypeId': 617094543127239714, 'status': {'ignitionStatus': 'MID_JOURNEY'}}",31.782257,-106.50597,9tskb3,79902,TX,US,0.0,177.0,617094543127239714,{'ignitionStatus': 'MID_JOURNEY'}
ee9a4719-95fb-45c6-b91a-1f496e8c47c9,b3d6b0e6a2ce1f2c525b3ae713ad3f63ed09e09a,2021-11-05 13:59:08-06:00,"{'latitude': 31.782257, 'longitude': -106.50597, 'geohash': '9tskb3', 'postalCode': '79902', 'regionCode': 'TX', 'countryCode': 'US'}","{'speed': 0.0, 'heading': 177.0}","{'wejoVehicleTypeId': 617094543127239714, 'status': {'ignitionStatus': 'MID_JOURNEY'}}",31.782257,-106.50597,9tskb3,79902,TX,US,0.0,177.0,617094543127239714,{'ignitionStatus': 'MID_JOURNEY'}
fb86054e-238c-4482-8072-4ee0c1fc94f3,982310ce05e89c39e2a7af7b478d29609116bfb4,2021-11-05 13:46:50-06:00,"{'latitude': 31.785523, 'longitude': -106.506524, 'geohash': '9tskb6', 'postalCode': '79902', 'regionCode': 'TX', 'countryCode': 'US'}","{'speed': 0.0, 'heading': 64.0}","{'wejoVehicleTypeId': 4427167167115703432, 'status': {'ignitionStatus': 'MID_JOURNEY'}}",31.785523,-106.506524,9tskb6,79902,TX,US,0.0,64.0,4427167167115703432,{'ignitionStatus': 'MID_JOURNEY'}
38309bfd-80b1-4458-aaa8-1b89b2980041,12dde248119b82433234bde1850cdd3ac25197c0,2021-11-05 13:45:41-06:00,"{'latitude': 31.782126, 'longitude': -106.506297, 'geohash': '9tskb3', 'postalCode': '79902', 'regionCode': 'TX', 'countryCode': 'US'}","{'speed': 0.0, 'heading': 173.0}","{'wejoVehicleTypeId': 4800622267966529177, 'status': {'ignitionStatus': 'MID_JOURNEY'}}",31.782126,-106.506297,9tskb3,79902,TX,US,0.0,173.0,4800622267966529177,{'ignitionStatus': 'MID_JOURNEY'}
3b41507d-a62f-40a4-b9c0-df1295f7d964,29273891117130eadb0371afd08974c6956683be,2021-11-05 13:04:13-06:00,"{'latitude': 31.784238, 'longitude': -106.506117, 'geohash': '9tskb6', 'postalCode': '79902', 'regionCode': 'TX', 'countryCode': 'US'}","{'speed': 0.0, 'heading': 259.0}","{'wejoVehicleTypeId': -3395762007406874942, 'status': {'ignitionStatus': 'MID_JOURNEY'}}",31.784238,-106.506117,9tskb6,79902,TX,US,0.0,259.0,-3395762007406874942,{'ignitionStatus': 'MID_JOURNEY'}
3c3e9b66-47bd-480b-86db-5750200e11ac,428051115894d1199ad20be6b064f37cb098ad67,2021-11-05 13:55:10-06:00,"{'latitude': 31.784191, 'longitude': -106.505993, 'geohash': '9tskb6', 'postalCode': '79902', 'regionCode': 'TX', 'countryCode': 'US'}","{'speed': 35.71, 'heading': 171.0}","{'wejoVehicleTypeId': 2005109438996634144, 'status': {'ignitionStatus': 'MID_JOURNEY'}}",31.784191,-106.505993,9tskb6,79902,TX,US,35.71,171.0,2005109438996634144,{'ignitionStatus': 'MID_JOURNEY'}
4b5f9f36-8723-4715-ac72-30dd659bdd39,b3d6b0e6a2ce1f2c525b3ae713ad3f63ed09e09a,2021-11-05 13:54:47-06:00,"{'latitude': 31.782257, 'longitude': -106.50597, 'geohash': '9tskb3', 'postalCode': '79902', 'regionCode': 'TX', 'countryCode': 'US'}","{'speed': 0.0, 'heading': 177.0}","{'wejoVehicleTypeId': 617094543127239714, 'status': {'ignitionStatus': 'MID_JOURNEY'}}",31.782257,-106.50597,9tskb3,79902,TX,US,0.0,177.0,617094543127239714,{'ignitionStatus': 'MID_JOURNEY'}
4e0cf8c2-9af7-4991-b5ab-65d594166c85,b3d6b0e6a2ce1f2c525b3ae713ad3f63ed09e09a,2021-11-05 13:47:20-06:00,"{'latitude': 31.782257, 'longitude': -106.50597, 'geohash': '9tskb3', 'postalCode': '79902', 'regionCode': 'TX', 'countryCode': 'US'}","{'speed': 0.0, 'heading': 177.0}","{'wejoVehicleTypeId': 617094543127239714, 'status': {'ignitionStatus': 'MID_JOURNEY'}}",31.782257,-106.50597,9tskb3,79902,TX,US,0.0,177.0,617094543127239714,{'ignitionStatus': 'MID_JOURNEY'}
56c811e0-7789-49ce-9196-8bfdb0560460,2b20a05de1f0a9caf8bf9b23255948164e1c55ca,2021-11-05 13:00:04-06:00,"{'latitude': 31.78554, 'longitude': -106.506475, 'geohash': '9tskb6', 'postalCode': '79902', 'regionCode': 'TX', 'countryCode': 'US'}","{'speed': 0.0, 'heading': 62.0}","{'wejoVehicleTypeId': -4905993081244846927, 'status': {'ignitionStatus': 'MID_JOURNEY'}}",31.78554,-106.506475,9tskb6,79902,TX,US,0.0,62.0,-4905993081244846927,{'ignitionStatus': 'MID_JOURNEY'}
57a3b1e3-ebc9-4ba5-8d33-cc5be91385d4,fd22722c5cab61e93098bff4efe6164298b19688,2021-11-05 13:10:24-06:00,"{'latitude': 31.783305, 'longitude': -106.505402, 'geohash': '9tskb3', 'postalCode': '79902', 'regionCode': 'TX', 'countryCode': 'US'}","{'speed': 69.11, 'heading': 347.0}","{'wejoVehicleTypeId': -1207015137674157005, 'status': {'ignitionStatus': 'MID_JOURNEY'}}",31.783305,-106.505402,9tskb3,79902,TX,US,69.11,347.0,-1207015137674157005,{'ignitionStatus': 'MID_JOURNEY'}
6493526c-13b0-4d0b-b5af-f4c443ed51f9,b3d6b0e6a2ce1f2c525b3ae713ad3f63ed09e09a,2021-11-05 13:53:29-06:00,"{'latitude': 31.782257, 'longitude': -106.50597, 'geohash': '9tskb3', 'postalCode': '79902', 'regionCode': 'TX', 'countryCode': 'US'}","{'speed': 0.0, 'heading': 177.0}","{'wejoVehicleTypeId': 617094543127239714, 'status': {'ignitionStatus': 'MID_JOURNEY'}}",31.782257,-106.50597,9tskb3,79902,TX,US,0.0,177.0,617094543127239714,{'ignitionStatus': 'MID_JOURNEY'}
74d9153b-ed95-4709-a6c9-46697f383b62,29273891117130eadb0371afd08974c6956683be,2021-11-05 13:03:40-06:00,"{'latitude': 31.784238, 'longitude': -106.506117, 'geohash': '9tskb6', 'postalCode': '79902', 'regionCode': 'TX', 'countryCode': 'US'}","{'speed': 0.0, 'heading': 259.0}","{'wejoVehicleTypeId': -3395762007406874942, 'status': {'ignitionStatus': 'MID_JOURNEY'}}",31.784238,-106.506117,9tskb6,79902,TX,US,0.0,259.0,-3395762007406874942,{'ignitionStatus': 'MID_JOURNEY'}
7cc44f83-16ce-444c-abb8-51d36c9d8f29,b3d6b0e6a2ce1f2c525b3ae713ad3f63ed09e09a,2021-11-05 13:55:41-06:00,"{'latitude': 31.782257, 'longitude': -106.50597, 'geohash': '9tskb3', 'postalCode': '79902', 'regionCode': 'TX', 'countryCode': 'US'}","{'speed': 0.0, 'heading': 177.0}","{'wejoVehicleTypeId': 617094543127239714, 'status': {'ignitionStatus': 'MID_JOURNEY'}}",31.782257,-106.50597,9tskb3,79902,TX,US,0.0,177.0,617094543127239714,{'ignitionStatus': 'MID_JOURNEY'}
d1ed8afa-6574-4b8e-9eba-206734905496,4b3d455394b69e6785d262076bb75da3c10d508e,2021-11-05 13:34:05-06:00,"{'latitude': 31.784982, 'longitude': -106.505927, 'geohash': '9tskb6', 'postalCode': '79902', 'regionCode': 'TX', 'countryCode': 'US'}","{'speed': 0.0, 'heading': 344.0}","{'wejoVehicleTypeId': 2561146459348024010, 'status': {'ignitionStatus': 'MID_JOURNEY'}}",31.784982,-106.505927,9tskb6,79902,TX,US,0.0,344.0,2561146459348024010,{'ignitionStatus': 'MID_JOURNEY'}
f7bc3409-e187-4f24-a8a7-b7e2ec91687c,bc702195cdb4c6b440701979125c4fe99004b760,2021-11-05 13:23:28-06:00,"{'latitude': 31.785399, 'longitude': -106.505858, 'geohash': '9tskb6', 'postalCode': '79902', 'regionCode': 'TX', 'countryCode': 'US'}","{'speed': 0.0, 'heading': 58.0}","{'wejoVehicleTypeId': 235495832604841687, 'status': {'ignitionStatus': 'MID_JOURNEY'}}",31.785399,-106.505858,9tskb6,79902,TX,US,0.0,58.0,235495832604841687,{'ignitionStatus': 'MID_JOURNEY'}
fe3198ba-4c35-4a99-b4e7-906b00af0579,428051115894d1199ad20be6b064f37cb098ad67,2021-11-05 13:50:25-06:00,"{'latitude': 31.785073, 'longitude': -106.507699, 'geohash': '9tskb6', 'postalCode': '79902', 'regionCode': 'TX', 'countryCode': 'US'}","{'speed': 32.25, 'heading': 126.0}","{'wejoVehicleTypeId': 2005109438996634144, 'status': {'ignitionStatus': 'MID_JOURNEY'}}",31.785073,-106.507699,9tskb6,79902,TX,US,32.25,126.0,2005109438996634144,{'ignitionStatus': 'MID_JOURNEY'}
05c22829-adcf-4cdf-b132-2498c1c35121,9c68af5bfac72890d254009742e5f1dcf48e643d,2021-11-16 12:45:42-07:00,"{'latitude': 31.785116, 'longitude': -106.506753, 'geohash': '9tskb6', 'postalCode': '79902', 'regionCode': 'TX', 'countryCode': 'US'}","{'speed': 0.0, 'heading': 235.0}","{'wejoVehicleTypeId': 4937768443193831845, 'status': {'ignitionStatus': 'MID_JOURNEY'}}",31.785116,-106.506753,9tskb6,79902,TX,US,0.0,235.0,4937768443193831845,{'ignitionStatus': 'MID_JOURNEY'}
0eef5dba-75a1-41e9-9f0b-115640aaf597,55453eda022f89583fc155edb8de12c65f741d34,2021-11-16 12:43:12-07:00,"{'latitude': 31.782128, 'longitude': -106.505201, 'geohash': '9tskb3', 'postalCode': '79902', 'regionCode': 'TX', 'countryCode': 'US'}","{'speed': 71.42, 'heading': 353.0}","{'wejoVehicleTypeId': -5866723578744670022, 'status': {'ignitionStatus': 'MID_JOURNEY'}}",31.782128,-106.505201,9tskb3,79902,TX,US,71.42,353.0,-5866723578744670022,{'ignitionStatus': 'MID_JOURNEY'}
10a8c65a-5ce3-437d-a3fa-44cb4898fc01,442abaec2e2bd4b97eacb3e40ea637b7d409e5f3,2021-11-16 12:25:07-07:00,"{'latitude': 31.785489, 'longitude': -106.50725, 'geohash': '9tskb6', 'postalCode': '79902', 'regionCode': 'TX', 'countryCode': 'US'}","{'speed': 0.0, 'heading': 74.0}","{'wejoVehicleTypeId': 4937768443193831845, 'status': {'ignitionStatus': 'MID_JOURNEY'}}",31.785489,-106.50725,9tskb6,79902,TX,US,0.0,74.0,4937768443193831845,{'ignitionStatus': 'MID_JOURNEY'}
1301bfea-76e6-412d-b171-e495c7d1b291,2e4b9167dae77c20fc0211135fd1020bd8f5b830,2021-11-16 12:20:24-07:00,"{'latitude': 31.784657, 'longitude': -106.506953, 'geohash': '9tskb6', 'postalCode': '79902', 'regionCode': 'TX', 'countryCode': 'US'}","{'speed': 0.0, 'heading': 76.0}","{'wejoVehicleTypeId': -5506880539887486083, 'status': {'ignitionStatus': 'MID_JOURNEY'}}",31.784657,-106.506953,9tskb6,79902,TX,US,0.0,76.0,-5506880539887486083,{'ignitionStatus': 'MID_JOURNEY'}
186073d4-e959-4804-b41a-3f1a8209b77d,873140489fa30ab12bd959d9f83aa197d8cc47b7,2021-11-16 12:54:41-07:00,"{'latitude': 31.785267, 'longitude': -106.506427, 'geohash': '9tskb6', 'postalCode': '79902', 'regionCode': 'TX', 'countryCode': 'US'}","{'speed': 10.36, 'heading': 295.0}","{'wejoVehicleTypeId': 3208469000586520151, 'status': {'ignitionStatus': 'MID_JOURNEY'}}",31.785267,-106.506427,9tskb6,79902,TX,US,10.36,295.0,3208469000586520151,{'ignitionStatus': 'MID_JOURNEY'}
250a2101-d335-4874-8947-233080839638,f285e289a3652f208e24ad0d61197a2c298c15d9,2021-11-16 12:10:42-07:00,"{'latitude': 31.783813, 'longitude': -106.506157, 'geohash': '9tskb6', 'postalCode': '79902', 'regionCode': 'TX', 'countryCode': 'US'}","{'speed': 20.73, 'heading': 273.0}","{'wejoVehicleTypeId': -3771522159138916236, 'status': {'ignitionStatus': 'MID_JOURNEY'}}",31.783813,-106.506157,9tskb6,79902,TX,US,20.73,273.0,-3771522159138916236,{'ignitionStatus': 'MID_JOURNEY'}
35d3a785-d7e6-4a64-9dea-482fd8922a16,7bb0e4e1c3c5e068069780e9bad9f8d7757a6ba4,2021-11-16 12:37:30-07:00,"{'latitude': 31.7817, 'longitude': -106.507158, 'geohash': '9tskb3', 'postalCode': '79902', 'regionCode': 'TX', 'countryCode': 'US'}","{'speed': 44.92, 'heading': 355.0}","{'wejoVehicleTypeId': 1676350168999332106, 'status': {'ignitionStatus': 'MID_JOURNEY'}}",31.7817,-106.507158,9tskb3,79902,TX,US,44.92,355.0,1676350168999332106,{'ignitionStatus': 'MID_JOURNEY'}
373baf5f-3bad-441f-98f5-7e591741fd35,9ce6192abd865cee49d2b0ee9eaec01ced211cd8,2021-11-16 12:35:41-07:00,"{'latitude': 31.782421, 'longitude': -106.506216, 'geohash': '9tskb3', 'postalCode': '79902', 'regionCode': 'TX', 'countryCode': 'US'}","{'speed': 0.0, 'heading': 356.0}","{'wejoVehicleTypeId': -345822443061872740, 'status': {'ignitionStatus': 'MID_JOURNEY'}}",31.782421,-106.506216,9tskb3,79902,TX,US,0.0,356.0,-345822443061872740,{'ignitionStatus': 'MID_JOURNEY'}
38e51fe1-1c2d-428b-889d-7b3ebd5e296d,b837e5c06259d32c6d67e5a51b2c98a570b6dff1,2021-11-16 12:29:53-07:00,"{'latitude': 31.785287, 'longitude': -106.506045, 'geohash': '9tskb6', 'postalCode': '79902', 'regionCode': 'TX', 'countryCode': 'US'}","{'speed': 0.0, 'heading': 346.0}","{'wejoVehicleTypeId': -489817947189551213, 'status': {'ignitionStatus': 'MID_JOURNEY'}}",31.785287,-106.506045,9tskb6,79902,TX,US,0.0,346.0,-489817947189551213,{'ignitionStatus': 'MID_JOURNEY'}
52370378-a736-4c68-be9a-230e99990c10,9ce6192abd865cee49d2b0ee9eaec01ced211cd8,2021-11-16 12:33:44-07:00,"{'latitude': 31.782421, 'longitude': -106.506216, 'geohash': '9tskb3', 'postalCode': '79902', 'regionCode': 'TX', 'countryCode': 'US'}","{'speed': 0.0, 'heading': 356.0}","{'wejoVehicleTypeId': -345822443061872740, 'status': {'ignitionStatus': 'MID_JOURNEY'}}",31.782421,-106.506216,9tskb3,79902,TX,US,0.0,356.0,-345822443061872740,{'ignitionStatus': 'MID_JOURNEY'}
63f6383a-4b75-4249-8c13-95a205388109,9ce6192abd865cee49d2b0ee9eaec01ced211cd8,2021-11-16 12:08:56-07:00,"{'latitude': 31.782421, 'longitude': -106.506216, 'geohash': '9tskb3', 'postalCode': '79902', 'regionCode': 'TX', 'countryCode': 'US'}","{'speed': 0.0, 'heading': 356.0}","{'wejoVehicleTypeId': -345822443061872740, 'status': {'ignitionStatus': 'MID_JOURNEY'}}",31.782421,-106.506216,9tskb3,79902,TX,US,0.0,356.0,-345822443061872740,{'ignitionStatus': 'MID_JOURNEY'}
81aeee2d-e152-40b9-b7d2-75cef32ba7f9,260bb3b5f3c8d0b5271228954b11c3fd1b2dadde,2021-11-16 12:50:07-07:00,"{'latitude': 31.783308, 'longitude': -106.506357, 'geohash': '9tskb3', 'postalCode': '79902', 'regionCode': 'TX', 'countryCode': 'US'}","{'speed': 0.0, 'heading': 356.0}","{'wejoVehicleTypeId': -8856306992092792876, 'status': {'ignitionStatus': 'MID_JOURNEY'}}",31.783308,-106.506357,9tskb3,79902,TX,US,0.0,356.0,-8856306992092792876,{'ignitionStatus': 'MID_JOURNEY'}
894e1683-1ad6-47ed-8892-28de06a303a2,97f9e9cd5c7dbdb61e7d2bd815196989f91bce42,2021-11-16 12:49:42-07:00,"{'latitude': 31.78579, 'longitude': -106.506296, 'geohash': '9tskb6', 'postalCode': '79902', 'regionCode': 'TX', 'countryCode': 'US'}","{'speed': 0.0, 'heading': 163.0}","{'wejoVehicleTypeId': -7592272991208071998, 'status': {'ignitionStatus': 'MID_JOURNEY'}}",31.78579,-106.506296,9tskb6,79902,TX,US,0.0,163.0,-7592272991208071998,{'ignitionStatus': 'MID_JOURNEY'}
8b0e9028-18bf-4e89-9d71-c2463397922d,9ce6192abd865cee49d2b0ee9eaec01ced211cd8,2021-11-16 12:10:50-07:00,"{'latitude': 31.782421, 'longitude': -106.506216, 'geohash': '9tskb3', 'postalCode': '79902', 'regionCode': 'TX', 'countryCode': 'US'}","{'speed': 0.0, 'heading': 356.0}","{'wejoVehicleTypeId': -345822443061872740, 'status': {'ignitionStatus': 'MID_JOURNEY'}}",31.782421,-106.506216,9tskb3,79902,TX,US,0.0,356.0,-345822443061872740,{'ignitionStatus': 'MID_JOURNEY'}
8bed9e4c-4b2d-444b-a3ce-415d6b5d9218,ff2e21ca0bb2085e735fd32a467abfb32d794c08,2021-11-16 12:56:48-07:00,"{'latitude': 31.783624, 'longitude': -106.507095, 'geohash': '9tskb6', 'postalCode': '79902', 'regionCode': 'TX', 'countryCode': 'US'}","{'speed': 0.0, 'heading': 265.0}","{'wejoVehicleTypeId': 858864156242396152, 'status': {'ignitionStatus': 'MID_JOURNEY'}}",31.783624,-106.507095,9tskb6,79902,TX,US,0.0,265.0,858864156242396152,{'ignitionStatus': 'MID_JOURNEY'}
9649ffc3-4181-4624-9767-db1d399c09fe,873140489fa30ab12bd959d9f83aa197d8cc47b7,2021-11-16 12:47:44-07:00,"{'latitude': 31.785475, 'longitude': -106.50614, 'geohash': '9tskb6', 'postalCode': '79902', 'regionCode': 'TX', 'countryCode': 'US'}","{'speed': 0.0, 'heading': 346.0}","{'wejoVehicleTypeId': 3208469000586520151, 'status': {'ignitionStatus': 'MID_JOURNEY'}}",31.785475,-106.50614,9tskb6,79902,TX,US,0.0,346.0,3208469000586520151,{'ignitionStatus': 'MID_JOURNEY'}
9a785071-f7c3-454f-8497-68ca6faa3bda,873140489fa30ab12bd959d9f83aa197d8cc47b7,2021-11-16 12:46:23-07:00,"{'latitude': 31.785475, 'longitude': -106.50614, 'geohash': '9tskb6', 'postalCode': '79902', 'regionCode': 'TX', 'countryCode': 'US'}","{'speed': 0.0, 'heading': 346.0}","{'wejoVehicleTypeId': 3208469000586520151, 'status': {'ignitionStatus': 'MID_JOURNEY'}}",31.785475,-106.50614,9tskb6,79902,TX,US,0.0,346.0,3208469000586520151,{'ignitionStatus': 'MID_JOURNEY'}
9fa5614c-355d-4e11-b4da-6e2a29090bc5,534f35ca3bcc35559c846f4269e6565eb10ff712,2021-11-16 12:27:26-07:00,"{'latitude': 31.785308, 'longitude': -106.506009, 'geohash': '9tskb6', 'postalCode': '79902', 'regionCode': 'TX', 'countryCode': 'US'}","{'speed': 21.88, 'heading': 345.0}","{'wejoVehicleTypeId': -6042628273181326410, 'status': {'ignitionStatus': 'MID_JOURNEY'}}",31.785308,-106.506009,9tskb6,79902,TX,US,21.88,345.0,-6042628273181326410,{'ignitionStatus': 'MID_JOURNEY'}
a869558e-bf8e-4104-8547-0f7a916f70bc,315e6e4a81ce3bc10cb83d5365b0108a0aae7dd7,2021-11-16 12:16:36-07:00,"{'latitude': 31.784041, 'longitude': -106.505944, 'geohash': '9tskb6', 'postalCode': '79902', 'regionCode': 'TX', 'countryCode': 'US'}","{'speed': 5.76, 'heading': 89.0}","{'wejoVehicleTypeId': -3809333598804071832, 'status': {'ignitionStatus': 'MID_JOURNEY'}}",31.784041,-106.505944,9tskb6,79902,TX,US,5.76,89.0,-3809333598804071832,{'ignitionStatus': 'MID_JOURNEY'}
aa5b6235-51af-45d5-94bd-deb978aa9a83,bd876d73e6ab4735a21349dceb8b418c9224c254,2021-11-16 12:43:37-07:00,"{'latitude': 31.78575, 'longitude': -106.506139, 'geohash': '9tskb6', 'postalCode': '79902', 'regionCode': 'TX', 'countryCode': 'US'}","{'speed': 24.19, 'heading': 358.0}","{'wejoVehicleTypeId': 7682339952434875459, 'status': {'ignitionStatus': 'MID_JOURNEY'}}",31.78575,-106.506139,9tskb6,79902,TX,US,24.19,358.0,7682339952434875459,{'ignitionStatus': 'MID_JOURNEY'}
d5178dd0-8d93-41d7-acb2-57a6de599234,0415899482e95eb5f6ab3a40e8b0857a838ff180,2021-11-16 12:15:01-07:00,"{'latitude': 31.781967, 'longitude': -106.504924, 'geohash': '9tskb3', 'postalCode': '79902', 'regionCode': 'TX', 'countryCode': 'US'}","{'speed': 0.0, 'heading': 83.0}","{'wejoVehicleTypeId': 3507179038070394829, 'status': {'ignitionStatus': 'MID_JOURNEY'}}",31.781967,-106.504924,9tskb3,79902,TX,US,0.0,83.0,3507179038070394829,{'ignitionStatus': 'MID_JOURNEY'}
d5b6bff2-426c-4bbf-b2f9-54c4d09a8c7a,9ce6192abd865cee49d2b0ee9eaec01ced211cd8,2021-11-16 12:14:11-07:00,"{'latitude': 31.782421, 'longitude': -106.506216, 'geohash': '9tskb3', 'postalCode': '79902', 'regionCode': 'TX', 'countryCode': 'US'}","{'speed': 0.0, 'heading': 356.0}","{'wejoVehicleTypeId': -345822443061872740, 'status': {'ignitionStatus': 'MID_JOURNEY'}}",31.782421,-106.506216,9tskb3,79902,TX,US,0.0,356.0,-345822443061872740,{'ignitionStatus': 'MID_JOURNEY'}
ddf0b66a-2bc2-4dfc-a199-5b54bc9b6a46,9ce6192abd865cee49d2b0ee9eaec01ced211cd8,2021-11-16 12:04:02-07:00,"{'latitude': 31.782421, 'longitude': -106.506216, 'geohash': '9tskb3', 'postalCode': '79902', 'regionCode': 'TX', 'countryCode': 'US'}","{'speed': 0.0, 'heading': 356.0}","{'wejoVehicleTypeId': -345822443061872740, 'status': {'ignitionStatus': 'MID_JOURNEY'}}",31.782421,-106.506216,9tskb3,79902,TX,US,0.0,356.0,-345822443061872740,{'ignitionStatus': 'MID_JOURNEY'}
e60c93c5-d3a9-43df-b52b-33ff1b6144fd,f285e289a3652f208e24ad0d61197a2c298c15d9,2021-11-16 12:01:39-07:00,"{'latitude': 31.783378, 'longitude': -106.506323, 'geohash': '9tskb3', 'postalCode': '79902', 'regionCode': 'TX', 'countryCode': 'US'}","{'speed': 0.0, 'heading': 2.0}","{'wejoVehicleTypeId': -3771522159138916236, 'status': {'ignitionStatus': 'MID_JOURNEY'}}",31.783378,-106.506323,9tskb3,79902,TX,US,0.0,2.0,-3771522159138916236,{'ignitionStatus': 'MID_JOURNEY'}
f646205a-8a6f-4a2e-a964-a5b670d53816,cfbdf2b10feb5294305b6a046ab3ecafe0eee543,2021-11-16 12:54:48-07:00,"{'latitude': 31.784993, 'longitude': -106.506147, 'geohash': '9tskb6', 'postalCode': '79902', 'regionCode': 'TX', 'countryCode': 'US'}","{'speed': 46.08, 'heading': 163.0}","{'wejoVehicleTypeId': -5506880539887486083, 'status': {'ignitionStatus': 'MID_JOURNEY'}}",31.784993,-106.506147,9tskb6,79902,TX,US,46.08,163.0,-5506880539887486083,{'ignitionStatus': 'MID_JOURNEY'}
fcd7e699-a9b3-4d31-9cb4-b2af322e2d6f,4eab04a763bc3cff8eb91891fe5f742b193e481e,2021-11-16 12:29:40-07:00,"{'latitude': 31.782747, 'longitude': -106.505331, 'geohash': '9tskb3', 'postalCode': '79902', 'regionCode': 'TX', 'countryCode': 'US'}","{'speed': 59.9, 'heading': 350.0}","{'wejoVehicleTypeId': -7816834535712846244, 'status': {'ignitionStatus': 'MID_JOURNEY'}}",31.782747,-106.505331,9tskb3,79902,TX,US,59.9,350.0,-7816834535712846244,{'ignitionStatus': 'MID_JOURNEY'}
1f21493c-7b50-496c-a376-47545248ee5f,2c71903440a9bc77b542f501500725f1ccb937ca,2021-11-09 12:16:43-07:00,"{'latitude': 31.78225, 'longitude': -106.505421, 'geohash': '9tskb3', 'postalCode': '79902', 'regionCode': 'TX', 'countryCode': 'US'}","{'speed': 50.68, 'heading': 172.0}","{'wejoVehicleTypeId': 674916388113464994, 'status': {'ignitionStatus': 'MID_JOURNEY'}}",31.78225,-106.505421,9tskb3,,,,50.68,172.0,674916388113464994,{'ignitionStatus': 'MID_JOURNEY'}
2b2db7b4-2d5b-47ed-9aa3-c189f7ef5c62,b4d5f1bc624bcfbd2326709cfb1fb726789d4de6,2021-11-09 12:03:36-07:00,"{'latitude': 31.78535, 'longitude': -106.50599, 'geohash': '9tskb6', 'postalCode': '79902', 'regionCode': 'TX', 'countryCode': 'US'}","{'speed': 13.82, 'heading': 346.0}","{'wejoVehicleTypeId': 3557021257846762175, 'status': {'ignitionStatus': 'MID_JOURNEY'}}",31.78535,-106.50599,9tskb6,,,,13.82,346.0,3557021257846762175,{'ignitionStatus': 'MID_JOURNEY'}
37c0b1f2-7444-4e80-af2a-4011e756a470,7772951f39c935448e20ef18a42f2082faac01fb,2021-11-09 12:20:51-07:00,"{'latitude': 31.784197, 'longitude': -106.507199, 'geohash': '9tskb6', 'postalCode': '79902', 'regionCode': 'TX', 'countryCode': 'US'}","{'speed': 0.0, 'heading': 74.0}","{'wejoVehicleTypeId': 3961779446268495915, 'status': {'ignitionStatus': 'MID_JOURNEY'}}",31.784197,-106.507199,9tskb6,,,,0.0,74.0,3961779446268495915,{'ignitionStatus': 'MID_JOURNEY'}
4aed7edb-00a3-42a3-8c0d-59735537866d,c1d58f5d99901bd7a5e4479ca80559ea959ac477,2021-11-09 12:03:52-07:00,"{'latitude': 31.783367, 'longitude': -106.50636, 'geohash': '9tskb3', 'postalCode': '79902', 'regionCode': 'TX', 'countryCode': 'US'}","{'speed': 0.0, 'heading': 357.0}","{'wejoVehicleTypeId': 8792766584255709864, 'status': {'ignitionStatus': 'MID_JOURNEY'}}",31.783367,-106.50636,9tskb3,,,,0.0,357.0,8792766584255709864,{'ignitionStatus': 'MID_JOURNEY'}
7d3b0cdd-91b3-4e4c-9d1e-9b1baba4abe0,2b9a9cf90eaa0fe67f365b31133b8f9fa318e896,2021-11-09 12:55:16-07:00,"{'latitude': 31.7826, 'longitude': -106.50544, 'geohash': '9tskb3', 'postalCode': '79902', 'regionCode': 'TX', 'countryCode': 'US'}","{'speed': 59.9, 'heading': 171.0}","{'wejoVehicleTypeId': -5202287729521290197, 'status': {'ignitionStatus': 'MID_JOURNEY'}}",31.7826,-106.50544,9tskb3,,,,59.9,171.0,-5202287729521290197,{'ignitionStatus': 'MID_JOURNEY'}
911c4391-b544-492f-9818-d7d6a4de6081,396b0d2b84a0e5099eaf68903d64eee09ca5a098,2021-11-09 12:56:35-07:00,"{'latitude': 31.784784, 'longitude': -106.506894, 'geohash': '9tskb6', 'postalCode': '79902', 'regionCode': 'TX', 'countryCode': 'US'}","{'speed': 2.3, 'heading': 299.0}","{'wejoVehicleTypeId': 8603920939059598987, 'status': {'ignitionStatus': 'MID_JOURNEY'}}",31.784784,-106.506894,9tskb6,,,,2.3,299.0,8603920939059598987,{'ignitionStatus': 'MID_JOURNEY'}
c017cf9f-4c1f-44ff-81f3-d7a69ce074bc,6e8209c12ab4a28ef6dfc410eab837accaa8fcb2,2021-11-09 12:11:54-07:00,"{'latitude': 31.784671, 'longitude': -106.507279, 'geohash': '9tskb6', 'postalCode': '79902', 'regionCode': 'TX', 'countryCode': 'US'}","{'speed': 13.82, 'heading': 30.0}","{'wejoVehicleTypeId': 1915655752790434263, 'status': {'ignitionStatus': 'MID_JOURNEY'}}",31.784671,-106.507279,9tskb6,,,,13.82,30.0,1915655752790434263,{'ignitionStatus': 'MID_JOURNEY'}
20e27649-05a8-4a37-aafe-9f6877c7c325,59b57c57202f0b1f6a19449a8f7b59bae6a668c1,2021-11-09 12:42:59-07:00,"{'latitude': 31.78566, 'longitude': -106.506689, 'geohash': '9tskb6', 'postalCode': '79902', 'regionCode': 'TX', 'countryCode': 'US'}","{'speed': 1.15, 'heading': 294.0}","{'wejoVehicleTypeId': 4937768443193831845, 'status': {'ignitionStatus': 'MID_JOURNEY'}}",31.78566,-106.506689,9tskb6,,,,1.15,294.0,4937768443193831845,{'ignitionStatus': 'MID_JOURNEY'}
2a45bdf5-6ab6-4458-b7d1-4fb290a75329,7621814473b5c7861ac6b6bc77caece109c5f086,2021-11-09 12:25:42-07:00,"{'latitude': 31.785789, 'longitude': -106.506314, 'geohash': '9tskb6', 'postalCode': '79902', 'regionCode': 'TX', 'countryCode': 'US'}","{'speed': 0.0, 'heading': 166.0}","{'wejoVehicleTypeId': -8365967274701180683, 'status': {'ignitionStatus': 'MID_JOURNEY'}}",31.785789,-106.506314,9tskb6,,,,0.0,166.0,-8365967274701180683,{'ignitionStatus': 'MID_JOURNEY'}
3c751546-8bf6-4f88-bf8c-fcdd3dd968f4,63f1e3037ef6b777dbf9be3519a48592127eac2b,2021-11-09 12:52:32-07:00,"{'latitude': 31.784403, 'longitude': -106.507201, 'geohash': '9tskb6', 'postalCode': '79902', 'regionCode': 'TX', 'countryCode': 'US'}","{'speed': 0.0, 'heading': 74.0}","{'wejoVehicleTypeId': -297952082815098526, 'status': {'ignitionStatus': 'MID_JOURNEY'}}",31.784403,-106.507201,9tskb6,,,,0.0,74.0,-297952082815098526,{'ignitionStatus': 'MID_JOURNEY'}
4b8d4412-a2af-43c0-8b4b-4e5a369f5ba9,6e8209c12ab4a28ef6dfc410eab837accaa8fcb2,2021-11-09 12:12:39-07:00,"{'latitude': 31.784891, 'longitude': -106.506981, 'geohash': '9tskb6', 'postalCode': '79902', 'regionCode': 'TX', 'countryCode': 'US'}","{'speed': 1.15, 'heading': 355.0}","{'wejoVehicleTypeId': 1915655752790434263, 'status': {'ignitionStatus': 'MID_JOURNEY'}}",31.784891,-106.506981,9tskb6,,,,1.15,355.0,1915655752790434263,{'ignitionStatus': 'MID_JOURNEY'}
4c7095b3-462f-47dd-a54b-8b9b7c109141,c1d58f5d99901bd7a5e4479ca80559ea959ac477,2021-11-09 12:06:46-07:00,"{'latitude': 31.783367, 'longitude': -106.50636, 'geohash': '9tskb3', 'postalCode': '79902', 'regionCode': 'TX', 'countryCode': 'US'}","{'speed': 0.0, 'heading': 357.0}","{'wejoVehicleTypeId': 8792766584255709864, 'status': {'ignitionStatus': 'MID_JOURNEY'}}",31.783367,-106.50636,9tskb3,,,,0.0,357.0,8792766584255709864,{'ignitionStatus': 'MID_JOURNEY'}
5e9b8c33-d254-411c-bc2a-63d2afc96c1c,d12be115a7188c48e587f2dfad915004313a67d9,2021-11-09 12:52:13-07:00,"{'latitude': 31.783505, 'longitude': -106.50573, 'geohash': '9tskb6', 'postalCode': '79902', 'regionCode': 'TX', 'countryCode': 'US'}","{'speed': 57.59, 'heading': 166.0}","{'wejoVehicleTypeId': 2697567197675447457, 'status': {'ignitionStatus': 'MID_JOURNEY'}}",31.783505,-106.50573,9tskb6,,,,57.59,166.0,2697567197675447457,{'ignitionStatus': 'MID_JOURNEY'}
89e34caf-8174-4c22-b988-6a1b6591765e,c1d58f5d99901bd7a5e4479ca80559ea959ac477,2021-11-09 12:11:31-07:00,"{'latitude': 31.783638, 'longitude': -106.506831, 'geohash': '9tskb6', 'postalCode': '79902', 'regionCode': 'TX', 'countryCode': 'US'}","{'speed': 28.79, 'heading': 249.0}","{'wejoVehicleTypeId': 8792766584255709864, 'status': {'ignitionStatus': 'MID_JOURNEY'}}",31.783638,-106.506831,9tskb6,,,,28.79,249.0,8792766584255709864,{'ignitionStatus': 'MID_JOURNEY'}
b0a83f87-43de-4735-8d5f-6e12537515fc,396b0d2b84a0e5099eaf68903d64eee09ca5a098,2021-11-09 12:56:47-07:00,"{'latitude': 31.784767, 'longitude': -106.507139, 'geohash': '9tskb6', 'postalCode': '79902', 'regionCode': 'TX', 'countryCode': 'US'}","{'speed': 1.15, 'heading': 269.0}","{'wejoVehicleTypeId': 8603920939059598987, 'status': {'ignitionStatus': 'MID_JOURNEY'}}",31.784767,-106.507139,9tskb6,,,,1.15,269.0,8603920939059598987,{'ignitionStatus': 'MID_JOURNEY'}
fc252464-6b67-4bf5-9db4-43ea69ee5cc2,e47f0f47aa4b37ba16ea163b65f6dbdc343ffea5,2021-11-09 12:16:21-07:00,"{'latitude': 31.784031, 'longitude': -106.505586, 'geohash': '9tskb6', 'postalCode': '79902', 'regionCode': 'TX', 'countryCode': 'US'}","{'speed': 62.2, 'heading': 346.0}","{'wejoVehicleTypeId': 7111871753776661095, 'status': {'ignitionStatus': 'MID_JOURNEY'}}",31.784031,-106.505586,9tskb6,,,,62.2,346.0,7111871753776661095,{'ignitionStatus': 'MID_JOURNEY'}
05ba340c-0718-4111-86d4-328e43967251,a831a37bd4b049b9e6b15d980d5796542e3bc8c7,2021-11-15 12:47:42-07:00,"{'latitude': 31.783782, 'longitude': -106.50557, 'geohash': '9tskb6', 'postalCode': '79902', 'regionCode': 'TX', 'countryCode': 'US'}","{'speed': 64.51, 'heading': 346.0}","{'wejoVehicleTypeId': -1769143280021653524, 'status': {'ignitionStatus': 'MID_JOURNEY'}}",31.783782,-106.50557,9tskb6,79902,TX,US,64.51,346.0,-1769143280021653524,{'ignitionStatus': 'MID_JOURNEY'}
28124bee-9057-4ef0-ae27-4a7819bb6877,2c6f131d90f1ad1aebac7460a5ed021dcb4b54fa,2021-11-15 12:35:32-07:00,"{'latitude': 31.783018, 'longitude': -106.506364, 'geohash': '9tskb3', 'postalCode': '79902', 'regionCode': 'TX', 'countryCode': 'US'}","{'speed': 0.0, 'heading': 358.0}","{'wejoVehicleTypeId': -8667165719306346280, 'status': {'ignitionStatus': 'MID_JOURNEY'}}",31.783018,-106.506364,9tskb3,79902,TX,US,0.0,358.0,-8667165719306346280,{'ignitionStatus': 'MID_JOURNEY'}
32739aa7-62c0-48ed-addf-0ce6d04f0712,a6e41ecb425658adadd61ff72e65b73eb6825972,2021-11-15 12:42:39-07:00,"{'latitude': 31.784237, 'longitude': -106.507228, 'geohash': '9tskb6', 'postalCode': '79902', 'regionCode': 'TX', 'countryCode': 'US'}","{'speed': 1.15, 'heading': 73.0}","{'wejoVehicleTypeId': -2826431533636137604, 'status': {'ignitionStatus': 'MID_JOURNEY'}}",31.784237,-106.507228,9tskb6,79902,TX,US,1.15,73.0,-2826431533636137604,{'ignitionStatus': 'MID_JOURNEY'}
3ab67509-a6f7-4819-add0-1fe0febebc4d,3100dc9d5b7abff297884f1251da884417cedbe9,2021-11-15 12:44:29-07:00,"{'latitude': 31.782632, 'longitude': -106.506933, 'geohash': '9tskb3', 'postalCode': '79902', 'regionCode': 'TX', 'countryCode': 'US'}","{'speed': 0.0, 'heading': 97.0}","{'wejoVehicleTypeId': -5226394078077340469, 'status': {'ignitionStatus': 'MID_JOURNEY'}}",31.782632,-106.506933,9tskb3,79902,TX,US,0.0,97.0,-5226394078077340469,{'ignitionStatus': 'MID_JOURNEY'}
5534186e-db42-41f0-8fd4-6be2bc06e812,4ed50adaa4fcde63879320b2a8adf7006b6ae985,2021-11-15 12:27:55-07:00,"{'latitude': 31.782527, 'longitude': -106.50656, 'geohash': '9tskb3', 'postalCode': '79902', 'regionCode': 'TX', 'countryCode': 'US'}","{'speed': 0.0, 'heading': 267.0}","{'wejoVehicleTypeId': -5174096307850935288, 'status': {'ignitionStatus': 'MID_JOURNEY'}}",31.782527,-106.50656,9tskb3,79902,TX,US,0.0,267.0,-5174096307850935288,{'ignitionStatus': 'MID_JOURNEY'}
8a313a31-65dc-4b1b-ae9d-763488030922,a69cf17b0238498175b0ab35a5dae6db10691c7f,2021-11-15 12:05:54-07:00,"{'latitude': 31.78214, 'longitude': -106.505174, 'geohash': '9tskb3', 'postalCode': '79902', 'regionCode': 'TX', 'countryCode': 'US'}","{'speed': 55.29, 'heading': 354.0}","{'wejoVehicleTypeId': -8352260796800044107, 'status': {'ignitionStatus': 'MID_JOURNEY'}}",31.78214,-106.505174,9tskb3,79902,TX,US,55.29,354.0,-8352260796800044107,{'ignitionStatus': 'MID_JOURNEY'}
a0321095-212b-4190-ba13-079f438ca17b,7c7bb505ac60303f6adafc837047ef97357ac544,2021-11-15 12:26:38-07:00,"{'latitude': 31.784717, 'longitude': -106.506872, 'geohash': '9tskb6', 'postalCode': '79902', 'regionCode': 'TX', 'countryCode': 'US'}","{'speed': 3.45, 'heading': 153.0}","{'wejoVehicleTypeId': 3282631279004182225, 'status': {'ignitionStatus': 'MID_JOURNEY'}}",31.784717,-106.506872,9tskb6,79902,TX,US,3.45,153.0,3282631279004182225,{'ignitionStatus': 'MID_JOURNEY'}
a9718bdf-b354-4d32-8a76-f9c7ac01783d,6885c9cb40fec43d3ce40628c10f0a8977633eef,2021-11-15 12:58:30-07:00,"{'latitude': 31.785436, 'longitude': -106.506025, 'geohash': '9tskb6', 'postalCode': '79902', 'regionCode': 'TX', 'countryCode': 'US'}","{'speed': 71.42, 'heading': 346.0}","{'wejoVehicleTypeId': -421385764776494633, 'status': {'ignitionStatus': 'MID_JOURNEY'}}",31.785436,-106.506025,9tskb6,79902,TX,US,71.42,346.0,-421385764776494633,{'ignitionStatus': 'MID_JOURNEY'}
bd366552-10ac-4e60-b6ae-c65dcaaf44df,eb7ee7245d3a9d701438a19370d1011756932a09,2021-11-15 12:08:31-07:00,"{'latitude': 31.783795, 'longitude': -106.505752, 'geohash': '9tskb6', 'postalCode': '79902', 'regionCode': 'TX', 'countryCode': 'US'}","{'speed': 73.72, 'heading': 165.0}","{'wejoVehicleTypeId': 7486974280809508326, 'status': {'ignitionStatus': 'MID_JOURNEY'}}",31.783795,-106.505752,9tskb6,79902,TX,US,73.72,165.0,7486974280809508326,{'ignitionStatus': 'MID_JOURNEY'}
d6ff6be1-d12b-41fa-9dbf-de5d20de95e6,0de42d647f8d60f66dfdaac10d88bb1e8cba0214,2021-11-15 12:12:23-07:00,"{'latitude': 31.782955, 'longitude': -106.507232, 'geohash': '9tskb3', 'postalCode': '79902', 'regionCode': 'TX', 'countryCode': 'US'}","{'speed': 49.53, 'heading': 353.0}","{'wejoVehicleTypeId': 3610590103575384190, 'status': {'ignitionStatus': 'MID_JOURNEY'}}",31.782955,-106.507232,9tskb3,79902,TX,US,49.53,353.0,3610590103575384190,{'ignitionStatus': 'MID_JOURNEY'}
e82cc7bc-5a18-463b-8370-d33985de3472,3100dc9d5b7abff297884f1251da884417cedbe9,2021-11-15 12:56:05-07:00,"{'latitude': 31.783503, 'longitude': -106.506365, 'geohash': '9tskb6', 'postalCode': '79902', 'regionCode': 'TX', 'countryCode': 'US'}","{'speed': 0.0, 'heading': 358.0}","{'wejoVehicleTypeId': -5226394078077340469, 'status': {'ignitionStatus': 'MID_JOURNEY'}}",31.783503,-106.506365,9tskb6,79902,TX,US,0.0,358.0,-5226394078077340469,{'ignitionStatus': 'MID_JOURNEY'}
ea78ffc4-4bc6-49fd-9746-585d318d9589,e9c89e42196fcdc70ef734561f1afcf55c594081,2021-11-15 12:50:56-07:00,"{'latitude': 31.785251, 'longitude': -106.506428, 'geohash': '9tskb6', 'postalCode': '79902', 'regionCode': 'TX', 'countryCode': 'US'}","{'speed': 17.27, 'heading': 309.0}","{'wejoVehicleTypeId': -3806101929119832505, 'status': {'ignitionStatus': 'MID_JOURNEY'}}",31.785251,-106.506428,9tskb6,79902,TX,US,17.27,309.0,-3806101929119832505,{'ignitionStatus': 'MID_JOURNEY'}
fe596f0f-e74a-4126-8044-73e78d2a8597,ffdb44e51e494797ac1612e680b0d89726a267a6,2021-11-15 12:58:54-07:00,"{'latitude': 31.785053, 'longitude': -106.505723, 'geohash': '9tskb6', 'postalCode': '79902', 'regionCode': 'TX', 'countryCode': 'US'}","{'speed': 16.12, 'heading': 159.0}","{'wejoVehicleTypeId': -106228565178668438, 'status': {'ignitionStatus': 'MID_JOURNEY'}}",31.785053,-106.505723,9tskb6,79902,TX,US,16.12,159.0,-106228565178668438,{'ignitionStatus': 'MID_JOURNEY'}
02d93717-3db6-4ccf-b429-167d243a893c,13e7406a98f9d7a1804997be6a1e5422691d2c55,2021-11-15 12:05:02-07:00,"{'latitude': 31.782125, 'longitude': -106.505181, 'geohash': '9tskb3', 'postalCode': '79902', 'regionCode': 'TX', 'countryCode': 'US'}","{'speed': 82.94, 'heading': 353.0}","{'wejoVehicleTypeId': 3519719782581272855, 'status': {'ignitionStatus': 'MID_JOURNEY'}}",31.782125,-106.505181,9tskb3,79902,TX,US,82.94,353.0,3519719782581272855,{'ignitionStatus': 'MID_JOURNEY'}
0d2ee8f3-afaa-47f6-b02d-2caa04c34d54,2c6f131d90f1ad1aebac7460a5ed021dcb4b54fa,2021-11-15 12:53:05-07:00,"{'latitude': 31.783521, 'longitude': -106.506393, 'geohash': '9tskb6', 'postalCode': '79902', 'regionCode': 'TX', 'countryCode': 'US'}","{'speed': 0.0, 'heading': 354.0}","{'wejoVehicleTypeId': -8667165719306346280, 'status': {'ignitionStatus': 'MID_JOURNEY'}}",31.783521,-106.506393,9tskb6,79902,TX,US,0.0,354.0,-8667165719306346280,{'ignitionStatus': 'MID_JOURNEY'}
15803d55-dfb0-4cdd-bfd3-5e9543826197,3100dc9d5b7abff297884f1251da884417cedbe9,2021-11-15 12:56:20-07:00,"{'latitude': 31.783503, 'longitude': -106.506365, 'geohash': '9tskb6', 'postalCode': '79902', 'regionCode': 'TX', 'countryCode': 'US'}","{'speed': 0.0, 'heading': 358.0}","{'wejoVehicleTypeId': -5226394078077340469, 'status': {'ignitionStatus': 'MID_JOURNEY'}}",31.783503,-106.506365,9tskb6,79902,TX,US,0.0,358.0,-5226394078077340469,{'ignitionStatus': 'MID_JOURNEY'}
59a55e7d-f1a8-4eb3-8215-ddbd521565c5,2c6f131d90f1ad1aebac7460a5ed021dcb4b54fa,2021-11-15 12:51:29-07:00,"{'latitude': 31.783521, 'longitude': -106.506393, 'geohash': '9tskb6', 'postalCode': '79902', 'regionCode': 'TX', 'countryCode': 'US'}","{'speed': 0.0, 'heading': 354.0}","{'wejoVehicleTypeId': -8667165719306346280, 'status': {'ignitionStatus': 'MID_JOURNEY'}}",31.783521,-106.506393,9tskb6,79902,TX,US,0.0,354.0,-8667165719306346280,{'ignitionStatus': 'MID_JOURNEY'}
71c432d6-609a-45a0-aca3-3d85b8ffa2ac,3100dc9d5b7abff297884f1251da884417cedbe9,2021-11-15 12:42:56-07:00,"{'latitude': 31.782344, 'longitude': -106.50528, 'geohash': '9tskb3', 'postalCode': '79902', 'regionCode': 'TX', 'countryCode': 'US'}","{'speed': 1.15, 'heading': 352.0}","{'wejoVehicleTypeId': -5226394078077340469, 'status': {'ignitionStatus': 'MID_JOURNEY'}}",31.782344,-106.50528,9tskb3,79902,TX,US,1.15,352.0,-5226394078077340469,{'ignitionStatus': 'MID_JOURNEY'}
9f1aa815-0b8b-468b-8e0d-42ee3dc4d51d,887d72283ff4b2d16ddd8cef98c4f1e23138e909,2021-11-15 12:29:50-07:00,"{'latitude': 31.784843, 'longitude': -106.506662, 'geohash': '9tskb6', 'postalCode': '79902', 'regionCode': 'TX', 'countryCode': 'US'}","{'speed': 0.0, 'heading': 255.0}","{'wejoVehicleTypeId': -4131165807841575269, 'status': {'ignitionStatus': 'MID_JOURNEY'}}",31.784843,-106.506662,9tskb6,79902,TX,US,0.0,255.0,-4131165807841575269,{'ignitionStatus': 'MID_JOURNEY'}
9f3225e0-1979-4f27-b54d-8a572fe2667a,d6f5ab084990ff32b67a21a836b4d0aae24ff6bf,2021-11-15 12:57:16-07:00,"{'latitude': 31.785551, 'longitude': -106.506556, 'geohash': '9tskb6', 'postalCode': '79902', 'regionCode': 'TX', 'countryCode': 'US'}","{'speed': 35.71, 'heading': 244.0}","{'wejoVehicleTypeId': 4937768443193831845, 'status': {'ignitionStatus': 'MID_JOURNEY'}}",31.785551,-106.506556,9tskb6,79902,TX,US,35.71,244.0,4937768443193831845,{'ignitionStatus': 'MID_JOURNEY'}
c06d0b32-60ec-4f84-a001-dc32d83e20b0,2c6f131d90f1ad1aebac7460a5ed021dcb4b54fa,2021-11-15 12:50:41-07:00,"{'latitude': 31.783521, 'longitude': -106.506393, 'geohash': '9tskb6', 'postalCode': '79902', 'regionCode': 'TX', 'countryCode': 'US'}","{'speed': 0.0, 'heading': 354.0}","{'wejoVehicleTypeId': -8667165719306346280, 'status': {'ignitionStatus': 'MID_JOURNEY'}}",31.783521,-106.506393,9tskb6,79902,TX,US,0.0,354.0,-8667165719306346280,{'ignitionStatus': 'MID_JOURNEY'}
d9757893-64cc-4828-b2ec-8779329535c1,eb7ee7245d3a9d701438a19370d1011756932a09,2021-11-15 12:08:34-07:00,"{'latitude': 31.783282, 'longitude': -106.505602, 'geohash': '9tskb3', 'postalCode': '79902', 'regionCode': 'TX', 'countryCode': 'US'}","{'speed': 69.11, 'heading': 165.0}","{'wejoVehicleTypeId': 7486974280809508326, 'status': {'ignitionStatus': 'MID_JOURNEY'}}",31.783282,-106.505602,9tskb3,79902,TX,US,69.11,165.0,7486974280809508326,{'ignitionStatus': 'MID_JOURNEY'}
e54a46ae-7cf9-4ff5-bb3b-6d2c1a1fdb85,dbead9a8841735bb9d6626051f3512cccc5f9e7d,2021-11-15 12:58:25-07:00,"{'latitude': 31.785433, 'longitude': -106.506637, 'geohash': '9tskb6', 'postalCode': '79902', 'regionCode': 'TX', 'countryCode': 'US'}","{'speed': 3.45, 'heading': 60.0}","{'wejoVehicleTypeId': -8849042556223272170, 'status': {'ignitionStatus': 'MID_JOURNEY'}}",31.785433,-106.506637,9tskb6,79902,TX,US,3.45,60.0,-8849042556223272170,{'ignitionStatus': 'MID_JOURNEY'}
e89ee93d-9c1f-455c-9314-d910ef89dd2b,7c7bb505ac60303f6adafc837047ef97357ac544,2021-11-15 12:16:41-07:00,"{'latitude': 31.781892, 'longitude': -106.505161, 'geohash': '9tskb3', 'postalCode': '79902', 'regionCode': 'TX', 'countryCode': 'US'}","{'speed': 50.68, 'heading': 355.0}","{'wejoVehicleTypeId': 3282631279004182225, 'status': {'ignitionStatus': 'MID_JOURNEY'}}",31.781892,-106.505161,9tskb3,79902,TX,US,50.68,355.0,3282631279004182225,{'ignitionStatus': 'MID_JOURNEY'}
050f1967-ce75-4d60-a0c2-9ded42c4d9db,9671598248ebf24918c26eeadf0e28aff7da6c9a,2021-11-01 13:58:15-06:00,"{'latitude': 31.782887, 'longitude': -106.505511, 'geohash': '9tskb3', 'postalCode': '79902', 'regionCode': 'TX', 'countryCode': 'US'}","{'speed': 62.2, 'heading': 169.0}","{'wejoVehicleTypeId': 6821915716355749513, 'status': {'ignitionStatus': 'MID_JOURNEY'}}",31.782887,-106.505511,9tskb3,79902,TX,US,62.2,169.0,6821915716355749513,{'ignitionStatus': 'MID_JOURNEY'}
06024d32-ac15-4473-9165-1b33d0e0ac48,b936d2aafc456b6aadb3aceb937619224d061fc9,2021-11-01 13:23:49-06:00,"{'latitude': 31.785247, 'longitude': -106.506031, 'geohash': '9tskb6', 'postalCode': '79902', 'regionCode': 'TX', 'countryCode': 'US'}","{'speed': 1.15, 'heading': 346.0}","{'wejoVehicleTypeId': 5840964419435185967, 'status': {'ignitionStatus': 'MID_JOURNEY'}}",31.785247,-106.506031,9tskb6,79902,TX,US,1.15,346.0,5840964419435185967,{'ignitionStatus': 'MID_JOURNEY'}
11643b52-20f1-4b56-be8d-c5dd46b8b2a0,932b32512fac35e39bbed980fcef0b9c9b37b85f,2021-11-01 13:23:11-06:00,"{'latitude': 31.78366, 'longitude': -106.505711, 'geohash': '9tskb6', 'postalCode': '79902', 'regionCode': 'TX', 'countryCode': 'US'}","{'speed': 66.81, 'heading': 165.0}","{'wejoVehicleTypeId': 1915980358073577053, 'status': {'ignitionStatus': 'MID_JOURNEY'}}",31.78366,-106.505711,9tskb6,79902,TX,US,66.81,165.0,1915980358073577053,{'ignitionStatus': 'MID_JOURNEY'}
18215179-1be0-4d51-adaa-f500aa709581,90dc91aee2f4857d38ef798be1233c47870f80f2,2021-11-01 13:57:02-06:00,"{'latitude': 31.78501, 'longitude': -106.506101, 'geohash': '9tskb6', 'postalCode': '79902', 'regionCode': 'TX', 'countryCode': 'US'}","{'speed': 61.05, 'heading': 166.0}","{'wejoVehicleTypeId': -3289542157874144995, 'status': {'ignitionStatus': 'MID_JOURNEY'}}",31.78501,-106.506101,9tskb6,79902,TX,US,61.05,166.0,-3289542157874144995,{'ignitionStatus': 'MID_JOURNEY'}
1aa424ab-89b6-4a35-a113-dece73daa4dc,dbd342d0ef0be2e80e13aaa6c4212bee6855d74e,2021-11-01 13:54:40-06:00,"{'latitude': 31.78493, 'longitude': -106.506066, 'geohash': '9tskb6', 'postalCode': '79902', 'regionCode': 'TX', 'countryCode': 'US'}","{'speed': 66.81, 'heading': 165.0}","{'wejoVehicleTypeId': -2114223448272633130, 'status': {'ignitionStatus': 'MID_JOURNEY'}}",31.78493,-106.506066,9tskb6,79902,TX,US,66.81,165.0,-2114223448272633130,{'ignitionStatus': 'MID_JOURNEY'}
3642314d-d418-4aa6-85ff-a7e1f8d3da0c,4695dd4a5fcb6277ed8376a2be294ce6f1da97d7,2021-11-01 13:10:34-06:00,"{'latitude': 31.785502, 'longitude': -106.506494, 'geohash': '9tskb6', 'postalCode': '79902', 'regionCode': 'TX', 'countryCode': 'US'}","{'speed': 0.0, 'heading': 65.0}","{'wejoVehicleTypeId': -5659088960772572340, 'status': {'ignitionStatus': 'MID_JOURNEY'}}",31.785502,-106.506494,9tskb6,79902,TX,US,0.0,65.0,-5659088960772572340,{'ignitionStatus': 'MID_JOURNEY'}
4b697947-160c-4eae-bb19-3a046ad805a4,9794f6289b001311bb37035b3ef62a28e3028a0c,2021-11-01 13:35:16-06:00,"{'latitude': 31.782217, 'longitude': -106.506083, 'geohash': '9tskb3', 'postalCode': '79902', 'regionCode': 'TX', 'countryCode': 'US'}","{'speed': 0.0, 'heading': 359.0}","{'wejoVehicleTypeId': -4394878236198485542, 'status': {'ignitionStatus': 'MID_JOURNEY'}}",31.782217,-106.506083,9tskb3,79902,TX,US,0.0,359.0,-4394878236198485542,{'ignitionStatus': 'MID_JOURNEY'}
745ff9de-b183-49d6-950d-e319654d9fb1,87bf7118cbd5dacc727bf3f2ae35da316c23de27,2021-11-01 13:36:28-06:00,"{'latitude': 31.782366, 'longitude': -106.506464, 'geohash': '9tskb3', 'postalCode': '79902', 'regionCode': 'TX', 'countryCode': 'US'}","{'speed': 10.36, 'heading': 302.0}","{'wejoVehicleTypeId': 1006453098974534854, 'status': {'ignitionStatus': 'MID_JOURNEY'}}",31.782366,-106.506464,9tskb3,79902,TX,US,10.36,302.0,1006453098974534854,{'ignitionStatus': 'MID_JOURNEY'}
7a59a5d3-5104-4132-b784-864886d4109f,72d2a38ebcdbd67769cd9c883a841398659433a2,2021-11-01 13:11:49-06:00,"{'latitude': 31.784741, 'longitude': -106.506585, 'geohash': '9tskb6', 'postalCode': '79902', 'regionCode': 'TX', 'countryCode': 'US'}","{'speed': 0.0, 'heading': 72.0}","{'wejoVehicleTypeId': 8356401384089741547, 'status': {'ignitionStatus': 'MID_JOURNEY'}}",31.784741,-106.506585,9tskb6,79902,TX,US,0.0,72.0,8356401384089741547,{'ignitionStatus': 'MID_JOURNEY'}
7b5430a7-3507-4eb6-8f73-a1f829499d7c,24600f8713bed793918fc39c1f51749a74d1bdac,2021-11-01 13:44:52-06:00,"{'latitude': 31.782608, 'longitude': -106.505306, 'geohash': '9tskb3', 'postalCode': '79902', 'regionCode': 'TX', 'countryCode': 'US'}","{'speed': 62.2, 'heading': 351.0}","{'wejoVehicleTypeId': -8889158561264354057, 'status': {'ignitionStatus': 'MID_JOURNEY'}}",31.782608,-106.505306,9tskb3,79902,TX,US,62.2,351.0,-8889158561264354057,{'ignitionStatus': 'MID_JOURNEY'}
870a42e3-acd6-4cf5-a6fe-d54c8c993288,edfa2a5e34667e7a02f140aa741ece6d47896620,2021-11-01 13:06:40-06:00,"{'latitude': 31.784669, 'longitude': -106.505964, 'geohash': '9tskb6', 'postalCode': '79902', 'regionCode': 'TX', 'countryCode': 'US'}","{'speed': 77.18, 'heading': 167.0}","{'wejoVehicleTypeId': 3519719782581272855, 'status': {'ignitionStatus': 'MID_JOURNEY'}}",31.784669,-106.505964,9tskb6,79902,TX,US,77.18,167.0,3519719782581272855,{'ignitionStatus': 'MID_JOURNEY'}
8f77ae40-a5ee-4a9d-8623-e198cfd13bc4,dbb8bdafbf8235c9758d7a271d56e73b39febcad,2021-11-01 13:12:59-06:00,"{'latitude': 31.783851, 'longitude': -106.505598, 'geohash': '9tskb6', 'postalCode': '79902', 'regionCode': 'TX', 'countryCode': 'US'}","{'speed': 80.64, 'heading': 346.0}","{'wejoVehicleTypeId': -1960772165700602738, 'status': {'ignitionStatus': 'MID_JOURNEY'}}",31.783851,-106.505598,9tskb6,79902,TX,US,80.64,346.0,-1960772165700602738,{'ignitionStatus': 'MID_JOURNEY'}
94072167-4544-41c4-83a8-bc28c2b9b2bc,57ee966069b6989392adde3c018cb4a250812da9,2021-11-01 13:09:53-06:00,"{'latitude': 31.783563, 'longitude': -106.507417, 'geohash': '9tskb6', 'postalCode': '79902', 'regionCode': 'TX', 'countryCode': 'US'}","{'speed': 49.53, 'heading': 168.0}","{'wejoVehicleTypeId': 8603920939059598987, 'status': {'ignitionStatus': 'MID_JOURNEY'}}",31.783563,-106.507417,9tskb6,79902,TX,US,49.53,168.0,8603920939059598987,{'ignitionStatus': 'MID_JOURNEY'}
a7905b6b-e096-4b0b-9262-d9bc7337fa29,655cb02b0638c360779893067d8775741efe33aa,2021-11-01 13:34:32-06:00,"{'latitude': 31.784806, 'longitude': -106.505997, 'geohash': '9tskb6', 'postalCode': '79902', 'regionCode': 'TX', 'countryCode': 'US'}","{'speed': 73.72, 'heading': 165.0}","{'wejoVehicleTypeId': 4461578528958993465, 'status': {'ignitionStatus': 'MID_JOURNEY'}}",31.784806,-106.505997,9tskb6,79902,TX,US,73.72,165.0,4461578528958993465,{'ignitionStatus': 'MID_JOURNEY'}
cc76fcfb-a0a0-4c54-97b8-eaab8acab664,688bc9e0e0c0f9c97435157dc71a8a4b3501dc1a,2021-11-01 13:19:28-06:00,"{'latitude': 31.785477, 'longitude': -106.506027, 'geohash': '9tskb6', 'postalCode': '79902', 'regionCode': 'TX', 'countryCode': 'US'}","{'speed': 0.0, 'heading': 352.0}","{'wejoVehicleTypeId': -8295343974053244821, 'status': {'ignitionStatus': 'MID_JOURNEY'}}",31.785477,-106.506027,9tskb6,79902,TX,US,0.0,352.0,-8295343974053244821,{'ignitionStatus': 'MID_JOURNEY'}
e3949e3a-12c4-4161-813d-438cb7b253a6,08e4e621b9f9fb695dc69d7715e3bdd829193548,2021-11-01 12:59:44-06:00,"{'latitude': 31.785486, 'longitude': -106.506551, 'geohash': '9tskb6', 'postalCode': '79902', 'regionCode': 'TX', 'countryCode': 'US'}","{'speed': 27.64, 'heading': 62.0}","{'wejoVehicleTypeId': 3610173663801304087, 'status': {'ignitionStatus': 'MID_JOURNEY'}}",31.785486,-106.506551,9tskb6,79902,TX,US,27.64,62.0,3610173663801304087,{'ignitionStatus': 'MID_JOURNEY'}
21ee162e-7b04-4179-aea3-49617b8c7180,b9fc25aff90b0ea81f5c95ba9a8c594169a65c41,2021-11-01 13:10:08-06:00,"{'latitude': 31.783553, 'longitude': -106.505477, 'geohash': '9tskb6', 'postalCode': '79902', 'regionCode': 'TX', 'countryCode': 'US'}","{'speed': 61.05, 'heading': 346.0}","{'wejoVehicleTypeId': 3113856390020043420, 'status': {'ignitionStatus': 'MID_JOURNEY'}}",31.783553,-106.505477,9tskb6,79902,TX,US,61.05,346.0,3113856390020043420,{'ignitionStatus': 'MID_JOURNEY'}
36f61012-e04c-46a7-9afa-9e3a55327d77,9794f6289b001311bb37035b3ef62a28e3028a0c,2021-11-01 13:31:46-06:00,"{'latitude': 31.782217, 'longitude': -106.506083, 'geohash': '9tskb3', 'postalCode': '79902', 'regionCode': 'TX', 'countryCode': 'US'}","{'speed': 0.0, 'heading': 359.0}","{'wejoVehicleTypeId': -4394878236198485542, 'status': {'ignitionStatus': 'MID_JOURNEY'}}",31.782217,-106.506083,9tskb3,79902,TX,US,0.0,359.0,-4394878236198485542,{'ignitionStatus': 'MID_JOURNEY'}
538e5cbb-c459-46df-8237-8de7bd009cff,72d2a38ebcdbd67769cd9c883a841398659433a2,2021-11-01 13:14:10-06:00,"{'latitude': 31.784804, 'longitude': -106.506286, 'geohash': '9tskb6', 'postalCode': '79902', 'regionCode': 'TX', 'countryCode': 'US'}","{'speed': 10.36, 'heading': 74.0}","{'wejoVehicleTypeId': 8356401384089741547, 'status': {'ignitionStatus': 'MID_JOURNEY'}}",31.784804,-106.506286,9tskb6,79902,TX,US,10.36,74.0,8356401384089741547,{'ignitionStatus': 'MID_JOURNEY'}
aacfd2d0-8024-4a8b-9671-9fca28ed8abc,c58d0192fd558523aa6baa450b58b0c5c7585fc7,2021-11-01 13:37:53-06:00,"{'latitude': 31.782193, 'longitude': -106.506325, 'geohash': '9tskb3', 'postalCode': '79902', 'regionCode': 'TX', 'countryCode': 'US'}","{'speed': 3.45, 'heading': 45.0}","{'wejoVehicleTypeId': 4548814050210495730, 'status': {'ignitionStatus': 'MID_JOURNEY'}}",31.782193,-106.506325,9tskb3,79902,TX,US,3.45,45.0,4548814050210495730,{'ignitionStatus': 'MID_JOURNEY'}
e07cb097-7d55-47a9-a391-93b7d5017eea,72d2a38ebcdbd67769cd9c883a841398659433a2,2021-11-01 13:12:55-06:00,"{'latitude': 31.784741, 'longitude': -106.506585, 'geohash': '9tskb6', 'postalCode': '79902', 'regionCode': 'TX', 'countryCode': 'US'}","{'speed': 0.0, 'heading': 72.0}","{'wejoVehicleTypeId': 8356401384089741547, 'status': {'ignitionStatus': 'MID_JOURNEY'}}",31.784741,-106.506585,9tskb6,79902,TX,US,0.0,72.0,8356401384089741547,{'ignitionStatus': 'MID_JOURNEY'}
ea49fa5c-7479-4229-854f-c9ed3fd47855,bbf106d8e7f6bb9f3682a80d8b86be515003558a,2021-11-01 13:25:57-06:00,"{'latitude': 31.785216, 'longitude': -106.505995, 'geohash': '9tskb6', 'postalCode': '79902', 'regionCode': 'TX', 'countryCode': 'US'}","{'speed': 17.27, 'heading': 345.0}","{'wejoVehicleTypeId': -8667165719306346280, 'status': {'ignitionStatus': 'MID_JOURNEY'}}",31.785216,-106.505995,9tskb6,79902,TX,US,17.27,345.0,-8667165719306346280,{'ignitionStatus': 'MID_JOURNEY'}
